三田,{"response":{"station":[{"name":"三田","prefecture":"兵庫県","line":"JR福知山線","x":135.22979,"y":34.888787,"postal":"6691528","prev":"道場","next":"新三田"},{"name":"三田","prefecture":"兵庫県","line":"神戸電鉄三田線","x":135.23052,"y":34.888259,"postal":"6691528","prev":"三田本町","next":null},{"name":"三田","prefecture":"東京都","line":"都営三田線","x":139.748775,"y":35.64818,"postal":"1080014","prev":"白金高輪","next":"芝公園"},{"name":"三田","prefecture":"東京都","line":"都営浅草線","x":139.748775,"y":35.64818,"postal":"1080014","prev":"泉岳寺","next":"大門"}]}}
三鷹,{"response":{"station":[{"name":"三鷹","prefecture":"東京都","line":"JR中央線","x":139.560325,"y":35.702683,"postal":"1810013","prev":"吉祥寺","next":"武蔵境"},{"name":"三鷹","prefecture":"東京都","line":"JR総武線","x":139.560325,"y":35.702683,"postal":"1810013","prev":null,"next":"吉祥寺"}]}}
上町,{"response":{"station":[{"name":"上町","prefecture":"東京都","line":"東急世田谷線","x":139.646276,"y":35.643656,"postal":"1540017","prev":"世田谷","next":"宮の坂"}]}}
上野,{"response":{"station":[{"name":"上野","prefecture":"東京都","line":"JR京浜東北線","x":139.777043,"y":35.71379,"postal":"1100005","prev":"鶯谷","next":"御徒町"},{"name":"上野","prefecture":"東京都","line":"JR宇都宮線","x":139.777043,"y":35.71379,"postal":"1100005","prev":null,"next":"尾久"},{"name":"上野","prefecture":"東京都","line":"JR山手線","x":139.777043,"y":35.71379,"postal":"1100005","prev":"鶯谷","next":"御徒町"},{"name":"上野","prefecture":"東京都","line":"JR常磐線快速","x":139.777043,"y":35.71379,"postal":"1100005","prev":null,"next":"日暮里"},{"name":"上野","prefecture":"東京都","line":"JR高崎線","x":139.777043,"y":35.71379,"postal":"1100005","prev":null,"next":"尾久"},{"name":"上野","prefecture":"東京都","line":"上越新幹線","x":139.777043,"y":35.71379,"postal":"1100005","prev":"東京","next":"大宮"},{"name":"上野","prefecture":"東京都","line":"東京メトロ日比谷線","x":139.777122,"y":35.711482,"postal":"1100005","prev":"入谷","next":"仲御徒町"},{"name":"上野","prefecture":"東京都","line":"東京メトロ銀座線","x":139.777122,"y":35.711482,"postal":"1100005","prev":"上野広小路","next":"稲荷町"},{"name":"上野","prefecture":"東京都","line":"東北新幹線","x":139.777043,"y":35.71379,"postal":"1100005","prev":"東京","next":"大宮"},{"name":"上野","prefecture":"東京都","line":"北陸新幹線","x":139.777043,"y":35.71379,"postal":"1100005","prev":"大宮","next":"東京"},{"name":"上野","prefecture":"東京都","line":"JR上野東京ライン","x":139.777043,"y":35.71379,"postal":"1100005","prev":"日暮里","next":"東京"}]}}
両国,{"response":{"station":[{"name":"両国","prefecture":"東京都","line":"JR総武線","x":139.793334,"y":35.69579,"postal":"1300015","prev":"浅草橋","next":"錦糸町"},{"name":"両国","prefecture":"東京都","line":"都営大江戸線","x":139.797421,"y":35.696881,"postal":"1300014","prev":"蔵前","next":"森下"}]}}
中井,{"response":{"station":[{"name":"中井","prefecture":"東京都","line":"西武新宿線","x":139.686967,"y":35.715106,"postal":"1610035","prev":"下落合","next":"新井薬師前"},{"name":"中井","prefecture":"東京都","line":"都営大江戸線","x":139.686356,"y":35.714035,"postal":"1610034","prev":"東中野","next":"落合南長崎"}]}}
中延,{"response":{"station":[{"name":"中延","prefecture":"東京都","line":"東急大井町線","x":139.712526,"y":35.60571,"postal":"1420053","prev":"戸越公園","next":"荏原町"},{"name":"中延","prefecture":"東京都","line":"都営浅草線","x":139.713736,"y":35.605769,"postal":"1420042","prev":"馬込","next":"戸越"}]}}
中神,{"response":{"station":[{"name":"中神","prefecture":"東京都","line":"JR青梅線","x":139.375816,"y":35.709058,"postal":"1960022","prev":"東中神","next":"昭島"}]}}
中野,{"response":{"station":[{"name":"中野","prefecture":"東京都","line":"JR中央線","x":139.665835,"y":35.705765,"postal":"1640001","prev":"東中野","next":"高円寺"},{"name":"中野","prefecture":"東京都","line":"JR総武線","x":139.665835,"y":35.705765,"postal":"1640001","prev":"高円寺","next":"東中野"},{"name":"中野","prefecture":"群馬県","line":"わたらせ渓谷鐵道線","x":139.317219,"y":36.524243,"postal":"3760307","prev":"花輪","next":"小中"},{"name":"中野","prefecture":"長野県","line":"上田電鉄別所線","x":138.193438,"y":36.360654,"postal":"3861325","prev":"塩田町","next":"舞田"},{"name":"中野","prefecture":"東京都","line":"東京メトロ東西線","x":139.665835,"y":35.705765,"postal":"1640001","prev":null,"next":"落合"}]}}
亀戸,{"response":{"station":[{"name":"亀戸","prefecture":"東京都","line":"JR総武線","x":139.826262,"y":35.697345,"postal":"1360071","prev":"錦糸町","next":"平井"},{"name":"亀戸","prefecture":"東京都","line":"東武亀戸線","x":139.826791,"y":35.697708,"postal":"1360071","prev":null,"next":"亀戸水神"}]}}
亀有,{"response":{"station":[{"name":"亀有","prefecture":"東京都","line":"JR常磐線各駅停車","x":139.847573,"y":35.766527,"postal":"1250061","prev":"綾瀬","next":"金町"}]}}
井荻,{"response":{"station":[{"name":"井荻","prefecture":"東京都","line":"西武新宿線","x":139.615303,"y":35.72469,"postal":"1670021","prev":"下井草","next":"上井草"}]}}
京橋,{"response":{"station":[{"name":"京橋","prefecture":"大阪府","line":"JR大阪環状線","x":135.534253,"y":34.696047,"postal":"5360015","prev":"大阪城公園","next":"桜ノ宮"},{"name":"京橋","prefecture":"大阪府","line":"JR東西線","x":135.534253,"y":34.696047,"postal":"5340025","prev":null,"next":"大阪城北詰"},{"name":"京橋","prefecture":"大阪府","line":"JR片町線","x":135.534253,"y":34.696047,"postal":"5360015","prev":"鴫野","next":null},{"name":"京橋","prefecture":"大阪府","line":"京阪本線","x":135.532182,"y":34.697052,"postal":"5340024","prev":"天満橋","next":"野江"},{"name":"京橋","prefecture":"大阪府","line":"大阪長堀鶴見緑地線","x":135.529962,"y":34.696885,"postal":"5340024","prev":"大阪ビジネスパーク","next":"蒲生四丁目"},{"name":"京橋","prefecture":"東京都","line":"東京メトロ銀座線","x":139.770126,"y":35.676856,"postal":"1040031","prev":"銀座","next":"日本橋"}]}}
仙川,{"response":{"station":[{"name":"仙川","prefecture":"東京都","line":"京王線","x":139.584908,"y":35.662257,"postal":"1820002","prev":"千歳烏山","next":"つつじヶ丘"}]}}
住吉,{"response":{"station":[{"name":"住吉","prefecture":"熊本県","line":"JR三角線","x":130.597963,"y":32.702066,"postal":"8690401","prev":"緑川","next":"肥後長浜"},{"name":"住吉","prefecture":"兵庫県","line":"JR神戸線","x":135.261859,"y":34.719595,"postal":"6580051","prev":"摂津本山","next":"六甲道"},{"name":"住吉","prefecture":"東京都","line":"東京メトロ半蔵門線","x":139.815681,"y":35.689073,"postal":"1350002","prev":"清澄白河","next":"錦糸町"},{"name":"住吉","prefecture":"兵庫県","line":"神戸新交通六甲ライナー","x":135.262309,"y":34.719512,"postal":"6580051","prev":null,"next":"魚崎"},{"name":"住吉","prefecture":"東京都","line":"都営新宿線","x":139.815681,"y":35.689073,"postal":"1350002","prev":"菊川","next":"西大島"},{"name":"住吉","prefecture":"長崎県","line":"長崎電軌本線","x":129.859836,"y":32.792073,"postal":"8528154","prev":null,"next":"昭和町通"},{"name":"住吉","prefecture":"長崎県","line":"長崎電軌赤迫支線","x":129.8598,"y":32.792107,"postal":"8528154","prev":"赤迫","next":null},{"name":"住吉","prefecture":"大阪府","line":"阪堺電軌上町線","x":135.491846,"y":34.61448,"postal":"5580051","prev":"神ノ木","next":null},{"name":"住吉","prefecture":"大阪府","line":"阪堺電軌阪堺線","x":135.491846,"y":34.61448,"postal":"5580045","prev":"東粉浜","next":"住吉鳥居前"},{"name":"住吉","prefecture":"兵庫県","line":"阪神本線","x":135.261655,"y":34.713025,"postal":"6580053","prev":"御影","next":"魚崎"}]}}
保谷,{"response":{"station":[{"name":"保谷","prefecture":"東京都","line":"西武池袋線","x":139.567753,"y":35.748222,"postal":"2020004","prev":"大泉学園","next":"ひばりヶ丘"}]}}
入谷,{"response":{"station":[{"name":"入谷","prefecture":"神奈川県","line":"JR相模線","x":139.391913,"y":35.478478,"postal":"2520024","prev":"海老名","next":"相武台下"},{"name":"入谷","prefecture":"東京都","line":"東京メトロ日比谷線","x":139.783924,"y":35.719862,"postal":"1100013","prev":"三ノ輪","next":"上野"}]}}
八坂,{"response":{"station":[{"name":"八坂","prefecture":"東京都","line":"西武多摩湖線","x":139.467676,"y":35.744925,"postal":"1890013","prev":"萩山","next":"武蔵大和"},{"name":"八坂","prefecture":"岐阜県","line":"長良川鉄道越美南線","x":136.944966,"y":35.620186,"postal":"5014101","prev":"木尾","next":"みなみ子宝温泉"}]}}
八広,{"response":{"station":[{"name":"八広","prefecture":"東京都","line":"京成押上線","x":139.828738,"y":35.727687,"postal":"1310041","prev":"京成曳舟","next":"四ツ木"}]}}
六町,{"response":{"station":[{"name":"六町","prefecture":"東京都","line":"つくばエクスプレス線","x":139.821816,"y":35.784963,"postal":"1210073","prev":"青井","next":"八潮"}]}}
初台,{"response":{"station":[{"name":"初台","prefecture":"東京都","line":"京王新線","x":139.686354,"y":35.68123,"postal":"1510061","prev":"新線新宿","next":"幡ヶ谷"}]}}
北野,{"response":{"station":[{"name":"北野","prefecture":"東京都","line":"京王線","x":139.354489,"y":35.644479,"postal":"1920911","prev":"長沼","next":"京王八王子"},{"name":"北野","prefecture":"東京都","line":"京王高尾線","x":139.354489,"y":35.644479,"postal":"1920911","prev":null,"next":"京王片倉"},{"name":"北野","prefecture":"福岡県","line":"西鉄甘木線","x":130.582822,"y":33.345379,"postal":"8301122","prev":"古賀茶屋","next":"大城"}]}}
十条,{"response":{"station":[{"name":"十条","prefecture":"東京都","line":"JR埼京線","x":139.722233,"y":35.760321,"postal":"1140034","prev":"板橋","next":"赤羽"},{"name":"十条","prefecture":"京都府","line":"京都市烏丸線","x":135.759623,"y":34.972168,"postal":"6018033","prev":"九条","next":"くいな橋"},{"name":"十条","prefecture":"京都府","line":"近鉄京都線","x":135.752413,"y":34.97398,"postal":"6018433","prev":"東寺","next":"上鳥羽口"}]}}
千川,{"response":{"station":[{"name":"千川","prefecture":"東京都","line":"東京メトロ有楽町線","x":139.689271,"y":35.738229,"postal":"1710043","prev":"小竹向原","next":"要町"},{"name":"千川","prefecture":"東京都","line":"東京メトロ副都心線","x":139.689271,"y":35.738229,"postal":"1710043","prev":"小竹向原","next":"要町"}]}}
千石,{"response":{"station":[{"name":"千石","prefecture":"東京都","line":"都営三田線","x":139.744792,"y":35.727957,"postal":"1130021","prev":"白山","next":"巣鴨"}]}}
南平,{"response":{"station":[{"name":"南平","prefecture":"東京都","line":"京王線","x":139.392008,"y":35.654559,"postal":"1910041","prev":"高幡不動","next":"平山城址公園"}]}}
原宿,{"response":{"station":[{"name":"原宿","prefecture":"東京都","line":"JR山手線","x":139.702592,"y":35.670646,"postal":"1500001","prev":"渋谷","next":"代々木"}]}}
古里,{"response":{"station":[{"name":"古里","prefecture":"東京都","line":"JR青梅線","x":139.152102,"y":35.816247,"postal":"1980105","prev":"川井","next":"鳩ノ巣"}]}}
台場,{"response":{"station":[{"name":"台場","prefecture":"東京都","line":"新交通ゆりかもめ","x":139.771435,"y":35.625908,"postal":"1350091","prev":"お台場海浜公園","next":"東京国際クルーズターミナル"}]}}
向原,{"response":{"station":[{"name":"向原","prefecture":"広島県","line":"JR芸備線","x":132.719883,"y":34.615215,"postal":"7391201","prev":"吉田口","next":"井原市"},{"name":"向原","prefecture":"東京都","line":"都電荒川線","x":139.724894,"y":35.728938,"postal":"1700013","prev":"大塚駅前","next":"東池袋四丁目"}]}}
品川,{"response":{"station":[{"name":"品川","prefecture":"東京都","line":"JR京浜東北線","x":139.738999,"y":35.62876,"postal":"1080075","prev":"高輪ゲートウェイ","next":"大井町"},{"name":"品川","prefecture":"東京都","line":"JR山手線","x":139.738999,"y":35.62876,"postal":"1080075","prev":null,"next":"大崎"},{"name":"品川","prefecture":"東京都","line":"JR東海道本線","x":139.738999,"y":35.62876,"postal":"1080075","prev":"新橋","next":"川崎"},{"name":"品川","prefecture":"東京都","line":"JR横須賀線","x":139.738999,"y":35.62876,"postal":"1080075","prev":"新橋","next":"西大井"},{"name":"品川","prefecture":"東京都","line":"京浜急行本線","x":139.73809,"y":35.628284,"postal":"1080075","prev":"泉岳寺","next":"北品川"},{"name":"品川","prefecture":"東京都","line":"東海道新幹線","x":139.738999,"y":35.62876,"postal":"1080075","prev":"東京","next":"新横浜"},{"name":"品川","prefecture":"東京都","line":"JR上野東京ライン","x":139.738999,"y":35.62876,"postal":"1080075","prev":"新橋","next":"川崎"}]}}
国立,{"response":{"station":[{"name":"国立","prefecture":"東京都","line":"JR中央線","x":139.44634,"y":35.69923,"postal":"1860001","prev":"西国分寺","next":"立川"}]}}
国領,{"response":{"station":[{"name":"国領","prefecture":"東京都","line":"京王線","x":139.558036,"y":35.650087,"postal":"1820022","prev":"柴崎","next":"布田"}]}}
堀切,{"response":{"station":[{"name":"堀切","prefecture":"東京都","line":"東武伊勢崎線","x":139.817727,"y":35.742977,"postal":"1200023","prev":"鐘ヶ淵","next":"牛田"}]}}
多磨,{"response":{"station":[{"name":"多磨","prefecture":"東京都","line":"西武多摩川線","x":139.51713,"y":35.676821,"postal":"1830004","prev":"新小金井","next":"白糸台"}]}}
大塚,{"response":{"station":[{"name":"大塚","prefecture":"東京都","line":"JR山手線","x":139.728584,"y":35.731412,"postal":"1700005","prev":"池袋","next":"巣鴨"},{"name":"大塚","prefecture":"広島県","line":"アストラムライン","x":132.402702,"y":34.441466,"postal":"7313167","prev":"伴中央","next":"広域公園前"}]}}
大山,{"response":{"station":[{"name":"大山","prefecture":"鹿児島県","line":"JR指宿枕崎線","x":130.5992,"y":31.195011,"postal":"8910514","prev":"山川","next":"西大山"},{"name":"大山","prefecture":"東京都","line":"東武東上本線","x":139.702589,"y":35.748398,"postal":"1730023","prev":"下板橋","next":"中板橋"}]}}
大島,{"response":{"station":[{"name":"大島","prefecture":"東京都","line":"都営新宿線","x":139.83565,"y":35.689905,"postal":"1360072","prev":"西大島","next":"東大島"},{"name":"大島","prefecture":"岐阜県","line":"長良川鉄道越美南線","x":136.859039,"y":35.868426,"postal":"5015124","prev":"大中","next":"美濃白鳥"}]}}
大崎,{"response":{"station":[{"name":"大崎","prefecture":"東京都","line":"JR埼京線","x":139.728439,"y":35.619772,"postal":"1410032","prev":null,"next":"恵比寿"},{"name":"大崎","prefecture":"東京都","line":"JR山手線","x":139.728439,"y":35.619772,"postal":"1410032","prev":"品川","next":"五反田"},{"name":"大崎","prefecture":"東京都","line":"JR湘南新宿ライン","x":139.728439,"y":35.619772,"postal":"1410032","prev":"恵比寿","next":"西大井"},{"name":"大崎","prefecture":"東京都","line":"東京りんかい線","x":139.728439,"y":35.619772,"postal":"1410032","prev":"大井町","next":null},{"name":"大崎","prefecture":"東京都","line":"相鉄・JR直通線","x":139.728439,"y":35.619772,"postal":"1410032","prev":"恵比寿","next":"西大井"}]}}
大森,{"response":{"station":[{"name":"大森","prefecture":"東京都","line":"JR京浜東北線","x":139.728079,"y":35.588903,"postal":"1430016","prev":"大井町","next":"蒲田"},{"name":"大森","prefecture":"静岡県","line":"天竜浜名湖鉄道","x":137.509636,"y":34.737865,"postal":"4310421","prev":"知波田","next":"アスモ前"}]}}
大門,{"response":{"station":[{"name":"大門","prefecture":"広島県","line":"JR山陽本線","x":133.43995,"y":34.498462,"postal":"7210923","prev":"笠岡","next":"東福山"},{"name":"大門","prefecture":"愛知県","line":"愛知環状鉄道線","x":137.154883,"y":34.982411,"postal":"4442134","prev":"北岡崎","next":"北野桝塚"},{"name":"大門","prefecture":"東京都","line":"都営大江戸線","x":139.75466,"y":35.656785,"postal":"1050013","prev":"汐留","next":"赤羽橋"},{"name":"大門","prefecture":"東京都","line":"都営浅草線","x":139.75466,"y":35.656785,"postal":"1050012","prev":"三田","next":"新橋"}]}}
奥沢,{"response":{"station":[{"name":"奥沢","prefecture":"東京都","line":"東急目黒線","x":139.672355,"y":35.603947,"postal":"1580083","prev":"大岡山","next":"田園調布"}]}}
宝町,{"response":{"station":[{"name":"宝町","prefecture":"東京都","line":"都営浅草線","x":139.771767,"y":35.675461,"postal":"1040031","prev":"東銀座","next":"日本橋"},{"name":"宝町","prefecture":"長崎県","line":"長崎電軌本線","x":129.868913,"y":32.75783,"postal":"8500045","prev":"銭座町","next":"八千代町"}]}}
小作,{"response":{"station":[{"name":"小作","prefecture":"東京都","line":"JR青梅線","x":139.302233,"y":35.776048,"postal":"2050001","prev":"羽村","next":"河辺"}]}}
小台,{"response":{"station":[{"name":"小台","prefecture":"東京都","line":"都電荒川線","x":139.761779,"y":35.750579,"postal":"1160011","prev":"宮ノ前","next":"荒川遊園地前"}]}}
小宮,{"response":{"station":[{"name":"小宮","prefecture":"東京都","line":"JR八高線","x":139.368481,"y":35.685799,"postal":"1920031","prev":"北八王子","next":"拝島"}]}}
小岩,{"response":{"station":[{"name":"小岩","prefecture":"東京都","line":"JR総武線","x":139.881755,"y":35.733207,"postal":"1330056","prev":"新小岩","next":"市川"}]}}
小川,{"response":{"station":[{"name":"小川","prefecture":"熊本県","line":"JR鹿児島本線","x":130.694339,"y":32.600979,"postal":"8690623","prev":"松橋","next":"有佐"},{"name":"小川","prefecture":"東京都","line":"西武国分寺線","x":139.463493,"y":35.737573,"postal":"1870031","prev":"鷹の台","next":"東村山"},{"name":"小川","prefecture":"東京都","line":"西武拝島線","x":139.463493,"y":35.737573,"postal":"1870031","prev":"萩山","next":"東大和市"}]}}
小平,{"response":{"station":[{"name":"小平","prefecture":"東京都","line":"西武拝島線","x":139.488491,"y":35.736963,"postal":"1870041","prev":null,"next":"萩山"},{"name":"小平","prefecture":"東京都","line":"西武新宿線","x":139.488491,"y":35.736963,"postal":"1870041","prev":"花小金井","next":"久米川"}]}}
小菅,{"response":{"station":[{"name":"小菅","prefecture":"東京都","line":"東武伊勢崎線","x":139.812935,"y":35.759039,"postal":"1200015","prev":"北千住","next":"五反野"}]}}
尾久,{"response":{"station":[{"name":"尾久","prefecture":"東京都","line":"JR宇都宮線","x":139.753846,"y":35.74683,"postal":"1140016","prev":"上野","next":"赤羽"},{"name":"尾久","prefecture":"東京都","line":"JR高崎線","x":139.753846,"y":35.74683,"postal":"1140016","prev":"上野","next":"赤羽"},{"name":"尾久","prefecture":"東京都","line":"JR上野東京ライン","x":139.753846,"y":35.74683,"postal":"1140016","prev":"赤羽","next":"日暮里"}]}}
山下,{"response":{"station":[{"name":"山下","prefecture":"宮城県","line":"JR常磐線","x":140.900688,"y":37.967292,"postal":"9892201","prev":"坂元","next":"浜吉田"},{"name":"山下","prefecture":"東京都","line":"東急世田谷線","x":139.646509,"y":35.653844,"postal":"1540021","prev":"宮の坂","next":"松原"},{"name":"山下","prefecture":"兵庫県","line":"能勢電鉄妙見線","x":135.412172,"y":34.892926,"postal":"6660105","prev":"畦野","next":"笹部"},{"name":"山下","prefecture":"兵庫県","line":"能勢電鉄日生線","x":135.412172,"y":34.892926,"postal":"6660105","prev":null,"next":"日生中央"}]}}
山田,{"response":{"station":[{"name":"山田","prefecture":"東京都","line":"京王高尾線","x":139.321082,"y":35.644411,"postal":"1930932","prev":"京王片倉","next":"めじろ台"},{"name":"山田","prefecture":"大阪府","line":"大阪モノレール","x":135.515435,"y":34.805664,"postal":"5650824","prev":"千里中央","next":"万博記念公園"},{"name":"山田","prefecture":"岐阜県","line":"長良川鉄道越美南線","x":136.911709,"y":35.789003,"postal":"5014606","prev":"自然園前","next":"徳永"},{"name":"山田","prefecture":"大阪府","line":"阪急千里線","x":135.515692,"y":34.804237,"postal":"5650824","prev":"南千里","next":"北千里"}]}}
川井,{"response":{"station":[{"name":"川井","prefecture":"東京都","line":"JR青梅線","x":139.16429,"y":35.813697,"postal":"1980102","prev":"御嶽","next":"古里"}]}}
巣鴨,{"response":{"station":[{"name":"巣鴨","prefecture":"東京都","line":"JR山手線","x":139.739303,"y":35.733445,"postal":"1700002","prev":"大塚","next":"駒込"},{"name":"巣鴨","prefecture":"東京都","line":"都営三田線","x":139.738519,"y":35.733502,"postal":"1700002","prev":"千石","next":"西巣鴨"}]}}
布田,{"response":{"station":[{"name":"布田","prefecture":"東京都","line":"京王線","x":139.551557,"y":35.649904,"postal":"1820022","prev":"国領","next":"調布"}]}}
平井,{"response":{"station":[{"name":"平井","prefecture":"東京都","line":"JR総武線","x":139.842181,"y":35.70643,"postal":"1320035","prev":"亀戸","next":"新小岩"},{"name":"平井","prefecture":"愛媛県","line":"伊予鉄横河原線","x":132.828617,"y":33.808687,"postal":"7910243","prev":"鷹ノ子","next":"梅本"}]}}
広尾,{"response":{"station":[{"name":"広尾","prefecture":"東京都","line":"東京メトロ日比谷線","x":139.722202,"y":35.652279,"postal":"1060047","prev":"六本木","next":"恵比寿"}]}}
府中,{"response":{"station":[{"name":"府中","prefecture":"徳島県","line":"JR徳島線","x":134.482886,"y":34.074312,"postal":"7793122","prev":"石井","next":"鮎喰"},{"name":"府中","prefecture":"広島県","line":"JR福塩線","x":133.236021,"y":34.571646,"postal":"7260004","prev":"鵜飼","next":"下川辺"},{"name":"府中","prefecture":"東京都","line":"京王線","x":139.4799,"y":35.672245,"postal":"1830023","prev":"東府中","next":"分倍河原"},{"name":"府中","prefecture":"京都府","line":"天橋立鋼索鉄道","x":135.195302,"y":35.583263,"postal":"6292242","prev":null,"next":"傘松"}]}}
御嶽,{"response":{"station":[{"name":"御嶽","prefecture":"東京都","line":"JR青梅線","x":139.105840,"y":35.48520,"postal":"1980083","prev":"沢井","next":"川井"}]}}
志茂,{"response":{"station":[{"name":"志茂","prefecture":"東京都","line":"東京メトロ南北線","x":139.732599,"y":35.777948,"postal":"1150042","prev":"王子神谷","next":"赤羽岩淵"}]}}
成増,{"response":{"station":[{"name":"成増","prefecture":"東京都","line":"東武東上本線","x":139.632708,"y":35.777723,"postal":"1750094","prev":"下赤塚","next":"和光市"}]}}
成瀬,{"response":{"station":[{"name":"成瀬","prefecture":"東京都","line":"JR横浜線","x":139.472875,"y":35.535412,"postal":"1940045","prev":"長津田","next":"町田"}]}}
戸越,{"response":{"station":[{"name":"戸越","prefecture":"東京都","line":"都営浅草線","x":139.716495,"y":35.614633,"postal":"1420041","prev":"中延","next":"五反田"}]}}
押上,{"response":{"station":[{"name":"押上","prefecture":"東京都","line":"京成押上線","x":139.812935,"y":35.710702,"postal":"1310045","prev":null,"next":"京成曳舟"},{"name":"押上","prefecture":"東京都","line":"東京メトロ半蔵門線","x":139.812935,"y":35.710702,"postal":"1300002","prev":"錦糸町","next":null},{"name":"押上","prefecture":"東京都","line":"東武伊勢崎線","x":139.812935,"y":35.710702,"postal":"1310045","prev":"とうきょうスカイツリー","next":"曳舟"},{"name":"押上","prefecture":"東京都","line":"都営浅草線","x":139.812935,"y":35.710702,"postal":"1300002","prev":"本所吾妻橋","next":null}]}}
拝島,{"response":{"station":[{"name":"拝島","prefecture":"東京都","line":"JR五日市線","x":139.343468,"y":35.721278,"postal":"1970003","prev":null,"next":"熊川"},{"name":"拝島","prefecture":"東京都","line":"JR八高線","x":139.343468,"y":35.721278,"postal":"1970003","prev":"小宮","next":"東福生"},{"name":"拝島","prefecture":"東京都","line":"JR青梅線","x":139.343468,"y":35.721278,"postal":"1970003","prev":"昭島","next":"牛浜"},{"name":"拝島","prefecture":"東京都","line":"西武拝島線","x":139.343468,"y":35.721278,"postal":"1960001","prev":"西武立川","next":null}]}}
新宿,{"response":{"station":[{"name":"新宿","prefecture":"東京都","line":"JR中央線","x":139.700464,"y":35.689729,"postal":"1600022","prev":"代々木","next":"大久保"},{"name":"新宿","prefecture":"東京都","line":"JR埼京線","x":139.700464,"y":35.689729,"postal":"1600022","prev":"渋谷","next":"池袋"},{"name":"新宿","prefecture":"東京都","line":"JR山手線","x":139.700464,"y":35.689729,"postal":"1600022","prev":"代々木","next":"新大久保"},{"name":"新宿","prefecture":"東京都","line":"JR湘南新宿ライン","x":139.700464,"y":35.689729,"postal":"1600022","prev":"池袋","next":"渋谷"},{"name":"新宿","prefecture":"東京都","line":"JR総武線","x":139.700464,"y":35.689729,"postal":"1600022","prev":"大久保","next":"代々木"},{"name":"新宿","prefecture":"東京都","line":"京王線","x":139.699187,"y":35.690163,"postal":"1600023","prev":null,"next":"笹塚"},{"name":"新宿","prefecture":"東京都","line":"小田急小田原線","x":139.699574,"y":35.691435,"postal":"1600023","prev":null,"next":"南新宿"},{"name":"新宿","prefecture":"東京都","line":"東京メトロ丸ノ内線","x":139.700711,"y":35.69235,"postal":"1600022","prev":"新宿三丁目","next":"西新宿"},{"name":"新宿","prefecture":"東京都","line":"都営大江戸線","x":139.698812,"y":35.68869,"postal":"1510053","prev":"代々木","next":"都庁前"},{"name":"新宿","prefecture":"東京都","line":"都営新宿線","x":139.698812,"y":35.68869,"postal":"1600023","prev":null,"next":"新宿三丁目"},{"name":"新宿","prefecture":"東京都","line":"相鉄・JR直通線","x":139.700464,"y":35.689729,"postal":"1600022","prev":null,"next":"渋谷"}]}}
新橋,{"response":{"station":[{"name":"新橋","prefecture":"東京都","line":"JR京浜東北線","x":139.758587,"y":35.666195,"postal":"1050004","prev":"有楽町","next":"浜松町"},{"name":"新橋","prefecture":"東京都","line":"JR山手線","x":139.758587,"y":35.666195,"postal":"1050004","prev":"有楽町","next":"浜松町"},{"name":"新橋","prefecture":"東京都","line":"JR東海道本線","x":139.758587,"y":35.666195,"postal":"1050004","prev":"東京","next":"品川"},{"name":"新橋","prefecture":"東京都","line":"JR横須賀線","x":139.758587,"y":35.666195,"postal":"1050004","prev":"東京","next":"品川"},{"name":"新橋","prefecture":"東京都","line":"新交通ゆりかもめ","x":139.759644,"y":35.665503,"postal":"1050004","prev":null,"next":"汐留"},{"name":"新橋","prefecture":"東京都","line":"東京メトロ銀座線","x":139.758432,"y":35.667434,"postal":"1050004","prev":"虎ノ門","next":"銀座"},{"name":"新橋","prefecture":"東京都","line":"都営浅草線","x":139.759451,"y":35.665577,"postal":"1050004","prev":"大門","next":"東銀座"},{"name":"新橋","prefecture":"東京都","line":"JR上野東京ライン","x":139.758587,"y":35.666195,"postal":"1050004","prev":"東京","next":"品川"}]}}
日野,{"response":{"station":[{"name":"日野","prefecture":"東京都","line":"JR中央線","x":139.39393,"y":35.679244,"postal":"1910061","prev":"立川","next":"豊田"},{"name":"日野","prefecture":"滋賀県","line":"近江鉄道本線","x":136.219457,"y":35.012203,"postal":"5291644","prev":"朝日野","next":"水口松尾"},{"name":"日野","prefecture":"長野県","line":"長野電鉄長野線","x":138.289574,"y":36.655621,"postal":"3820000","prev":"村山","next":"須坂"}]}}
春日,{"response":{"station":[{"name":"春日","prefecture":"福岡県","line":"JR鹿児島本線","x":130.469308,"y":33.534701,"postal":"8160804","prev":"南福岡","next":"大野城"},{"name":"春日","prefecture":"東京都","line":"都営三田線","x":139.75325,"y":35.709598,"postal":"1130033","prev":"水道橋","next":"白山"},{"name":"春日","prefecture":"東京都","line":"都営大江戸線","x":139.75325,"y":35.709598,"postal":"1120002","prev":"飯田橋","next":"本郷三丁目"}]}}
昭島,{"response":{"station":[{"name":"昭島","prefecture":"東京都","line":"JR青梅線","x":139.361564,"y":35.713305,"postal":"1960015","prev":"中神","next":"拝島"}]}}
是政,{"response":{"station":[{"name":"是政","prefecture":"東京都","line":"西武多摩川線","x":139.488592,"y":35.656242,"postal":"1830014","prev":"競艇場前","next":null}]}}
曙橋,{"response":{"station":[{"name":"曙橋","prefecture":"東京都","line":"都営新宿線","x":139.722881,"y":35.692402,"postal":"1620065","prev":"新宿三丁目","next":"市ヶ谷"}]}}
曳舟,{"response":{"station":[{"name":"曳舟","prefecture":"東京都","line":"東武亀戸線","x":139.816634,"y":35.718418,"postal":"1310032","prev":"小村井","next":null},{"name":"曳舟","prefecture":"東京都","line":"東武伊勢崎線","x":139.816634,"y":35.718418,"postal":"1310032","prev":"押上","next":"東向島"}]}}
月島,{"response":{"station":[{"name":"月島","prefecture":"東京都","line":"東京メトロ有楽町線","x":139.784233,"y":35.664871,"postal":"1040051","prev":"新富町","next":"豊洲"},{"name":"月島","prefecture":"東京都","line":"都営大江戸線","x":139.784233,"y":35.664871,"postal":"1040052","prev":"門前仲町","next":"勝どき"}]}}
有明,{"response":{"station":[{"name":"有明","prefecture":"長野県","line":"JR大糸線","x":137.878236,"y":36.359949,"postal":"3998302","prev":"穂高","next":"安曇追分"},{"name":"有明","prefecture":"東京都","line":"新交通ゆりかもめ","x":139.793269,"y":35.634596,"postal":"1350063","prev":"東京ビッグサイト","next":"有明テニスの森"}]}}
木場,{"response":{"station":[{"name":"木場","prefecture":"東京都","line":"東京メトロ東西線","x":139.807042,"y":35.669351,"postal":"1350042","prev":"門前仲町","next":"東陽町"}]}}
東京,{"response":{"station":[{"name":"東京","prefecture":"東京都","line":"JR中央線","x":139.766103,"y":35.681391,"postal":"1000005","prev":null,"next":"神田"},{"name":"東京","prefecture":"東京都","line":"JR京浜東北線","x":139.766103,"y":35.681391,"postal":"1000005","prev":"神田","next":"有楽町"},{"name":"東京","prefecture":"東京都","line":"JR京葉線","x":139.766103,"y":35.681391,"postal":"1000005","prev":null,"next":"八丁堀"},{"name":"東京","prefecture":"東京都","line":"JR山手線","x":139.766103,"y":35.681391,"postal":"1000005","prev":"神田","next":"有楽町"},{"name":"東京","prefecture":"東京都","line":"JR東海道本線","x":139.766103,"y":35.681391,"postal":"1000005","prev":null,"next":"新橋"},{"name":"東京","prefecture":"東京都","line":"JR横須賀線","x":139.766103,"y":35.681391,"postal":"1000005","prev":null,"next":"新橋"},{"name":"東京","prefecture":"東京都","line":"JR総武線快速","x":139.766103,"y":35.681391,"postal":"1000005","prev":null,"next":"新日本橋"},{"name":"東京","prefecture":"東京都","line":"上越新幹線","x":139.766103,"y":35.681391,"postal":"1000005","prev":null,"next":"上野"},{"name":"東京","prefecture":"東京都","line":"東京メトロ丸ノ内線","x":139.764708,"y":35.681753,"postal":"1000005","prev":"大手町","next":"銀座"},{"name":"東京","prefecture":"東京都","line":"東北新幹線","x":139.766103,"y":35.681391,"postal":"1000005","prev":null,"next":"上野"},{"name":"東京","prefecture":"東京都","line":"東海道新幹線","x":139.766103,"y":35.681391,"postal":"1000005","prev":null,"next":"品川"},{"name":"東京","prefecture":"東京都","line":"北陸新幹線","x":139.766103,"y":35.681391,"postal":"1000005","prev":"上野","next":null},{"name":"東京","prefecture":"東京都","line":"JR上野東京ライン","x":139.766103,"y":35.681391,"postal":"1000005","prev":"上野","next":"新橋"}]}}
東雲,{"response":{"station":[{"name":"東雲","prefecture":"東京都","line":"東京りんかい線","x":139.804395,"y":35.640987,"postal":"1350062","prev":"新木場","next":"国際展示場"},{"name":"東雲","prefecture":"京都府","line":"京都丹後鉄道宮舞線","x":135.284927,"y":35.475018,"postal":"6240965","prev":"四所","next":"丹後神崎"}]}}
松原,{"response":{"station":[{"name":"松原","prefecture":"長崎県","line":"JR大村線","x":129.94619,"y":32.97738,"postal":"8560008","prev":"千綿","next":"竹松"},{"name":"松原","prefecture":"東京都","line":"東急世田谷線","x":139.642,"y":35.660048,"postal":"1560044","prev":"山下","next":"下高井戸"}]}}
板橋,{"response":{"station":[{"name":"板橋","prefecture":"東京都","line":"JR埼京線","x":139.719507,"y":35.745435,"postal":"1700012","prev":"池袋","next":"十条"}]}}
柴又,{"response":{"station":[{"name":"柴又","prefecture":"東京都","line":"京成金町線","x":139.875188,"y":35.756323,"postal":"1250052","prev":"京成高砂","next":"京成金町"}]}}
柴崎,{"response":{"station":[{"name":"柴崎","prefecture":"東京都","line":"京王線","x":139.56658,"y":35.653997,"postal":"1820007","prev":"つつじヶ丘","next":"国領"}]}}
栄町,{"response":{"station":[{"name":"栄町","prefecture":"千葉県","line":"千葉都市モノレール1号線","x":140.118592,"y":35.612822,"postal":"2600016","prev":"千葉","next":"葭川公園"},{"name":"栄町","prefecture":"愛知県","line":"名鉄瀬戸線","x":136.908962,"y":35.170567,"postal":"4600003","prev":null,"next":"東大手"},{"name":"栄町","prefecture":"富山県","line":"富山地方鉄道不二越線","x":137.233423,"y":36.691705,"postal":"9300966","prev":"稲荷町","next":"不二越"},{"name":"栄町","prefecture":"北海道","line":"札幌市東豊線","x":141.367142,"y":43.112995,"postal":"0070842","prev":null,"next":"新道東"},{"name":"栄町","prefecture":"東京都","line":"都電荒川線","x":139.742124,"y":35.750909,"postal":"1140005","prev":"梶原","next":"王子駅前"}]}}
根津,{"response":{"station":[{"name":"根津","prefecture":"東京都","line":"東京メトロ千代田線","x":139.765655,"y":35.7174,"postal":"1130031","prev":"千駄木","next":"湯島"}]}}
桜台,{"response":{"station":[{"name":"桜台","prefecture":"東京都","line":"西武池袋線","x":139.662602,"y":35.738797,"postal":"1760002","prev":"江古田","next":"練馬"},{"name":"桜台","prefecture":"福岡県","line":"西鉄天神大牟田線","x":130.542465,"y":33.471636,"postal":"8180063","prev":"朝倉街道","next":"筑紫"}]}}
梅島,{"response":{"station":[{"name":"梅島","prefecture":"東京都","line":"東武伊勢崎線","x":139.797916,"y":35.772437,"postal":"1230851","prev":"五反野","next":"西新井"}]}}
梶原,{"response":{"station":[{"name":"梶原","prefecture":"東京都","line":"都電荒川線","x":139.747403,"y":35.751162,"postal":"1140016","prev":"荒川車庫前","next":"栄町"}]}}
森下,{"response":{"station":[{"name":"森下","prefecture":"愛知県","line":"名鉄瀬戸線","x":136.929657,"y":35.188299,"postal":"4610025","prev":"尼ヶ坂","next":"大曽根"},{"name":"森下","prefecture":"福岡県","line":"筑豊電鉄線","x":130.741092,"y":33.853885,"postal":"8060046","prev":"穴生","next":"今池"},{"name":"森下","prefecture":"東京都","line":"都営大江戸線","x":139.797042,"y":35.68796,"postal":"1350004","prev":"両国","next":"清澄白河"},{"name":"森下","prefecture":"東京都","line":"都営新宿線","x":139.797042,"y":35.68796,"postal":"1350004","prev":"浜町","next":"菊川"}]}}
汐留,{"response":{"station":[{"name":"汐留","prefecture":"東京都","line":"新交通ゆりかもめ","x":139.759985,"y":35.662871,"postal":"1050021","prev":"新橋","next":"竹芝"},{"name":"汐留","prefecture":"東京都","line":"都営大江戸線","x":139.760642,"y":35.663703,"postal":"1050021","prev":"築地市場","next":"大門"}]}}
江北,{"response":{"station":[{"name":"江北","prefecture":"東京都","line":"日暮里・舎人ライナー","x":139.770306,"y":35.774021,"postal":"1230872","prev":"高野","next":"西新井大師西"}]}}
池上,{"response":{"station":[{"name":"池上","prefecture":"東京都","line":"東急池上線","x":139.702822,"y":35.572025,"postal":"1460082","prev":"千鳥町","next":"蓮沼"}]}}
池袋,{"response":{"station":[{"name":"池袋","prefecture":"東京都","line":"JR埼京線","x":139.711085,"y":35.730256,"postal":"1710021","prev":"新宿","next":"板橋"},{"name":"池袋","prefecture":"東京都","line":"JR山手線","x":139.711085,"y":35.730256,"postal":"1710021","prev":"目白","next":"大塚"},{"name":"池袋","prefecture":"東京都","line":"JR湘南新宿ライン","x":139.711085,"y":35.730256,"postal":"1710021","prev":"赤羽","next":"新宿"},{"name":"池袋","prefecture":"東京都","line":"東京メトロ丸ノ内線","x":139.711086,"y":35.730256,"postal":"1710021","prev":null,"next":"新大塚"},{"name":"池袋","prefecture":"東京都","line":"東京メトロ有楽町線","x":139.710088,"y":35.729565,"postal":"1710021","prev":"要町","next":"東池袋"},{"name":"池袋","prefecture":"東京都","line":"東京メトロ副都心線","x":139.708291,"y":35.731464,"postal":"1710021","prev":"要町","next":"雑司が谷"},{"name":"池袋","prefecture":"東京都","line":"東武東上本線","x":139.710678,"y":35.730924,"postal":"1710021","prev":null,"next":"北池袋"},{"name":"池袋","prefecture":"東京都","line":"西武池袋線","x":139.711461,"y":35.72913,"postal":"1710022","prev":null,"next":"椎名町"}]}}
沢井,{"response":{"station":[{"name":"沢井","prefecture":"東京都","line":"JR青梅線","x":139.193324,"y":35.80594,"postal":"1980172","prev":"軍畑","next":"御嶽"}]}}
河辺,{"response":{"station":[{"name":"河辺","prefecture":"東京都","line":"JR青梅線","x":139.284032,"y":35.78473,"postal":"1980036","prev":"小作","next":"東青梅"}]}}
沼袋,{"response":{"station":[{"name":"沼袋","prefecture":"東京都","line":"西武新宿線","x":139.663841,"y":35.719458,"postal":"1650025","prev":"新井薬師前","next":"野方"}]}}
沼部,{"response":{"station":[{"name":"沼部","prefecture":"東京都","line":"東急多摩川線","x":139.67326,"y":35.582526,"postal":"1450072","prev":"多摩川","next":"鵜の木"}]}}
洗足,{"response":{"station":[{"name":"洗足","prefecture":"東京都","line":"東急目黒線","x":139.694367,"y":35.61043,"postal":"1520012","prev":"西小山","next":"大岡山"}]}}
浅草,{"response":{"station":[{"name":"浅草","prefecture":"東京都","line":"つくばエクスプレス線","x":139.792389,"y":35.713817,"postal":"1110032","prev":"新御徒町","next":"南千住"},{"name":"浅草","prefecture":"東京都","line":"東京メトロ銀座線","x":139.797592,"y":35.710733,"postal":"1110033","prev":"田原町","next":null},{"name":"浅草","prefecture":"東京都","line":"東武伊勢崎線","x":139.798214,"y":35.711883,"postal":"1110033","prev":null,"next":"とうきょうスカイツリー"},{"name":"浅草","prefecture":"東京都","line":"都営浅草線","x":139.79697,"y":35.709461,"postal":"1110034","prev":"蔵前","next":"本所吾妻橋"}]}}
浜町,{"response":{"station":[{"name":"浜町","prefecture":"東京都","line":"都営新宿線","x":139.788154,"y":35.688516,"postal":"1030007","prev":"馬喰横山","next":"森下"}]}}
清瀬,{"response":{"station":[{"name":"清瀬","prefecture":"東京都","line":"西武池袋線","x":139.519917,"y":35.772221,"postal":"2040022","prev":"東久留米","next":"秋津"}]}}
渋谷,{"response":{"station":[{"name":"渋谷","prefecture":"東京都","line":"JR埼京線","x":139.701238,"y":35.658871,"postal":"1500002","prev":"恵比寿","next":"新宿"},{"name":"渋谷","prefecture":"東京都","line":"JR山手線","x":139.701238,"y":35.658871,"postal":"1500002","prev":"恵比寿","next":"原宿"},{"name":"渋谷","prefecture":"東京都","line":"JR湘南新宿ライン","x":139.701238,"y":35.658871,"postal":"1500002","prev":"新宿","next":"恵比寿"},{"name":"渋谷","prefecture":"東京都","line":"京王井の頭線","x":139.700872,"y":35.6587,"postal":"1500043","prev":null,"next":"神泉"},{"name":"渋谷","prefecture":"東京都","line":"東京メトロ半蔵門線","x":139.701,"y":35.659066,"postal":"1500043","prev":null,"next":"表参道"},{"name":"渋谷","prefecture":"東京都","line":"東京メトロ銀座線","x":139.701,"y":35.659066,"postal":"1500002","prev":null,"next":"表参道"},{"name":"渋谷","prefecture":"東京都","line":"東京メトロ副都心線","x":139.702417,"y":35.659545,"postal":"1500002","prev":"明治神宮前〈原宿〉","next":null},{"name":"渋谷","prefecture":"東京都","line":"東急東横線","x":139.702417,"y":35.659545,"postal":"1500002","prev":null,"next":"代官山"},{"name":"渋谷","prefecture":"東京都","line":"東急田園都市線","x":139.702148,"y":35.65802,"postal":"1500002","prev":null,"next":"池尻大橋"},{"name":"渋谷","prefecture":"東京都","line":"相鉄・JR直通線","x":139.701238,"y":35.658871,"postal":"1500002","prev":"新宿","next":"恵比寿"}]}}
湯島,{"response":{"station":[{"name":"湯島","prefecture":"東京都","line":"東京メトロ千代田線","x":139.769916,"y":35.708243,"postal":"1130034","prev":"根津","next":"新御茶ノ水"}]}}
潮見,{"response":{"station":[{"name":"潮見","prefecture":"東京都","line":"JR京葉線","x":139.817341,"y":35.658702,"postal":"1350052","prev":"越中島","next":"新木場"}]}}
熊川,{"response":{"station":[{"name":"熊川","prefecture":"東京都","line":"JR五日市線","x":139.33584,"y":35.728321,"postal":"1970003","prev":"拝島","next":"東秋留"}]}}
片倉,{"response":{"station":[{"name":"片倉","prefecture":"東京都","line":"JR横浜線","x":139.34119,"y":35.639704,"postal":"1920914","prev":"八王子みなみ野","next":"八王子"}]}}
牛浜,{"response":{"station":[{"name":"牛浜","prefecture":"東京都","line":"JR青梅線","x":139.333677,"y":35.734547,"postal":"1970024","prev":"拝島","next":"福生"}]}}
牛田,{"response":{"station":[{"name":"牛田","prefecture":"広島県","line":"アストラムライン","x":132.464585,"y":34.417142,"postal":"7320068","prev":"白島","next":"不動院前"},{"name":"牛田","prefecture":"愛知県","line":"名鉄名古屋本線","x":137.060946,"y":34.999294,"postal":"4720003","prev":"新安城","next":"知立"},{"name":"牛田","prefecture":"東京都","line":"東武伊勢崎線","x":139.811816,"y":35.744555,"postal":"1200023","prev":"堀切","next":"北千住"}]}}
狛江,{"response":{"station":[{"name":"狛江","prefecture":"東京都","line":"小田急小田原線","x":139.577127,"y":35.632001,"postal":"2010013","prev":"喜多見","next":"和泉多摩川"}]}}
狭間,{"response":{"station":[{"name":"狭間","prefecture":"東京都","line":"京王高尾線","x":139.293808,"y":35.640637,"postal":"1930834","prev":"めじろ台","next":"高尾"}]}}
王子,{"response":{"station":[{"name":"王子","prefecture":"東京都","line":"JR京浜東北線","x":139.73809,"y":35.752538,"postal":"1140002","prev":"東十条","next":"上中里"},{"name":"王子","prefecture":"東京都","line":"東京メトロ南北線","x":139.737618,"y":35.753966,"postal":"1140002","prev":"西ケ原","next":"王子神谷"}]}}
瑞江,{"response":{"station":[{"name":"瑞江","prefecture":"東京都","line":"都営新宿線","x":139.89761,"y":35.693318,"postal":"1320011","prev":"一之江","next":"篠崎"}]}}
用賀,{"response":{"station":[{"name":"用賀","prefecture":"東京都","line":"東急田園都市線","x":139.633928,"y":35.626436,"postal":"1580097","prev":"桜新町","next":"二子玉川"}]}}
田無,{"response":{"station":[{"name":"田無","prefecture":"東京都","line":"西武新宿線","x":139.539259,"y":35.727307,"postal":"1880012","prev":"西武柳沢","next":"花小金井"}]}}
田町,{"response":{"station":[{"name":"田町","prefecture":"東京都","line":"JR京浜東北線","x":139.747575,"y":35.645737,"postal":"1080023","prev":"浜松町","next":"高輪ゲートウェイ"},{"name":"田町","prefecture":"東京都","line":"JR山手線","x":139.747575,"y":35.645737,"postal":"1080023","prev":"浜松町","next":"高輪ゲートウェイ"},{"name":"田町","prefecture":"岡山県","line":"岡山電軌清輝橋線","x":133.926322,"y":34.660658,"postal":"7000821","prev":"郵便局前","next":"新西大寺町筋"}]}}
田端,{"response":{"station":[{"name":"田端","prefecture":"東京都","line":"JR京浜東北線","x":139.761229,"y":35.737781,"postal":"1140013","prev":"上中里","next":"西日暮里"},{"name":"田端","prefecture":"東京都","line":"JR山手線","x":139.761229,"y":35.737781,"postal":"1140013","prev":"駒込","next":"西日暮里"}]}}
町屋,{"response":{"station":[{"name":"町屋","prefecture":"東京都","line":"京成本線","x":139.781499,"y":35.742354,"postal":"1160002","prev":"新三河島","next":"千住大橋"},{"name":"町屋","prefecture":"東京都","line":"東京メトロ千代田線","x":139.780501,"y":35.742733,"postal":"1160002","prev":"北千住","next":"西日暮里"}]}}
町田,{"response":{"station":[{"name":"町田","prefecture":"東京都","line":"JR横浜線","x":139.445579,"y":35.542004,"postal":"1940013","prev":"成瀬","next":"古淵"},{"name":"町田","prefecture":"東京都","line":"小田急小田原線","x":139.445236,"y":35.544222,"postal":"1940013","prev":"玉川学園前","next":"相模大野"}]}}
白丸,{"response":{"station":[{"name":"白丸","prefecture":"東京都","line":"JR青梅線","x":139.114861,"y":35.811735,"postal":"1980107","prev":"鳩ノ巣","next":"奥多摩"}]}}
白山,{"response":{"station":[{"name":"白山","prefecture":"新潟県","line":"JR越後線","x":139.029955,"y":37.911829,"postal":"9518131","prev":"関屋","next":"新潟"},{"name":"白山","prefecture":"東京都","line":"都営三田線","x":139.752136,"y":35.721408,"postal":"1130001","prev":"春日","next":"千石"},{"name":"白山","prefecture":"香川県","line":"高松琴平電鉄長尾線","x":134.150461,"y":34.266707,"postal":"7610704","prev":"学園通り","next":"井戸"}]}}
目白,{"response":{"station":[{"name":"目白","prefecture":"東京都","line":"JR山手線","x":139.706228,"y":35.720476,"postal":"1710031","prev":"高田馬場","next":"池袋"}]}}
目黒,{"response":{"station":[{"name":"目黒","prefecture":"東京都","line":"JR山手線","x":139.715775,"y":35.633923,"postal":"1410021","prev":"五反田","next":"恵比寿"},{"name":"目黒","prefecture":"東京都","line":"東京メトロ南北線","x":139.7155,"y":35.633272,"postal":"1410021","prev":null,"next":"白金台"},{"name":"目黒","prefecture":"東京都","line":"東急目黒線","x":139.7155,"y":35.633272,"postal":"1410021","prev":null,"next":"不動前"},{"name":"目黒","prefecture":"東京都","line":"都営三田線","x":139.7155,"y":35.633272,"postal":"1410021","prev":null,"next":"白金台"}]}}
相原,{"response":{"station":[{"name":"相原","prefecture":"東京都","line":"JR横浜線","x":139.33169,"y":35.60694,"postal":"1940211","prev":"橋本","next":"八王子みなみ野"}]}}
矢川,{"response":{"station":[{"name":"矢川","prefecture":"東京都","line":"JR南武線","x":139.431611,"y":35.685079,"postal":"1860011","prev":"谷保","next":"西国立"}]}}
神泉,{"response":{"station":[{"name":"神泉","prefecture":"東京都","line":"京王井の頭線","x":139.693579,"y":35.657244,"postal":"1500045","prev":"渋谷","next":"駒場東大前"}]}}
神田,{"response":{"station":[{"name":"神田","prefecture":"東京都","line":"JR中央線","x":139.770641,"y":35.691173,"postal":"1010044","prev":"東京","next":"御茶ノ水"},{"name":"神田","prefecture":"東京都","line":"JR京浜東北線","x":139.770641,"y":35.691173,"postal":"1010044","prev":"秋葉原","next":"東京"},{"name":"神田","prefecture":"東京都","line":"JR山手線","x":139.770641,"y":35.691173,"postal":"1010044","prev":"秋葉原","next":"東京"},{"name":"神田","prefecture":"東京都","line":"東京メトロ銀座線","x":139.770899,"y":35.693587,"postal":"1010045","prev":"三越前","next":"末広町"},{"name":"神田","prefecture":"長崎県","line":"松浦鉄道","x":129.671059,"y":33.261198,"postal":"8570335","prev":"吉井","next":"清峰高校前"}]}}
福生,{"response":{"station":[{"name":"福生","prefecture":"東京都","line":"JR青梅線","x":139.327763,"y":35.742456,"postal":"1970011","prev":"牛浜","next":"羽村"}]}}
秋川,{"response":{"station":[{"name":"秋川","prefecture":"東京都","line":"JR五日市線","x":139.286715,"y":35.727998,"postal":"1970827","prev":"東秋留","next":"武蔵引田"}]}}
秋津,{"response":{"station":[{"name":"秋津","prefecture":"東京都","line":"西武池袋線","x":139.496539,"y":35.778614,"postal":"1890001","prev":"清瀬","next":"所沢"}]}}
稲城,{"response":{"station":[{"name":"稲城","prefecture":"東京都","line":"京王相模原線","x":139.500398,"y":35.636166,"postal":"2060802","prev":"京王よみうりランド","next":"若葉台"}]}}
立川,{"response":{"station":[{"name":"立川","prefecture":"東京都","line":"JR中央線","x":139.413704,"y":35.698202,"postal":"1900023","prev":"国立","next":"日野"},{"name":"立川","prefecture":"東京都","line":"JR南武線","x":139.413704,"y":35.698202,"postal":"1900023","prev":"西国立","next":null},{"name":"立川","prefecture":"東京都","line":"JR青梅線","x":139.413704,"y":35.698202,"postal":"1900012","prev":null,"next":"西立川"}]}}
立飛,{"response":{"station":[{"name":"立飛","prefecture":"東京都","line":"多摩モノレール","x":139.417387,"y":35.714717,"postal":"1900015","prev":"泉体育館","next":"高松"}]}}
竹橋,{"response":{"station":[{"name":"竹橋","prefecture":"東京都","line":"東京メトロ東西線","x":139.756817,"y":35.690662,"postal":"1000003","prev":"九段下","next":"大手町"}]}}
竹芝,{"response":{"station":[{"name":"竹芝","prefecture":"東京都","line":"新交通ゆりかもめ","x":139.762037,"y":35.654099,"postal":"1050022","prev":"汐留","next":"日の出"}]}}
笹塚,{"response":{"station":[{"name":"笹塚","prefecture":"東京都","line":"京王線","x":139.667251,"y":35.673758,"postal":"1510073","prev":"新宿","next":"代田橋"},{"name":"笹塚","prefecture":"東京都","line":"京王新線","x":139.667251,"y":35.673758,"postal":"1510073","prev":"幡ヶ谷","next":null}]}}
築地,{"response":{"station":[{"name":"築地","prefecture":"東京都","line":"東京メトロ日比谷線","x":139.772603,"y":35.668115,"postal":"1040045","prev":"八丁堀","next":"東銀座"}]}}
篠崎,{"response":{"station":[{"name":"篠崎","prefecture":"東京都","line":"都営新宿線","x":139.903698,"y":35.706017,"postal":"1330061","prev":"瑞江","next":"本八幡"}]}}
糀谷,{"response":{"station":[{"name":"糀谷","prefecture":"東京都","line":"京浜急行空港線","x":139.72962,"y":35.5545,"postal":"1440034","prev":"京急蒲田","next":"大鳥居"}]}}
経堂,{"response":{"station":[{"name":"経堂","prefecture":"東京都","line":"小田急小田原線","x":139.635993,"y":35.650991,"postal":"1560052","prev":"豪徳寺","next":"千歳船橋"}]}}
綾瀬,{"response":{"station":[{"name":"綾瀬","prefecture":"東京都","line":"JR常磐線各駅停車","x":139.825019,"y":35.762222,"postal":"1200005","prev":"北千住","next":"亀有"},{"name":"綾瀬","prefecture":"東京都","line":"東京メトロ千代田線","x":139.825019,"y":35.762222,"postal":"1200005","prev":null,"next":"北千住"}]}}
練馬,{"response":{"station":[{"name":"練馬","prefecture":"東京都","line":"西武有楽町線","x":139.654368,"y":35.737893,"postal":"1760001","prev":null,"next":"新桜台"},{"name":"練馬","prefecture":"東京都","line":"西武池袋線","x":139.654368,"y":35.737893,"postal":"1760001","prev":"桜台","next":"中村橋"},{"name":"練馬","prefecture":"東京都","line":"西武豊島線","x":139.654368,"y":35.737893,"postal":"1760001","prev":null,"next":"豊島園"},{"name":"練馬","prefecture":"東京都","line":"都営大江戸線","x":139.65477,"y":35.737404,"postal":"1760001","prev":"新江古田","next":"豊島園"}]}}
羽村,{"response":{"station":[{"name":"羽村","prefecture":"東京都","line":"JR青梅線","x":139.316188,"y":35.758073,"postal":"2050014","prev":"福生","next":"小作"}]}}
舎人,{"response":{"station":[{"name":"舎人","prefecture":"東京都","line":"日暮里・舎人ライナー","x":139.770108,"y":35.8057,"postal":"1210831","prev":"舎人公園","next":"見沼代親水公園"}]}}
船堀,{"response":{"station":[{"name":"船堀","prefecture":"東京都","line":"都営新宿線","x":139.864258,"y":35.683795,"postal":"1340091","prev":"東大島","next":"一之江"}]}}
若林,{"response":{"station":[{"name":"若林","prefecture":"愛知県","line":"名鉄三河線","x":137.095851,"y":35.026284,"postal":"4730914","prev":"竹村","next":"三河八橋"},{"name":"若林","prefecture":"東京都","line":"東急世田谷線","x":139.659912,"y":35.645933,"postal":"1540023","prev":"西太子堂","next":"松陰神社前"}]}}
荻窪,{"response":{"station":[{"name":"荻窪","prefecture":"東京都","line":"JR中央線","x":139.620109,"y":35.704523,"postal":"1670043","prev":"阿佐ケ谷","next":"西荻窪"},{"name":"荻窪","prefecture":"東京都","line":"JR総武線","x":139.620109,"y":35.704523,"postal":"1670043","prev":"西荻窪","next":"阿佐ケ谷"},{"name":"荻窪","prefecture":"東京都","line":"東京メトロ丸ノ内線","x":139.620116,"y":35.704304,"postal":"1670051","prev":"南阿佐ヶ谷","next":null}]}}
菊川,{"response":{"station":[{"name":"菊川","prefecture":"静岡県","line":"JR東海道本線","x":138.085648,"y":34.76176,"postal":"4390006","prev":"金谷","next":"掛川"},{"name":"菊川","prefecture":"東京都","line":"都営新宿線","x":139.806016,"y":35.688379,"postal":"1300024","prev":"森下","next":"住吉"}]}}
萩山,{"response":{"station":[{"name":"萩山","prefecture":"東京都","line":"西武多摩湖線","x":139.476903,"y":35.740759,"postal":"1890012","prev":"青梅街道","next":"八坂"},{"name":"萩山","prefecture":"東京都","line":"西武拝島線","x":139.476903,"y":35.740759,"postal":"1890012","prev":"小平","next":"小川"}]}}
落合,{"response":{"station":[{"name":"落合","prefecture":"北海道","line":"JR根室本線","x":142.669104,"y":43.125055,"postal":"0792551","prev":"幾寅","next":"新得"},{"name":"落合","prefecture":"東京都","line":"東京メトロ東西線","x":139.687284,"y":35.710976,"postal":"1610034","prev":"中野","next":"高田馬場"}]}}
葛西,{"response":{"station":[{"name":"葛西","prefecture":"東京都","line":"東京メトロ東西線","x":139.872458,"y":35.663554,"postal":"1340083","prev":"西葛西","next":"浦安"}]}}
蒲田,{"response":{"station":[{"name":"蒲田","prefecture":"東京都","line":"JR京浜東北線","x":139.716032,"y":35.562517,"postal":"1440052","prev":"大森","next":"川崎"},{"name":"蒲田","prefecture":"東京都","line":"東急多摩川線","x":139.714626,"y":35.561767,"postal":"1440051","prev":"矢口渡","next":null},{"name":"蒲田","prefecture":"東京都","line":"東急池上線","x":139.714626,"y":35.561767,"postal":"1440051","prev":"蓮沼","next":null}]}}
蓮根,{"response":{"station":[{"name":"蓮根","prefecture":"東京都","line":"都営三田線","x":139.678993,"y":35.784335,"postal":"1740046","prev":"志村三丁目","next":"西台"}]}}
蓮沼,{"response":{"station":[{"name":"蓮沼","prefecture":"東京都","line":"東急池上線","x":139.708544,"y":35.564173,"postal":"1460094","prev":"池上","next":"蒲田"}]}}
蔵前,{"response":{"station":[{"name":"蔵前","prefecture":"東京都","line":"都営大江戸線","x":139.790931,"y":35.703236,"postal":"1110042","prev":"新御徒町","next":"両国"},{"name":"蔵前","prefecture":"東京都","line":"都営浅草線","x":139.790931,"y":35.703236,"postal":"1110051","prev":"浅草橋","next":"浅草"}]}}
西台,{"response":{"station":[{"name":"西台","prefecture":"東京都","line":"都営三田線","x":139.673971,"y":35.78699,"postal":"1750082","prev":"蓮根","next":"高島平"}]}}
西府,{"response":{"station":[{"name":"西府","prefecture":"東京都","line":"JR南武線","x":139.457477,"y":35.670912,"postal":"1830031","prev":"分倍河原","next":"谷保"}]}}
要町,{"response":{"station":[{"name":"要町","prefecture":"東京都","line":"東京メトロ有楽町線","x":139.698715,"y":35.73323,"postal":"1710043","prev":"千川","next":"池袋"},{"name":"要町","prefecture":"東京都","line":"東京メトロ副都心線","x":139.698715,"y":35.73323,"postal":"1710043","prev":"千川","next":"池袋"}]}}
調布,{"response":{"station":[{"name":"調布","prefecture":"東京都","line":"京王線","x":139.543988,"y":35.652181,"postal":"1820024","prev":"布田","next":"西調布"},{"name":"調布","prefecture":"東京都","line":"京王相模原線","x":139.543988,"y":35.652181,"postal":"1820024","prev":null,"next":"京王多摩川"}]}}
谷保,{"response":{"station":[{"name":"谷保","prefecture":"東京都","line":"JR南武線","x":139.446724,"y":35.681377,"postal":"1860011","prev":"西府","next":"矢川"}]}}
豊洲,{"response":{"station":[{"name":"豊洲","prefecture":"東京都","line":"新交通ゆりかもめ","x":139.795414,"y":35.653792,"postal":"1350061","prev":"新豊洲","next":null},{"name":"豊洲","prefecture":"東京都","line":"東京メトロ有楽町線","x":139.79621,"y":35.654908,"postal":"1350061","prev":"月島","next":"辰巳"}]}}
豊田,{"response":{"station":[{"name":"豊田","prefecture":"東京都","line":"JR中央線","x":139.381495,"y":35.659502,"postal":"1910053","prev":"日野","next":"八王子"}]}}
赤坂,{"response":{"station":[{"name":"赤坂","prefecture":"群馬県","line":"上毛電鉄上毛線","x":139.117324,"y":36.39721,"postal":"3710007","prev":"上泉","next":"心臓血管センター"},{"name":"赤坂","prefecture":"山梨県","line":"富士急行線","x":138.916035,"y":35.566093,"postal":"4020005","prev":"禾生","next":"都留市"},{"name":"赤坂","prefecture":"東京都","line":"東京メトロ千代田線","x":139.738348,"y":35.67323,"postal":"1070052","prev":"国会議事堂前","next":"乃木坂"},{"name":"赤坂","prefecture":"福岡県","line":"福岡市空港線","x":130.391005,"y":33.589124,"postal":"8100041","prev":"大濠公園","next":"天神"}]}}
赤羽,{"response":{"station":[{"name":"赤羽","prefecture":"東京都","line":"JR京浜東北線","x":139.720928,"y":35.778026,"postal":"1150045","prev":"川口","next":"東十条"},{"name":"赤羽","prefecture":"東京都","line":"JR埼京線","x":139.720928,"y":35.778026,"postal":"1150045","prev":"十条","next":"北赤羽"},{"name":"赤羽","prefecture":"東京都","line":"JR宇都宮線","x":139.720928,"y":35.778026,"postal":"1150045","prev":"尾久","next":"浦和"},{"name":"赤羽","prefecture":"東京都","line":"JR湘南新宿ライン","x":139.720928,"y":35.778026,"postal":"1150045","prev":"浦和","next":"池袋"},{"name":"赤羽","prefecture":"東京都","line":"JR高崎線","x":139.720928,"y":35.778026,"postal":"1150045","prev":"尾久","next":"浦和"},{"name":"赤羽","prefecture":"東京都","line":"JR上野東京ライン","x":139.720928,"y":35.778026,"postal":"1150045","prev":"浦和","next":"尾久"}]}}
軍畑,{"response":{"station":[{"name":"軍畑","prefecture":"東京都","line":"JR青梅線","x":139.207431,"y":35.807382,"postal":"1980172","prev":"二俣尾","next":"沢井"}]}}
辰巳,{"response":{"station":[{"name":"辰巳","prefecture":"東京都","line":"東京メトロ有楽町線","x":139.81052,"y":35.645576,"postal":"1350053","prev":"豊洲","next":"新木場"}]}}
野方,{"response":{"station":[{"name":"野方","prefecture":"東京都","line":"西武新宿線","x":139.652733,"y":35.719658,"postal":"1650027","prev":"沼袋","next":"都立家政"}]}}
金町,{"response":{"station":[{"name":"金町","prefecture":"東京都","line":"JR常磐線各駅停車","x":139.870482,"y":35.769582,"postal":"1250042","prev":"亀有","next":"松戸"}]}}
銀座,{"response":{"station":[{"name":"銀座","prefecture":"東京都","line":"東京メトロ丸ノ内線","x":139.763965,"y":35.671989,"postal":"1000006","prev":"東京","next":"霞ケ関"},{"name":"銀座","prefecture":"東京都","line":"東京メトロ日比谷線","x":139.763965,"y":35.671989,"postal":"1040061","prev":"東銀座","next":"日比谷"},{"name":"銀座","prefecture":"東京都","line":"東京メトロ銀座線","x":139.763965,"y":35.671989,"postal":"1040061","prev":"新橋","next":"京橋"}]}}
長原,{"response":{"station":[{"name":"長原","prefecture":"大阪府","line":"大阪谷町線","x":135.573853,"y":34.602432,"postal":"5470013","prev":"出戸","next":"八尾南"},{"name":"長原","prefecture":"東京都","line":"東急池上線","x":139.697881,"y":35.60219,"postal":"1450064","prev":"旗の台","next":"洗足池"}]}}
長沼,{"response":{"station":[{"name":"長沼","prefecture":"東京都","line":"京王線","x":139.365849,"y":35.642788,"postal":"1920907","prev":"平山城址公園","next":"北野"},{"name":"長沼","prefecture":"静岡県","line":"静岡鉄道静岡清水線","x":138.412883,"y":34.989069,"postal":"4200813","prev":"柚木","next":"古庄"}]}}
雑色,{"response":{"station":[{"name":"雑色","prefecture":"東京都","line":"京浜急行本線","x":139.715005,"y":35.549725,"postal":"1440055","prev":"京急蒲田","next":"六郷土手"}]}}
青井,{"response":{"station":[{"name":"青井","prefecture":"東京都","line":"つくばエクスプレス線","x":139.82038,"y":35.771782,"postal":"1200012","prev":"北千住","next":"六町"}]}}
青梅,{"response":{"station":[{"name":"青梅","prefecture":"東京都","line":"JR青梅線","x":139.258096,"y":35.790512,"postal":"1980083","prev":"東青梅","next":"宮ノ平"}]}}
青海,{"response":{"station":[{"name":"青海","prefecture":"東京都","line":"新交通ゆりかもめ","x":139.781132,"y":35.62467,"postal":"1350064","prev":"テレコムセンター","next":"東京ビッグサイト"},{"name":"青海","prefecture":"新潟県","line":"日本海ひすいライン","x":137.795622,"y":37.022469,"postal":"9490305","prev":"糸魚川","next":"親不知"}]}}
青砥,{"response":{"station":[{"name":"青砥","prefecture":"東京都","line":"京成押上線","x":139.856292,"y":35.745883,"postal":"1250062","prev":"京成立石","next":"京成高砂"},{"name":"青砥","prefecture":"東京都","line":"京成本線","x":139.856292,"y":35.745883,"postal":"1250062","prev":"お花茶屋","next":"京成高砂"}]}}
馬込,{"response":{"station":[{"name":"馬込","prefecture":"東京都","line":"都営浅草線","x":139.711772,"y":35.596435,"postal":"1430022","prev":"西馬込","next":"中延"}]}}
駒込,{"response":{"station":[{"name":"駒込","prefecture":"東京都","line":"JR山手線","x":139.748053,"y":35.736825,"postal":"1700003","prev":"巣鴨","next":"田端"},{"name":"駒込","prefecture":"東京都","line":"東京メトロ南北線","x":139.746442,"y":35.736959,"postal":"1700003","prev":"本駒込","next":"西ケ原"}]}}
高尾,{"response":{"station":[{"name":"高尾","prefecture":"東京都","line":"JR中央線","x":139.282288,"y":35.642026,"postal":"1930844","prev":"西八王子","next":null},{"name":"高尾","prefecture":"東京都","line":"JR中央本線","x":139.282288,"y":35.642026,"postal":"1930844","prev":null,"next":"相模湖"},{"name":"高尾","prefecture":"東京都","line":"京王高尾線","x":139.281551,"y":35.641645,"postal":"1930845","prev":"狭間","next":"高尾山口"},{"name":"高尾","prefecture":"岐阜県","line":"樽見鉄道樽見","x":136.625819,"y":35.601806,"postal":"5011528","prev":"日当","next":"水鳥"}]}}
高松,{"response":{"station":[{"name":"高松","prefecture":"石川県","line":"JR七尾線","x":136.728823,"y":36.768541,"postal":"9291215","prev":"横山","next":"免田"},{"name":"高松","prefecture":"香川県","line":"JR予讃線","x":134.046821,"y":34.350754,"postal":"7600011","prev":null,"next":"香西"},{"name":"高松","prefecture":"香川県","line":"JR高徳線","x":134.046821,"y":34.350754,"postal":"7600011","prev":null,"next":"昭和町"},{"name":"高松","prefecture":"東京都","line":"多摩モノレール","x":139.413242,"y":35.710158,"postal":"1900011","prev":"立飛","next":"立川北"}]}}
高野,{"response":{"station":[{"name":"高野","prefecture":"岡山県","line":"JR因美線","x":134.065834,"y":35.080505,"postal":"7081125","prev":"美作滝尾","next":"東津山"},{"name":"高野","prefecture":"東京都","line":"日暮里・舎人ライナー","x":139.770679,"y":35.768359,"postal":"1230873","prev":"扇大橋","next":"江北"}]}}
鮫洲,{"response":{"station":[{"name":"鮫洲","prefecture":"東京都","line":"京浜急行本線","x":139.742227,"y":35.604977,"postal":"1400011","prev":"青物横丁","next":"立会川"}]}}
鶯谷,{"response":{"station":[{"name":"鶯谷","prefecture":"東京都","line":"JR京浜東北線","x":139.778015,"y":35.721484,"postal":"1100003","prev":"日暮里","next":"上野"},{"name":"鶯谷","prefecture":"東京都","line":"JR山手線","x":139.778015,"y":35.721484,"postal":"1100003","prev":"日暮里","next":"上野"}]}}
鶴川,{"response":{"station":[{"name":"鶴川","prefecture":"東京都","line":"小田急小田原線","x":139.481759,"y":35.583077,"postal":"1950053","prev":"柿生","next":"玉川学園前"}]}}
麹町,{"response":{"station":[{"name":"麹町","prefecture":"東京都","line":"東京メトロ有楽町線","x":139.737613,"y":35.684006,"postal":"1020083","prev":"市ヶ谷","next":"永田町"}]}}
一之江,{"response":{"station":[{"name":"一之江","prefecture":"東京都","line":"都営新宿線","x":139.882934,"y":35.686055,"postal":"1340003","prev":"船堀","next":"瑞江"}]}}
万願寺,{"response":{"station":[{"name":"万願寺","prefecture":"東京都","line":"多摩モノレール","x":139.420079,"y":35.671249,"postal":"1910024","prev":"甲州街道","next":"高幡不動"}]}}
三ノ輪,{"response":{"station":[{"name":"三ノ輪","prefecture":"東京都","line":"東京メトロ日比谷線","x":139.791485,"y":35.729623,"postal":"1100011","prev":"南千住","next":"入谷"}]}}
三河島,{"response":{"station":[{"name":"三河島","prefecture":"東京都","line":"JR常磐線快速","x":139.777131,"y":35.733383,"postal":"1160013","prev":"日暮里","next":"南千住"}]}}
三越前,{"response":{"station":[{"name":"三越前","prefecture":"東京都","line":"東京メトロ半蔵門線","x":139.773147,"y":35.684908,"postal":"1030022","prev":"大手町","next":"水天宮前"},{"name":"三越前","prefecture":"東京都","line":"東京メトロ銀座線","x":139.773594,"y":35.687101,"postal":"1030022","prev":"日本橋","next":"神田"}]}}
三鷹台,{"response":{"station":[{"name":"三鷹台","prefecture":"東京都","line":"京王井の頭線","x":139.589298,"y":35.692046,"postal":"1810001","prev":"久我山","next":"井の頭公園"}]}}
上中里,{"response":{"station":[{"name":"上中里","prefecture":"東京都","line":"JR京浜東北線","x":139.745769,"y":35.74728,"postal":"1140024","prev":"王子","next":"田端"}]}}
上井草,{"response":{"station":[{"name":"上井草","prefecture":"東京都","line":"西武新宿線","x":139.602937,"y":35.725326,"postal":"1670021","prev":"井荻","next":"上石神井"}]}}
上北台,{"response":{"station":[{"name":"上北台","prefecture":"東京都","line":"多摩モノレール","x":139.415822,"y":35.745824,"postal":"2070021","prev":null,"next":"桜街道"}]}}
上北沢,{"response":{"station":[{"name":"上北沢","prefecture":"東京都","line":"京王線","x":139.62329,"y":35.668857,"postal":"1560057","prev":"桜上水","next":"八幡山"}]}}
上板橋,{"response":{"station":[{"name":"上板橋","prefecture":"東京都","line":"東武東上本線","x":139.67641,"y":35.763596,"postal":"1740071","prev":"ときわ台","next":"東武練馬"}]}}
上野毛,{"response":{"station":[{"name":"上野毛","prefecture":"東京都","line":"東急大井町線","x":139.638917,"y":35.611957,"postal":"1580093","prev":"等々力","next":"二子玉川"}]}}
下丸子,{"response":{"station":[{"name":"下丸子","prefecture":"東京都","line":"東急多摩川線","x":139.685576,"y":35.571397,"postal":"1460092","prev":"鵜の木","next":"武蔵新田"}]}}
下井草,{"response":{"station":[{"name":"下井草","prefecture":"東京都","line":"西武新宿線","x":139.624688,"y":35.723852,"postal":"1670021","prev":"鷺ノ宮","next":"井荻"}]}}
下北沢,{"response":{"station":[{"name":"下北沢","prefecture":"東京都","line":"京王井の頭線","x":139.66691,"y":35.661539,"postal":"1550031","prev":"池ノ上","next":"新代田"},{"name":"下北沢","prefecture":"東京都","line":"小田急小田原線","x":139.667516,"y":35.661655,"postal":"1550031","prev":"東北沢","next":"世田谷代田"}]}}
下板橋,{"response":{"station":[{"name":"下板橋","prefecture":"東京都","line":"東武東上本線","x":139.714785,"y":35.745721,"postal":"1700011","prev":"北池袋","next":"大山"}]}}
下神明,{"response":{"station":[{"name":"下神明","prefecture":"東京都","line":"東急大井町線","x":139.726256,"y":35.608704,"postal":"1410033","prev":"大井町","next":"戸越公園"}]}}
下落合,{"response":{"station":[{"name":"下落合","prefecture":"東京都","line":"西武新宿線","x":139.695391,"y":35.715846,"postal":"1610033","prev":"高田馬場","next":"中井"}]}}
下赤塚,{"response":{"station":[{"name":"下赤塚","prefecture":"東京都","line":"東武東上本線","x":139.644482,"y":35.770558,"postal":"1750093","prev":"東武練馬","next":"成増"}]}}
不動前,{"response":{"station":[{"name":"不動前","prefecture":"東京都","line":"東急目黒線","x":139.71469,"y":35.626526,"postal":"1410031","prev":"目黒","next":"武蔵小山"}]}}
世田谷,{"response":{"station":[{"name":"世田谷","prefecture":"東京都","line":"東急世田谷線","x":139.650945,"y":35.643564,"postal":"1540017","prev":"松陰神社前","next":"上町"}]}}
中村橋,{"response":{"station":[{"name":"中村橋","prefecture":"東京都","line":"西武池袋線","x":139.637456,"y":35.736767,"postal":"1760021","prev":"練馬","next":"富士見台"}]}}
中板橋,{"response":{"station":[{"name":"中板橋","prefecture":"東京都","line":"東武東上本線","x":139.694628,"y":35.756214,"postal":"1730016","prev":"大山","next":"ときわ台"}]}}
中河原,{"response":{"station":[{"name":"中河原","prefecture":"東京都","line":"京王線","x":139.457602,"y":35.659549,"postal":"1830034","prev":"分倍河原","next":"聖蹟桜ヶ丘"}]}}
中目黒,{"response":{"station":[{"name":"中目黒","prefecture":"東京都","line":"東京メトロ日比谷線","x":139.698621,"y":35.643854,"postal":"1530051","prev":"恵比寿","next":null},{"name":"中目黒","prefecture":"東京都","line":"東急東横線","x":139.698621,"y":35.643854,"postal":"1530051","prev":"代官山","next":"祐天寺"}]}}
乃木坂,{"response":{"station":[{"name":"乃木坂","prefecture":"東京都","line":"東京メトロ千代田線","x":139.726215,"y":35.666572,"postal":"1070062","prev":"赤坂","next":"表参道"}]}}
久が原,{"response":{"station":[{"name":"久が原","prefecture":"東京都","line":"東急池上線","x":139.685678,"y":35.579499,"postal":"1460084","prev":"御嶽山","next":"千鳥町"}]}}
久我山,{"response":{"station":[{"name":"久我山","prefecture":"東京都","line":"京王井の頭線","x":139.599211,"y":35.688139,"postal":"1680082","prev":"富士見ヶ丘","next":"三鷹台"}]}}
久米川,{"response":{"station":[{"name":"久米川","prefecture":"東京都","line":"西武新宿線","x":139.472653,"y":35.749575,"postal":"1890013","prev":"小平","next":"東村山"}]}}
九品仏,{"response":{"station":[{"name":"九品仏","prefecture":"東京都","line":"東急大井町線","x":139.660992,"y":35.60538,"postal":"1580083","prev":"自由が丘","next":"尾山台"}]}}
九段下,{"response":{"station":[{"name":"九段下","prefecture":"東京都","line":"東京メトロ半蔵門線","x":139.751948,"y":35.695589,"postal":"1020074","prev":"半蔵門","next":"神保町"},{"name":"九段下","prefecture":"東京都","line":"東京メトロ東西線","x":139.751948,"y":35.695589,"postal":"1020073","prev":"飯田橋","next":"竹橋"},{"name":"九段下","prefecture":"東京都","line":"都営新宿線","x":139.751948,"y":35.695589,"postal":"1020074","prev":"市ヶ谷","next":"神保町"}]}}
二俣尾,{"response":{"station":[{"name":"二俣尾","prefecture":"東京都","line":"JR青梅線","x":139.216161,"y":35.803945,"postal":"1980171","prev":"石神前","next":"軍畑"}]}}
五反田,{"response":{"station":[{"name":"五反田","prefecture":"東京都","line":"JR山手線","x":139.723822,"y":35.625974,"postal":"1410022","prev":"大崎","next":"目黒"},{"name":"五反田","prefecture":"東京都","line":"東急池上線","x":139.724175,"y":35.625262,"postal":"1410031","prev":null,"next":"大崎広小路"},{"name":"五反田","prefecture":"東京都","line":"都営浅草線","x":139.724175,"y":35.627102,"postal":"1410022","prev":"戸越","next":"高輪台"}]}}
五反野,{"response":{"station":[{"name":"五反野","prefecture":"東京都","line":"東武伊勢崎線","x":139.809643,"y":35.765852,"postal":"1200015","prev":"小菅","next":"梅島"}]}}
人形町,{"response":{"station":[{"name":"人形町","prefecture":"東京都","line":"東京メトロ日比谷線","x":139.782285,"y":35.686307,"postal":"1030013","prev":"小伝馬町","next":"茅場町"},{"name":"人形町","prefecture":"東京都","line":"都営浅草線","x":139.782285,"y":35.686307,"postal":"1030013","prev":"日本橋","next":"東日本橋"}]}}
代々木,{"response":{"station":[{"name":"代々木","prefecture":"東京都","line":"JR中央線","x":139.702042,"y":35.683061,"postal":"1510051","prev":"千駄ケ谷","next":"新宿"},{"name":"代々木","prefecture":"東京都","line":"JR山手線","x":139.702042,"y":35.683061,"postal":"1510051","prev":"原宿","next":"新宿"},{"name":"代々木","prefecture":"東京都","line":"JR総武線","x":139.702042,"y":35.683061,"postal":"1510051","prev":"新宿","next":"千駄ケ谷"},{"name":"代々木","prefecture":"東京都","line":"都営大江戸線","x":139.701666,"y":35.683218,"postal":"1510053","prev":"国立競技場","next":"新宿"}]}}
代官山,{"response":{"station":[{"name":"代官山","prefecture":"東京都","line":"東急東横線","x":139.703284,"y":35.648193,"postal":"1500034","prev":"渋谷","next":"中目黒"}]}}
代田橋,{"response":{"station":[{"name":"代田橋","prefecture":"東京都","line":"京王線","x":139.659413,"y":35.671092,"postal":"1560041","prev":"笹塚","next":"明大前"}]}}
信濃町,{"response":{"station":[{"name":"信濃町","prefecture":"東京都","line":"JR中央線","x":139.720729,"y":35.680031,"postal":"1600012","prev":"四ツ谷","next":"千駄ケ谷"},{"name":"信濃町","prefecture":"東京都","line":"JR総武線","x":139.720729,"y":35.680031,"postal":"1600012","prev":"千駄ケ谷","next":"四ツ谷"}]}}
光が丘,{"response":{"station":[{"name":"光が丘","prefecture":"東京都","line":"都営大江戸線","x":139.628603,"y":35.758526,"postal":"1790072","prev":"練馬春日町","next":null}]}}
八丁堀,{"response":{"station":[{"name":"八丁堀","prefecture":"東京都","line":"JR京葉線","x":139.777705,"y":35.674617,"postal":"1040032","prev":"東京","next":"越中島"},{"name":"八丁堀","prefecture":"広島県","line":"広島電鉄本線","x":132.463403,"y":34.393897,"postal":"7300013","prev":"胡町","next":"立町"},{"name":"八丁堀","prefecture":"広島県","line":"広島電鉄白島線","x":132.463403,"y":34.393897,"postal":"7300017","prev":null,"next":"女学院前"},{"name":"八丁堀","prefecture":"東京都","line":"東京メトロ日比谷線","x":139.776982,"y":35.674851,"postal":"1040032","prev":"茅場町","next":"築地"}]}}
八幡山,{"response":{"station":[{"name":"八幡山","prefecture":"東京都","line":"京王線","x":139.614927,"y":35.669982,"postal":"1680074","prev":"上北沢","next":"芦花公園"}]}}
八王子,{"response":{"station":[{"name":"八王子","prefecture":"東京都","line":"JR中央線","x":139.338998,"y":35.655555,"postal":"1920083","prev":"豊田","next":"西八王子"},{"name":"八王子","prefecture":"東京都","line":"JR八高線","x":139.338998,"y":35.655555,"postal":"1920083","prev":null,"next":"北八王子"},{"name":"八王子","prefecture":"東京都","line":"JR横浜線","x":139.338998,"y":35.655555,"postal":"1920083","prev":"片倉","next":null}]}}
六本木,{"response":{"station":[{"name":"六本木","prefecture":"東京都","line":"東京メトロ日比谷線","x":139.731443,"y":35.662836,"postal":"1060032","prev":"神谷町","next":"広尾"},{"name":"六本木","prefecture":"東京都","line":"都営大江戸線","x":139.731567,"y":35.663921,"postal":"1060032","prev":"麻布十番","next":"青山一丁目"}]}}
内幸町,{"response":{"station":[{"name":"内幸町","prefecture":"東京都","line":"都営三田線","x":139.75561,"y":35.66975,"postal":"1050004","prev":"御成門","next":"日比谷"}]}}
勝どき,{"response":{"station":[{"name":"勝どき","prefecture":"東京都","line":"都営大江戸線","x":139.776442,"y":35.658507,"postal":"1040054","prev":"月島","next":"築地市場"}]}}
北千住,{"response":{"station":[{"name":"北千住","prefecture":"東京都","line":"JR常磐線各駅停車","x":139.804872,"y":35.749677,"postal":"1200026","prev":null,"next":"綾瀬"},{"name":"北千住","prefecture":"東京都","line":"JR常磐線快速","x":139.804872,"y":35.749677,"postal":"1200026","prev":"南千住","next":"松戸"},{"name":"北千住","prefecture":"東京都","line":"つくばエクスプレス線","x":139.805092,"y":35.74949,"postal":"1200026","prev":"南千住","next":"青井"},{"name":"北千住","prefecture":"東京都","line":"東京メトロ千代田線","x":139.804276,"y":35.748916,"postal":"1200026","prev":"綾瀬","next":"町屋"},{"name":"北千住","prefecture":"東京都","line":"東京メトロ日比谷線","x":139.804276,"y":35.748916,"postal":"1200026","prev":null,"next":"南千住"},{"name":"北千住","prefecture":"東京都","line":"東武伊勢崎線","x":139.805564,"y":35.749891,"postal":"1200026","prev":"牛田","next":"小菅"}]}}
北千束,{"response":{"station":[{"name":"北千束","prefecture":"東京都","line":"東急大井町線","x":139.693303,"y":35.606311,"postal":"1450062","prev":"旗の台","next":"大岡山"}]}}
北参道,{"response":{"station":[{"name":"北参道","prefecture":"東京都","line":"東京メトロ副都心線","x":139.705453,"y":35.678459,"postal":"1510051","prev":"新宿三丁目","next":"明治神宮前〈原宿〉"}]}}
北品川,{"response":{"station":[{"name":"北品川","prefecture":"東京都","line":"京浜急行本線","x":139.739191,"y":35.622458,"postal":"1400001","prev":"品川","next":"新馬場"}]}}
北府中,{"response":{"station":[{"name":"北府中","prefecture":"東京都","line":"JR武蔵野線","x":139.471792,"y":35.68088,"postal":"1830057","prev":"府中本町","next":"西国分寺"}]}}
北池袋,{"response":{"station":[{"name":"北池袋","prefecture":"東京都","line":"東武東上本線","x":139.716749,"y":35.741283,"postal":"1700011","prev":"池袋","next":"下板橋"}]}}
北綾瀬,{"response":{"station":[{"name":"北綾瀬","prefecture":"東京都","line":"東京メトロ千代田線","x":139.832035,"y":35.777117,"postal":"1200006","prev":"代々木上原","next":null}]}}
北赤羽,{"response":{"station":[{"name":"北赤羽","prefecture":"東京都","line":"JR埼京線","x":139.70569,"y":35.787007,"postal":"1150052","prev":"赤羽","next":"浮間舟渡"}]}}
千駄木,{"response":{"station":[{"name":"千駄木","prefecture":"東京都","line":"東京メトロ千代田線","x":139.763243,"y":35.725549,"postal":"1130022","prev":"西日暮里","next":"根津"}]}}
千鳥町,{"response":{"station":[{"name":"千鳥町","prefecture":"東京都","line":"東急池上線","x":139.69142,"y":35.572983,"postal":"1460083","prev":"久が原","next":"池上"}]}}
半蔵門,{"response":{"station":[{"name":"半蔵門","prefecture":"東京都","line":"東京メトロ半蔵門線","x":139.74163,"y":35.685703,"postal":"1020083","prev":"永田町","next":"九段下"}]}}
南千住,{"response":{"station":[{"name":"南千住","prefecture":"東京都","line":"JR常磐線快速","x":139.7994,"y":35.734033,"postal":"1160003","prev":"三河島","next":"北千住"},{"name":"南千住","prefecture":"東京都","line":"つくばエクスプレス線","x":139.798783,"y":35.732413,"postal":"1160003","prev":"浅草","next":"北千住"},{"name":"南千住","prefecture":"東京都","line":"東京メトロ日比谷線","x":139.799273,"y":35.733398,"postal":"1160003","prev":"北千住","next":"三ノ輪"}]}}
南多摩,{"response":{"station":[{"name":"南多摩","prefecture":"東京都","line":"JR南武線","x":139.489781,"y":35.649249,"postal":"2060801","prev":"稲城長沼","next":"府中本町"}]}}
南大沢,{"response":{"station":[{"name":"南大沢","prefecture":"東京都","line":"京王相模原線","x":139.3798,"y":35.6141,"postal":"1920364","prev":"京王堀之内","next":"多摩境"}]}}
南新宿,{"response":{"station":[{"name":"南新宿","prefecture":"東京都","line":"小田急小田原線","x":139.69867,"y":35.683483,"postal":"1510053","prev":"新宿","next":"参宮橋"}]}}
南砂町,{"response":{"station":[{"name":"南砂町","prefecture":"東京都","line":"東京メトロ東西線","x":139.83065,"y":35.668796,"postal":"1360076","prev":"東陽町","next":"西葛西"}]}}
参宮橋,{"response":{"station":[{"name":"参宮橋","prefecture":"東京都","line":"小田急小田原線","x":139.693568,"y":35.678586,"postal":"1510053","prev":"南新宿","next":"代々木八幡"}]}}
吉祥寺,{"response":{"station":[{"name":"吉祥寺","prefecture":"東京都","line":"JR中央線","x":139.579765,"y":35.703119,"postal":"1800003","prev":"西荻窪","next":"三鷹"},{"name":"吉祥寺","prefecture":"東京都","line":"JR総武線","x":139.579765,"y":35.703119,"postal":"1800003","prev":"三鷹","next":"西荻窪"},{"name":"吉祥寺","prefecture":"東京都","line":"京王井の頭線","x":139.580306,"y":35.70229,"postal":"1800003","prev":"井の頭公園","next":null}]}}
唐木田,{"response":{"station":[{"name":"唐木田","prefecture":"東京都","line":"小田急多摩線","x":139.411622,"y":35.616672,"postal":"2060036","prev":"小田急多摩センター","next":null}]}}
喜多見,{"response":{"station":[{"name":"喜多見","prefecture":"東京都","line":"小田急小田原線","x":139.587445,"y":35.636697,"postal":"1570067","prev":"成城学園前","next":"狛江"}]}}
四ツ木,{"response":{"station":[{"name":"四ツ木","prefecture":"東京都","line":"京成押上線","x":139.834918,"y":35.731962,"postal":"1240011","prev":"八広","next":"京成立石"}]}}
四ツ谷,{"response":{"station":[{"name":"四ツ谷","prefecture":"東京都","line":"JR中央線","x":139.730644,"y":35.686041,"postal":"1020083","prev":"市ケ谷","next":"信濃町"},{"name":"四ツ谷","prefecture":"東京都","line":"JR総武線","x":139.730644,"y":35.686041,"postal":"1020083","prev":"信濃町","next":"市ヶ谷"},{"name":"四ツ谷","prefecture":"東京都","line":"東京メトロ丸ノ内線","x":139.729947,"y":35.684586,"postal":"1020083","prev":"赤坂見附","next":"四谷三丁目"},{"name":"四ツ谷","prefecture":"東京都","line":"東京メトロ南北線","x":139.72955,"y":35.686032,"postal":"1020083","prev":"永田町","next":"市ケ谷"}]}}
国分寺,{"response":{"station":[{"name":"国分寺","prefecture":"東京都","line":"JR中央線","x":139.480841,"y":35.700123,"postal":"1850012","prev":"武蔵小金井","next":"西国分寺"},{"name":"国分寺","prefecture":"東京都","line":"西武国分寺線","x":139.480841,"y":35.700123,"postal":"1850012","prev":null,"next":"恋ヶ窪"},{"name":"国分寺","prefecture":"東京都","line":"西武多摩湖線","x":139.479547,"y":35.700836,"postal":"1850012","prev":null,"next":"一橋学園"}]}}
外苑前,{"response":{"station":[{"name":"外苑前","prefecture":"東京都","line":"東京メトロ銀座線","x":139.717857,"y":35.670527,"postal":"1070061","prev":"表参道","next":"青山一丁目"}]}}
多摩境,{"response":{"station":[{"name":"多摩境","prefecture":"東京都","line":"京王相模原線","x":139.366987,"y":35.601826,"postal":"1940215","prev":"南大沢","next":"橋本"}]}}
多摩川,{"response":{"station":[{"name":"多摩川","prefecture":"東京都","line":"東急多摩川線","x":139.668723,"y":35.589591,"postal":"1450071","prev":null,"next":"沼部"},{"name":"多摩川","prefecture":"東京都","line":"東急東横線","x":139.668723,"y":35.589591,"postal":"1450071","prev":"田園調布","next":"新丸子"},{"name":"多摩川","prefecture":"東京都","line":"東急目黒線","x":139.668723,"y":35.589591,"postal":"1450071","prev":"田園調布","next":"新丸子"}]}}
多摩湖,{"response":{"station":[{"name":"多摩湖","prefecture":"東京都","line":"西武多摩湖線","x":139.442747,"y":35.765881,"postal":"1890026","prev":"武蔵大和","next":null},{"name":"多摩湖","prefecture":"東京都","line":"西武山口線","x":139.442747,"y":35.765881,"postal":"1890026","prev":null,"next":"西武園ゆうえんち"}]}}
大久保,{"response":{"station":[{"name":"大久保","prefecture":"東京都","line":"JR中央線","x":139.69732,"y":35.700784,"postal":"1690073","prev":"新宿","next":"東中野"},{"name":"大久保","prefecture":"秋田県","line":"JR奥羽本線","x":140.063079,"y":39.87089,"postal":"0181401","prev":"追分","next":"羽後飯塚"},{"name":"大久保","prefecture":"兵庫県","line":"JR神戸線","x":134.939194,"y":34.681914,"postal":"6740067","prev":"西明石","next":"魚住"},{"name":"大久保","prefecture":"東京都","line":"JR総武線","x":139.69732,"y":35.700784,"postal":"1690073","prev":"東中野","next":"新宿"},{"name":"大久保","prefecture":"京都府","line":"近鉄京都線","x":135.777024,"y":34.874351,"postal":"6110031","prev":"伊勢田","next":"久津川"}]}}
大井町,{"response":{"station":[{"name":"大井町","prefecture":"東京都","line":"JR京浜東北線","x":139.73485,"y":35.606257,"postal":"1400014","prev":"品川","next":"大森"},{"name":"大井町","prefecture":"東京都","line":"東京りんかい線","x":139.735025,"y":35.607535,"postal":"1400014","prev":"品川シーサイド","next":"大崎"},{"name":"大井町","prefecture":"東京都","line":"東急大井町線","x":139.735025,"y":35.607535,"postal":"1400014","prev":null,"next":"下神明"}]}}
大岡山,{"response":{"station":[{"name":"大岡山","prefecture":"東京都","line":"東急大井町線","x":139.685909,"y":35.607456,"postal":"1520033","prev":"北千束","next":"緑が丘"},{"name":"大岡山","prefecture":"東京都","line":"東急目黒線","x":139.685909,"y":35.607456,"postal":"1520033","prev":"洗足","next":"奥沢"}]}}
大師前,{"response":{"station":[{"name":"大師前","prefecture":"東京都","line":"東武大師線","x":139.781647,"y":35.778989,"postal":"1230841","prev":"西新井","next":null}]}}
大手町,{"response":{"station":[{"name":"大手町","prefecture":"愛媛県","line":"伊予鉄大手町線","x":132.755384,"y":33.839726,"postal":"7900067","prev":"松山駅前","next":"西堀端"},{"name":"大手町","prefecture":"愛媛県","line":"伊予鉄高浜線","x":132.755384,"y":33.839726,"postal":"7900067","prev":"古町","next":"松山市"},{"name":"大手町","prefecture":"東京都","line":"東京メトロ丸ノ内線","x":139.7662,"y":35.686564,"postal":"1000004","prev":"淡路町","next":"東京"},{"name":"大手町","prefecture":"東京都","line":"東京メトロ千代田線","x":139.763399,"y":35.686154,"postal":"1000004","prev":"新御茶ノ水","next":"二重橋前"},{"name":"大手町","prefecture":"東京都","line":"東京メトロ半蔵門線","x":139.764107,"y":35.68686,"postal":"1000004","prev":"神保町","next":"三越前"},{"name":"大手町","prefecture":"東京都","line":"東京メトロ東西線","x":139.766086,"y":35.684801,"postal":"1000004","prev":"竹橋","next":"日本橋"},{"name":"大手町","prefecture":"東京都","line":"都営三田線","x":139.762959,"y":35.684856,"postal":"1000005","prev":"日比谷","next":"神保町"}]}}
大森町,{"response":{"station":[{"name":"大森町","prefecture":"東京都","line":"京浜急行本線","x":139.732027,"y":35.572431,"postal":"1430015","prev":"平和島","next":"梅屋敷"}]}}
大鳥居,{"response":{"station":[{"name":"大鳥居","prefecture":"東京都","line":"京浜急行空港線","x":139.739356,"y":35.552531,"postal":"1440034","prev":"糀谷","next":"穴守稲荷"}]}}
天空橋,{"response":{"station":[{"name":"天空橋","prefecture":"東京都","line":"京浜急行空港線","x":139.75423,"y":35.548908,"postal":"1440041","prev":"穴守稲荷","next":"羽田空港第3ターミナル"},{"name":"天空橋","prefecture":"東京都","line":"東京モノレール羽田線","x":139.75423,"y":35.548908,"postal":"1440041","prev":"整備場","next":"羽田空港第3ターミナル"}]}}
奥多摩,{"response":{"station":[{"name":"奥多摩","prefecture":"東京都","line":"JR青梅線","x":139.096961,"y":35.809357,"postal":"1980212","prev":"白丸","next":null}]}}
宮の坂,{"response":{"station":[{"name":"宮の坂","prefecture":"東京都","line":"東急世田谷線","x":139.64494,"y":35.647508,"postal":"1540021","prev":"上町","next":"山下"}]}}
宮ノ前,{"response":{"station":[{"name":"宮ノ前","prefecture":"東京都","line":"都電荒川線","x":139.764955,"y":35.750135,"postal":"1160011","prev":"熊野前","next":"小台"}]}}
宮ノ平,{"response":{"station":[{"name":"宮ノ平","prefecture":"東京都","line":"JR青梅線","x":139.237289,"y":35.787545,"postal":"1980046","prev":"青梅","next":"日向和田"}]}}
小川町,{"response":{"station":[{"name":"小川町","prefecture":"埼玉県","line":"JR八高線","x":139.260412,"y":36.05903,"postal":"3550328","prev":"明覚","next":"竹沢"},{"name":"小川町","prefecture":"埼玉県","line":"東武東上本線","x":139.260412,"y":36.05903,"postal":"3550328","prev":"武蔵嵐山","next":"東武竹沢"},{"name":"小川町","prefecture":"東京都","line":"都営新宿線","x":139.767551,"y":35.695487,"postal":"1010052","prev":"神保町","next":"岩本町"}]}}
小村井,{"response":{"station":[{"name":"小村井","prefecture":"東京都","line":"東武亀戸線","x":139.827595,"y":35.710316,"postal":"1310044","prev":"東あずま","next":"曳舟"}]}}
尾山台,{"response":{"station":[{"name":"尾山台","prefecture":"東京都","line":"東急大井町線","x":139.653862,"y":35.606971,"postal":"1580082","prev":"九品仏","next":"等々力"}]}}
岩本町,{"response":{"station":[{"name":"岩本町","prefecture":"東京都","line":"都営新宿線","x":139.775866,"y":35.695534,"postal":"1010032","prev":"小川町","next":"馬喰横山"}]}}
市ケ谷,{"response":{"station":[{"name":"市ケ谷","prefecture":"東京都","line":"JR中央線","x":139.735241,"y":35.691105,"postal":"1020076","prev":"飯田橋","next":"四ツ谷"},{"name":"市ケ谷","prefecture":"東京都","line":"東京メトロ南北線","x":139.736642,"y":35.691295,"postal":"1620843","prev":"四ツ谷","next":"飯田橋"}]}}
市ヶ谷,{"response":{"station":[{"name":"市ヶ谷","prefecture":"東京都","line":"JR総武線","x":139.735794,"y":35.692594,"postal":"1020076","prev":"四ツ谷","next":"飯田橋"},{"name":"市ヶ谷","prefecture":"東京都","line":"東京メトロ有楽町線","x":139.73647,"y":35.691958,"postal":"1020073","prev":"飯田橋","next":"麹町"},{"name":"市ヶ谷","prefecture":"東京都","line":"都営新宿線","x":139.735794,"y":35.692594,"postal":"1020073","prev":"曙橋","next":"九段下"}]}}
市場前,{"response":{"station":[{"name":"市場前","prefecture":"東京都","line":"新交通ゆりかもめ","x":139.78564,"y":35.645684,"postal":"1350061","prev":"有明テニスの森","next":"新豊洲"}]}}
幡ヶ谷,{"response":{"station":[{"name":"幡ヶ谷","prefecture":"東京都","line":"京王新線","x":139.676183,"y":35.677061,"postal":"1510072","prev":"初台","next":"笹塚"}]}}
平和台,{"response":{"station":[{"name":"平和台","prefecture":"東京都","line":"東京メトロ有楽町線","x":139.653762,"y":35.757863,"postal":"1790083","prev":"地下鉄赤塚","next":"氷川台"},{"name":"平和台","prefecture":"東京都","line":"東京メトロ副都心線","x":139.653762,"y":35.757863,"postal":"1790083","prev":"地下鉄赤塚","next":"氷川台"},{"name":"平和台","prefecture":"千葉県","line":"流鉄流山線","x":139.901108,"y":35.85123,"postal":"2700157","prev":"鰭ヶ崎","next":"流山"}]}}
平和島,{"response":{"station":[{"name":"平和島","prefecture":"東京都","line":"京浜急行本線","x":139.73491,"y":35.57868,"postal":"1430016","prev":"大森海岸","next":"大森町"}]}}
庚申塚,{"response":{"station":[{"name":"庚申塚","prefecture":"東京都","line":"都電荒川線","x":139.729743,"y":35.739563,"postal":"1700001","prev":"新庚申塚","next":"巣鴨新田"}]}}
後楽園,{"response":{"station":[{"name":"後楽園","prefecture":"東京都","line":"東京メトロ丸ノ内線","x":139.751864,"y":35.707898,"postal":"1120003","prev":"茗荷谷","next":"本郷三丁目"},{"name":"後楽園","prefecture":"東京都","line":"東京メトロ南北線","x":139.751864,"y":35.707898,"postal":"1120002","prev":"飯田橋","next":"東大前"}]}}
御嶽山,{"response":{"station":[{"name":"御嶽山","prefecture":"東京都","line":"東急池上線","x":139.682473,"y":35.585236,"postal":"1450073","prev":"雪が谷大塚","next":"久が原"}]}}
御徒町,{"response":{"station":[{"name":"御徒町","prefecture":"東京都","line":"JR京浜東北線","x":139.774727,"y":35.707282,"postal":"1100005","prev":"上野","next":"秋葉原"},{"name":"御徒町","prefecture":"東京都","line":"JR山手線","x":139.774727,"y":35.707282,"postal":"1100005","prev":"上野","next":"秋葉原"}]}}
御成門,{"response":{"station":[{"name":"御成門","prefecture":"東京都","line":"都営三田線","x":139.751535,"y":35.661215,"postal":"1050004","prev":"芝公園","next":"内幸町"}]}}
恋ヶ窪,{"response":{"station":[{"name":"恋ヶ窪","prefecture":"東京都","line":"西武国分寺線","x":139.463944,"y":35.711385,"postal":"1850002","prev":"国分寺","next":"鷹の台"}]}}
恵比寿,{"response":{"station":[{"name":"恵比寿","prefecture":"東京都","line":"JR埼京線","x":139.71007,"y":35.646684,"postal":"1500013","prev":"大崎","next":"渋谷"},{"name":"恵比寿","prefecture":"東京都","line":"JR山手線","x":139.71007,"y":35.646684,"postal":"1500013","prev":"目黒","next":"渋谷"},{"name":"恵比寿","prefecture":"東京都","line":"JR湘南新宿ライン","x":139.71007,"y":35.646684,"postal":"1500013","prev":"渋谷","next":"大崎"},{"name":"恵比寿","prefecture":"東京都","line":"東京メトロ日比谷線","x":139.708988,"y":35.647332,"postal":"1500022","prev":"広尾","next":"中目黒"},{"name":"恵比寿","prefecture":"東京都","line":"相鉄・JR直通線","x":139.71007,"y":35.646685,"postal":"1500013","prev":"渋谷","next":"大崎"}]}}
扇大橋,{"response":{"station":[{"name":"扇大橋","prefecture":"東京都","line":"日暮里・舎人ライナー","x":139.770808,"y":35.763897,"postal":"1230873","prev":"足立小台","next":"高野"}]}}
整備場,{"response":{"station":[{"name":"整備場","prefecture":"東京都","line":"東京モノレール羽田線","x":139.753366,"y":35.555125,"postal":"1440041","prev":"昭和島","next":"天空橋"}]}}
新中野,{"response":{"station":[{"name":"新中野","prefecture":"東京都","line":"東京メトロ丸ノ内線","x":139.66903,"y":35.697491,"postal":"1640011","prev":"中野坂上","next":"東高円寺"}]}}
新代田,{"response":{"station":[{"name":"新代田","prefecture":"東京都","line":"京王井の頭線","x":139.660524,"y":35.662593,"postal":"1550033","prev":"下北沢","next":"東松原"}]}}
新大塚,{"response":{"station":[{"name":"新大塚","prefecture":"東京都","line":"東京メトロ丸ノ内線","x":139.729971,"y":35.72569,"postal":"1700013","prev":"池袋","next":"茗荷谷"}]}}
新富町,{"response":{"station":[{"name":"新富町","prefecture":"富山県","line":"富山地鉄市内線","x":137.211256,"y":36.69886,"postal":"9300002","prev":"富山駅","next":"県庁前"},{"name":"新富町","prefecture":"東京都","line":"東京メトロ有楽町線","x":139.773711,"y":35.670462,"postal":"1040041","prev":"銀座一丁目","next":"月島"}]}}
新小岩,{"response":{"station":[{"name":"新小岩","prefecture":"東京都","line":"JR総武線","x":139.857777,"y":35.716903,"postal":"1240024","prev":"平井","next":"小岩"},{"name":"新小岩","prefecture":"東京都","line":"JR総武線快速","x":139.857777,"y":35.716903,"postal":"1240024","prev":"錦糸町","next":"市川"}]}}
新小平,{"response":{"station":[{"name":"新小平","prefecture":"東京都","line":"JR武蔵野線","x":139.470745,"y":35.73128,"postal":"1870032","prev":"西国分寺","next":"新秋津"}]}}
新木場,{"response":{"station":[{"name":"新木場","prefecture":"東京都","line":"JR京葉線","x":139.827402,"y":35.646172,"postal":"1360082","prev":"潮見","next":"葛西臨海公園"},{"name":"新木場","prefecture":"東京都","line":"東京りんかい線","x":139.827402,"y":35.646172,"postal":"1360082","prev":null,"next":"東雲"},{"name":"新木場","prefecture":"東京都","line":"東京メトロ有楽町線","x":139.826254,"y":35.645832,"postal":"1360082","prev":"辰巳","next":null}]}}
新板橋,{"response":{"station":[{"name":"新板橋","prefecture":"東京都","line":"都営三田線","x":139.720101,"y":35.748785,"postal":"1730004","prev":"西巣鴨","next":"板橋区役所前"}]}}
新柴又,{"response":{"station":[{"name":"新柴又","prefecture":"東京都","line":"北総鉄道","x":139.879376,"y":35.75101,"postal":"1250052","prev":"京成高砂","next":"矢切"}]}}
新桜台,{"response":{"station":[{"name":"新桜台","prefecture":"東京都","line":"西武有楽町線","x":139.6683,"y":35.74077,"postal":"1760006","prev":"練馬","next":"小竹向原"}]}}
新秋津,{"response":{"station":[{"name":"新秋津","prefecture":"東京都","line":"JR武蔵野線","x":139.493592,"y":35.778331,"postal":"1890001","prev":"新小平","next":"東所沢"}]}}
新豊洲,{"response":{"station":[{"name":"新豊洲","prefecture":"東京都","line":"新交通ゆりかもめ","x":139.789996,"y":35.648718,"postal":"1350061","prev":"市場前","next":"豊洲"}]}}
新馬場,{"response":{"station":[{"name":"新馬場","prefecture":"東京都","line":"京浜急行本線","x":139.741366,"y":35.61762,"postal":"1400001","prev":"北品川","next":"青物横丁"}]}}
方南町,{"response":{"station":[{"name":"方南町","prefecture":"東京都","line":"東京メトロ丸ノ内分岐線","x":139.656498,"y":35.683496,"postal":"1680062","prev":"中野富士見町","next":null}]}}
旗の台,{"response":{"station":[{"name":"旗の台","prefecture":"東京都","line":"東急大井町線","x":139.702286,"y":35.604923,"postal":"1420064","prev":"荏原町","next":"北千束"},{"name":"旗の台","prefecture":"東京都","line":"東急池上線","x":139.702286,"y":35.604923,"postal":"1420064","prev":"荏原中延","next":"長原"}]}}
日の出,{"response":{"station":[{"name":"日の出","prefecture":"東京都","line":"新交通ゆりかもめ","x":139.75906,"y":35.649136,"postal":"1050022","prev":"竹芝","next":"芝浦ふ頭"}]}}
日暮里,{"response":{"station":[{"name":"日暮里","prefecture":"東京都","line":"JR京浜東北線","x":139.771287,"y":35.727908,"postal":"1100001","prev":"西日暮里","next":"鶯谷"},{"name":"日暮里","prefecture":"東京都","line":"JR山手線","x":139.771287,"y":35.727908,"postal":"1100001","prev":"西日暮里","next":"鶯谷"},{"name":"日暮里","prefecture":"東京都","line":"JR常磐線快速","x":139.771287,"y":35.727908,"postal":"1160013","prev":"上野","next":"三河島"},{"name":"日暮里","prefecture":"東京都","line":"京成本線","x":139.771287,"y":35.727908,"postal":"1160013","prev":"京成上野","next":"新三河島"},{"name":"日暮里","prefecture":"東京都","line":"日暮里・舎人ライナー","x":139.771287,"y":35.727908,"postal":"1160013","prev":null,"next":"西日暮里"},{"name":"日暮里","prefecture":"東京都","line":"JR上野東京ライン","x":139.771287,"y":35.727908,"postal":"1100001","prev":"尾久","next":"上野"}]}}
日本橋,{"response":{"station":[{"name":"日本橋","prefecture":"大阪府","line":"大阪千日前線","x":135.506635,"y":34.667146,"postal":"5420073","prev":"難波","next":"谷町九丁目"},{"name":"日本橋","prefecture":"大阪府","line":"大阪堺筋線","x":135.506635,"y":34.667146,"postal":"5420073","prev":"長堀橋","next":"恵美須町"},{"name":"日本橋","prefecture":"東京都","line":"東京メトロ東西線","x":139.773516,"y":35.682078,"postal":"1030027","prev":"大手町","next":"茅場町"},{"name":"日本橋","prefecture":"東京都","line":"東京メトロ銀座線","x":139.773516,"y":35.682078,"postal":"1030027","prev":"京橋","next":"三越前"},{"name":"日本橋","prefecture":"東京都","line":"都営浅草線","x":139.775721,"y":35.681688,"postal":"1030027","prev":"宝町","next":"人形町"}]}}
日比谷,{"response":{"station":[{"name":"日比谷","prefecture":"東京都","line":"東京メトロ千代田線","x":139.758732,"y":35.674241,"postal":"1000006","prev":"二重橋前","next":"霞ケ関"},{"name":"日比谷","prefecture":"東京都","line":"東京メトロ日比谷線","x":139.76017,"y":35.67459,"postal":"1000006","prev":"銀座","next":"霞ケ関"},{"name":"日比谷","prefecture":"東京都","line":"都営三田線","x":139.759998,"y":35.676036,"postal":"1000005","prev":"内幸町","next":"大手町"}]}}
早稲田,{"response":{"station":[{"name":"早稲田","prefecture":"東京都","line":"東京メトロ東西線","x":139.721319,"y":35.705723,"postal":"1620042","prev":"高田馬場","next":"神楽坂"},{"name":"早稲田","prefecture":"東京都","line":"都電荒川線","x":139.718928,"y":35.711848,"postal":"1690051","prev":"面影橋","next":null}]}}
明大前,{"response":{"station":[{"name":"明大前","prefecture":"東京都","line":"京王線","x":139.650352,"y":35.668758,"postal":"1560043","prev":"代田橋","next":"下高井戸"},{"name":"明大前","prefecture":"東京都","line":"京王井の頭線","x":139.650352,"y":35.668758,"postal":"1560043","prev":"東松原","next":"永福町"}]}}
昭和島,{"response":{"station":[{"name":"昭和島","prefecture":"東京都","line":"東京モノレール羽田線","x":139.749918,"y":35.570656,"postal":"1430004","prev":"流通センター","next":"整備場"}]}}
有楽町,{"response":{"station":[{"name":"有楽町","prefecture":"東京都","line":"JR京浜東北線","x":139.763806,"y":35.675441,"postal":"1000006","prev":"東京","next":"新橋"},{"name":"有楽町","prefecture":"東京都","line":"JR山手線","x":139.763806,"y":35.675441,"postal":"1000006","prev":"東京","next":"新橋"},{"name":"有楽町","prefecture":"東京都","line":"東京メトロ有楽町線","x":139.763265,"y":35.675714,"postal":"1000005","prev":"桜田門","next":"銀座一丁目"}]}}
末広町,{"response":{"station":[{"name":"末広町","prefecture":"富山県","line":"万葉線高岡軌道線","x":137.013148,"y":36.744825,"postal":"9370059","prev":"高岡駅","next":"片原町"},{"name":"末広町","prefecture":"北海道","line":"函館市電本線","x":140.711989,"y":41.766879,"postal":"0400053","prev":"大町","next":"十字街"},{"name":"末広町","prefecture":"東京都","line":"東京メトロ銀座線","x":139.771713,"y":35.702972,"postal":"1010021","prev":"神田","next":"上野広小路"}]}}
本蓮沼,{"response":{"station":[{"name":"本蓮沼","prefecture":"東京都","line":"都営三田線","x":139.702324,"y":35.768782,"postal":"1740052","prev":"板橋本町","next":"志村坂上"}]}}
本駒込,{"response":{"station":[{"name":"本駒込","prefecture":"東京都","line":"東京メトロ南北線","x":139.753828,"y":35.724155,"postal":"1130023","prev":"東大前","next":"駒込"}]}}
東中神,{"response":{"station":[{"name":"東中神","prefecture":"東京都","line":"JR青梅線","x":139.384529,"y":35.706337,"postal":"1960031","prev":"西立川","next":"中神"}]}}
東中野,{"response":{"station":[{"name":"東中野","prefecture":"東京都","line":"JR中央線","x":139.684436,"y":35.706529,"postal":"1640003","prev":"大久保","next":"中野"},{"name":"東中野","prefecture":"東京都","line":"JR総武線","x":139.684436,"y":35.706529,"postal":"1640003","prev":"中野","next":"大久保"},{"name":"東中野","prefecture":"東京都","line":"都営大江戸線","x":139.682987,"y":35.706891,"postal":"1640003","prev":"中野坂上","next":"中井"}]}}
東伏見,{"response":{"station":[{"name":"東伏見","prefecture":"東京都","line":"西武新宿線","x":139.563529,"y":35.728761,"postal":"2020021","prev":"武蔵関","next":"西武柳沢"}]}}
東北沢,{"response":{"station":[{"name":"東北沢","prefecture":"東京都","line":"小田急小田原線","x":139.673014,"y":35.665379,"postal":"1550031","prev":"代々木上原","next":"下北沢"}]}}
東十条,{"response":{"station":[{"name":"東十条","prefecture":"東京都","line":"JR京浜東北線","x":139.726858,"y":35.763803,"postal":"1140001","prev":"赤羽","next":"王子"}]}}
東向島,{"response":{"station":[{"name":"東向島","prefecture":"東京都","line":"東武伊勢崎線","x":139.819306,"y":35.724324,"postal":"1310032","prev":"曳舟","next":"鐘ヶ淵"}]}}
東大前,{"response":{"station":[{"name":"東大前","prefecture":"東京都","line":"東京メトロ南北線","x":139.758025,"y":35.717633,"postal":"1130023","prev":"後楽園","next":"本駒込"}]}}
東大島,{"response":{"station":[{"name":"東大島","prefecture":"東京都","line":"都営新宿線","x":139.845963,"y":35.690355,"postal":"1360072","prev":"大島","next":"船堀"}]}}
東府中,{"response":{"station":[{"name":"東府中","prefecture":"東京都","line":"京王線","x":139.495257,"y":35.668766,"postal":"1830015","prev":"多磨霊園","next":"府中"},{"name":"東府中","prefecture":"東京都","line":"京王競馬場線","x":139.495257,"y":35.668766,"postal":"1830015","prev":null,"next":"府中競馬正門前"}]}}
東新宿,{"response":{"station":[{"name":"東新宿","prefecture":"東京都","line":"東京メトロ副都心線","x":139.707593,"y":35.698915,"postal":"1600022","prev":"西早稲田","next":"新宿三丁目"},{"name":"東新宿","prefecture":"東京都","line":"都営大江戸線","x":139.707549,"y":35.69792,"postal":"1600022","prev":"新宿西口","next":"若松河田"}]}}
東村山,{"response":{"station":[{"name":"東村山","prefecture":"東京都","line":"西武国分寺線","x":139.465839,"y":35.76006,"postal":"1890014","prev":"小川","next":null},{"name":"東村山","prefecture":"東京都","line":"西武新宿線","x":139.465839,"y":35.76006,"postal":"1890014","prev":"久米川","next":"所沢"},{"name":"東村山","prefecture":"東京都","line":"西武西武園線","x":139.465839,"y":35.76006,"postal":"1890014","prev":null,"next":"西武園"}]}}
東松原,{"response":{"station":[{"name":"東松原","prefecture":"東京都","line":"京王井の頭線","x":139.655535,"y":35.662634,"postal":"1560043","prev":"新代田","next":"明大前"}]}}
東池袋,{"response":{"station":[{"name":"東池袋","prefecture":"東京都","line":"東京メトロ有楽町線","x":139.719546,"y":35.725732,"postal":"1710022","prev":"池袋","next":"護国寺"}]}}
東福生,{"response":{"station":[{"name":"東福生","prefecture":"東京都","line":"JR八高線","x":139.33594,"y":35.745811,"postal":"1970011","prev":"拝島","next":"箱根ヶ崎"}]}}
東秋留,{"response":{"station":[{"name":"東秋留","prefecture":"東京都","line":"JR五日市線","x":139.311665,"y":35.725904,"postal":"1970823","prev":"熊川","next":"秋川"}]}}
東銀座,{"response":{"station":[{"name":"東銀座","prefecture":"東京都","line":"東京メトロ日比谷線","x":139.767253,"y":35.669464,"postal":"1040061","prev":"築地","next":"銀座"},{"name":"東銀座","prefecture":"東京都","line":"都営浅草線","x":139.767253,"y":35.669464,"postal":"1040061","prev":"新橋","next":"宝町"}]}}
東長崎,{"response":{"station":[{"name":"東長崎","prefecture":"東京都","line":"西武池袋線","x":139.683294,"y":35.73003,"postal":"1710051","prev":"椎名町","next":"江古田"}]}}
東陽町,{"response":{"station":[{"name":"東陽町","prefecture":"東京都","line":"東京メトロ東西線","x":139.817596,"y":35.669629,"postal":"1350016","prev":"木場","next":"南砂町"}]}}
東青梅,{"response":{"station":[{"name":"東青梅","prefecture":"東京都","line":"JR青梅線","x":139.272841,"y":35.789768,"postal":"1980042","prev":"河辺","next":"青梅"}]}}
松が谷,{"response":{"station":[{"name":"松が谷","prefecture":"東京都","line":"多摩モノレール","x":139.422201,"y":35.63169,"postal":"1920354","prev":"大塚・帝京大学","next":"多摩センター"}]}}
桜上水,{"response":{"station":[{"name":"桜上水","prefecture":"東京都","line":"京王線","x":139.63129,"y":35.66768,"postal":"1560045","prev":"下高井戸","next":"上北沢"}]}}
桜新町,{"response":{"station":[{"name":"桜新町","prefecture":"東京都","line":"東急田園都市線","x":139.644779,"y":35.631666,"postal":"1540015","prev":"駒沢大学","next":"用賀"}]}}
桜田門,{"response":{"station":[{"name":"桜田門","prefecture":"東京都","line":"東京メトロ有楽町線","x":139.75149,"y":35.677405,"postal":"1000013","prev":"永田町","next":"有楽町"}]}}
桜街道,{"response":{"station":[{"name":"桜街道","prefecture":"東京都","line":"多摩モノレール","x":139.416653,"y":35.739,"postal":"2070021","prev":"上北台","next":"玉川上水"}]}}
梅ヶ丘,{"response":{"station":[{"name":"梅ヶ丘","prefecture":"東京都","line":"小田急小田原線","x":139.653628,"y":35.656024,"postal":"1540022","prev":"世田谷代田","next":"豪徳寺"}]}}
梅屋敷,{"response":{"station":[{"name":"梅屋敷","prefecture":"東京都","line":"京浜急行本線","x":139.728266,"y":35.566873,"postal":"1440052","prev":"大森町","next":"京急蒲田"},{"name":"梅屋敷","prefecture":"奈良県","line":"近鉄生駒ケーブル線","x":135.686967,"y":34.683299,"postal":"6300266","prev":"宝山寺","next":"霞ヶ丘"}]}}
椎名町,{"response":{"station":[{"name":"椎名町","prefecture":"東京都","line":"西武池袋線","x":139.694363,"y":35.726572,"postal":"1710052","prev":"池袋","next":"東長崎"}]}}
武蔵境,{"response":{"station":[{"name":"武蔵境","prefecture":"東京都","line":"JR中央線","x":139.543402,"y":35.702083,"postal":"1800023","prev":"三鷹","next":"東小金井"},{"name":"武蔵境","prefecture":"東京都","line":"西武多摩川線","x":139.543402,"y":35.702083,"postal":"1800023","prev":null,"next":"新小金井"}]}}
武蔵関,{"response":{"station":[{"name":"武蔵関","prefecture":"東京都","line":"西武新宿線","x":139.576417,"y":35.7276,"postal":"1770051","prev":"上石神井","next":"東伏見"}]}}
水道橋,{"response":{"station":[{"name":"水道橋","prefecture":"東京都","line":"JR中央線","x":139.754312,"y":35.702039,"postal":"1010061","prev":"御茶ノ水","next":"飯田橋"},{"name":"水道橋","prefecture":"東京都","line":"JR総武線","x":139.754312,"y":35.702039,"postal":"1010061","prev":"飯田橋","next":"御茶ノ水"},{"name":"水道橋","prefecture":"東京都","line":"都営三田線","x":139.75516,"y":35.703398,"postal":"1130033","prev":"神保町","next":"春日"}]}}
氷川台,{"response":{"station":[{"name":"氷川台","prefecture":"東京都","line":"東京メトロ有楽町線","x":139.665567,"y":35.74955,"postal":"1790084","prev":"平和台","next":"小竹向原"},{"name":"氷川台","prefecture":"東京都","line":"東京メトロ副都心線","x":139.665567,"y":35.74955,"postal":"1790084","prev":"平和台","next":"小竹向原"}]}}
永田町,{"response":{"station":[{"name":"永田町","prefecture":"東京都","line":"東京メトロ半蔵門線","x":139.740258,"y":35.678757,"postal":"1000014","prev":"青山一丁目","next":"半蔵門"},{"name":"永田町","prefecture":"東京都","line":"東京メトロ南北線","x":139.740258,"y":35.678757,"postal":"1000014","prev":"溜池山王","next":"四ツ谷"},{"name":"永田町","prefecture":"東京都","line":"東京メトロ有楽町線","x":139.740258,"y":35.678757,"postal":"1000014","prev":"麹町","next":"桜田門"}]}}
永福町,{"response":{"station":[{"name":"永福町","prefecture":"東京都","line":"京王井の頭線","x":139.642733,"y":35.67629,"postal":"1680064","prev":"明大前","next":"西永福"}]}}
江古田,{"response":{"station":[{"name":"江古田","prefecture":"東京都","line":"西武池袋線","x":139.672814,"y":35.737557,"postal":"1760005","prev":"東長崎","next":"桜台"}]}}
江戸川,{"response":{"station":[{"name":"江戸川","prefecture":"東京都","line":"京成本線","x":139.896226,"y":35.737723,"postal":"1330051","prev":"京成小岩","next":"国府台"}]}}
池ノ上,{"response":{"station":[{"name":"池ノ上","prefecture":"東京都","line":"京王井の頭線","x":139.67344,"y":35.660402,"postal":"1550032","prev":"駒場東大前","next":"下北沢"}]}}
泉岳寺,{"response":{"station":[{"name":"泉岳寺","prefecture":"東京都","line":"京浜急行本線","x":139.74002,"y":35.638692,"postal":"1080074","prev":null,"next":"品川"},{"name":"泉岳寺","prefecture":"東京都","line":"都営浅草線","x":139.74002,"y":35.638692,"postal":"1080074","prev":"高輪台","next":"三田"}]}}
洗足池,{"response":{"station":[{"name":"洗足池","prefecture":"東京都","line":"東急池上線","x":139.690896,"y":35.599648,"postal":"1450065","prev":"長原","next":"石川台"}]}}
浅草橋,{"response":{"station":[{"name":"浅草橋","prefecture":"東京都","line":"JR総武線","x":139.784427,"y":35.697403,"postal":"1110053","prev":"秋葉原","next":"両国"},{"name":"浅草橋","prefecture":"東京都","line":"都営浅草線","x":139.786305,"y":35.697451,"postal":"1110052","prev":"東日本橋","next":"蔵前"}]}}
浜松町,{"response":{"station":[{"name":"浜松町","prefecture":"東京都","line":"JR京浜東北線","x":139.757135,"y":35.655391,"postal":"1050022","prev":"新橋","next":"田町"},{"name":"浜松町","prefecture":"東京都","line":"JR山手線","x":139.757135,"y":35.655391,"postal":"1050022","prev":"新橋","next":"田町"}]}}
浜田山,{"response":{"station":[{"name":"浜田山","prefecture":"東京都","line":"京王井の頭線","x":139.627528,"y":35.681603,"postal":"1680065","prev":"西永福","next":"高井戸"}]}}
淡路町,{"response":{"station":[{"name":"淡路町","prefecture":"東京都","line":"東京メトロ丸ノ内線","x":139.767575,"y":35.695434,"postal":"1010041","prev":"御茶ノ水","next":"大手町"}]}}
熊野前,{"response":{"station":[{"name":"熊野前","prefecture":"東京都","line":"都電荒川線","x":139.769204,"y":35.749212,"postal":"1160012","prev":"東尾久三丁目","next":"宮ノ前"},{"name":"熊野前","prefecture":"東京都","line":"日暮里・舎人ライナー","x":139.769695,"y":35.748972,"postal":"1160012","prev":"赤土小学校前","next":"足立小台"}]}}
田原町,{"response":{"station":[{"name":"田原町","prefecture":"福井県","line":"えちぜん鉄道三国芦原線","x":136.21738,"y":36.074888,"postal":"9100017","prev":"西別院","next":"福大前西福井"},{"name":"田原町","prefecture":"東京都","line":"東京メトロ銀座線","x":139.790897,"y":35.709897,"postal":"1110035","prev":"稲荷町","next":"浅草"},{"name":"田原町","prefecture":"福井県","line":"福井鉄道福武線","x":136.21738,"y":36.074888,"postal":"9100018","prev":"仁愛女子高校","next":null}]}}
白糸台,{"response":{"station":[{"name":"白糸台","prefecture":"東京都","line":"西武多摩川線","x":139.509862,"y":35.666517,"postal":"1830011","prev":"多磨","next":"競艇場前"}]}}
白金台,{"response":{"station":[{"name":"白金台","prefecture":"東京都","line":"東京メトロ南北線","x":139.726133,"y":35.637917,"postal":"1080071","prev":"目黒","next":"白金高輪"},{"name":"白金台","prefecture":"東京都","line":"都営三田線","x":139.726133,"y":35.637917,"postal":"1080071","prev":"目黒","next":"白金高輪"}]}}
百草園,{"response":{"station":[{"name":"百草園","prefecture":"東京都","line":"京王線","x":139.431285,"y":35.657362,"postal":"1910033","prev":"聖蹟桜ヶ丘","next":"高幡不動"}]}}
矢口渡,{"response":{"station":[{"name":"矢口渡","prefecture":"東京都","line":"東急多摩川線","x":139.700389,"y":35.562462,"postal":"1460095","prev":"武蔵新田","next":"蒲田"}]}}
矢野口,{"response":{"station":[{"name":"矢野口","prefecture":"東京都","line":"JR南武線","x":139.520849,"y":35.641305,"postal":"2060812","prev":"稲田堤","next":"稲城長沼"}]}}
石川台,{"response":{"station":[{"name":"石川台","prefecture":"東京都","line":"東急池上線","x":139.685063,"y":35.596888,"postal":"1450065","prev":"洗足池","next":"雪が谷大塚"}]}}
石神前,{"response":{"station":[{"name":"石神前","prefecture":"東京都","line":"JR青梅線","x":139.225096,"y":35.79683,"postal":"1980171","prev":"日向和田","next":"二俣尾"}]}}
祐天寺,{"response":{"station":[{"name":"祐天寺","prefecture":"東京都","line":"東急東横線","x":139.690758,"y":35.637163,"postal":"1530053","prev":"中目黒","next":"学芸大学"}]}}
神保町,{"response":{"station":[{"name":"神保町","prefecture":"東京都","line":"東京メトロ半蔵門線","x":139.757606,"y":35.695966,"postal":"1010051","prev":"九段下","next":"大手町"},{"name":"神保町","prefecture":"東京都","line":"都営三田線","x":139.75812,"y":35.695492,"postal":"1010051","prev":"大手町","next":"水道橋"},{"name":"神保町","prefecture":"東京都","line":"都営新宿線","x":139.757606,"y":35.695966,"postal":"1010051","prev":"九段下","next":"小川町"}]}}
神楽坂,{"response":{"station":[{"name":"神楽坂","prefecture":"東京都","line":"東京メトロ東西線","x":139.734546,"y":35.70379,"postal":"1620805","prev":"早稲田","next":"飯田橋"}]}}
神谷町,{"response":{"station":[{"name":"神谷町","prefecture":"東京都","line":"東京メトロ日比谷線","x":139.745069,"y":35.662978,"postal":"1050001","prev":"虎ノ門ヒルズ","next":"六本木"}]}}
秋葉原,{"response":{"station":[{"name":"秋葉原","prefecture":"東京都","line":"JR京浜東北線","x":139.773288,"y":35.698619,"postal":"1010028","prev":"御徒町","next":"神田"},{"name":"秋葉原","prefecture":"東京都","line":"JR山手線","x":139.773288,"y":35.698619,"postal":"1010028","prev":"御徒町","next":"神田"},{"name":"秋葉原","prefecture":"東京都","line":"JR総武線","x":139.773288,"y":35.698619,"postal":"1010028","prev":"御茶ノ水","next":"浅草橋"},{"name":"秋葉原","prefecture":"東京都","line":"つくばエクスプレス線","x":139.774273,"y":35.698889,"postal":"1010028","prev":null,"next":"新御徒町"},{"name":"秋葉原","prefecture":"東京都","line":"東京メトロ日比谷線","x":139.775459,"y":35.698162,"postal":"1010027","prev":"仲御徒町","next":"小伝馬町"}]}}
程久保,{"response":{"station":[{"name":"程久保","prefecture":"東京都","line":"多摩モノレール","x":139.410698,"y":35.655093,"postal":"1910042","prev":"高幡不動","next":"多摩動物公園"}]}}
稲荷町,{"response":{"station":[{"name":"稲荷町","prefecture":"富山県","line":"富山地方鉄道不二越線","x":137.231247,"y":36.696597,"postal":"9300012","prev":null,"next":"栄町"},{"name":"稲荷町","prefecture":"富山県","line":"富山地方鉄道本線","x":137.231247,"y":36.696597,"postal":"9300012","prev":"電鉄富山","next":"新庄田中"},{"name":"稲荷町","prefecture":"広島県","line":"広島電鉄本線","x":132.471728,"y":34.392569,"postal":"7320827","prev":"的場町","next":"銀山町"},{"name":"稲荷町","prefecture":"東京都","line":"東京メトロ銀座線","x":139.782593,"y":35.711273,"postal":"1100015","prev":"上野","next":"田原町"}]}}
立会川,{"response":{"station":[{"name":"立会川","prefecture":"東京都","line":"京浜急行本線","x":139.738886,"y":35.598489,"postal":"1400011","prev":"鮫洲","next":"大森海岸"}]}}
立川北,{"response":{"station":[{"name":"立川北","prefecture":"東京都","line":"多摩モノレール","x":139.41254,"y":35.699502,"postal":"1900012","prev":"高松","next":"立川南"}]}}
立川南,{"response":{"station":[{"name":"立川南","prefecture":"東京都","line":"多摩モノレール","x":139.412546,"y":35.696077,"postal":"1900023","prev":"立川北","next":"柴崎体育館"}]}}
竹ノ塚,{"response":{"station":[{"name":"竹ノ塚","prefecture":"東京都","line":"東武伊勢崎線","x":139.790788,"y":35.794367,"postal":"1210822","prev":"西新井","next":"谷塚"}]}}
等々力,{"response":{"station":[{"name":"等々力","prefecture":"東京都","line":"東急大井町線","x":139.647938,"y":35.608369,"postal":"1580082","prev":"尾山台","next":"上野毛"}]}}
緑が丘,{"response":{"station":[{"name":"緑が丘","prefecture":"北海道","line":"JR富良野線","x":142.365701,"y":43.731074,"postal":"0788323","prev":"神楽岡","next":"西御料"},{"name":"緑が丘","prefecture":"東京都","line":"東急大井町線","x":139.679482,"y":35.60638,"postal":"1520034","prev":"大岡山","next":"自由が丘"},{"name":"緑が丘","prefecture":"兵庫県","line":"神戸電鉄粟生線","x":135.02571,"y":34.765108,"postal":"6730534","prev":"押部谷","next":"広野ゴルフ場前"}]}}
芝公園,{"response":{"station":[{"name":"芝公園","prefecture":"東京都","line":"都営三田線","x":139.749824,"y":35.654074,"postal":"1050011","prev":"三田","next":"御成門"}]}}
茅場町,{"response":{"station":[{"name":"茅場町","prefecture":"東京都","line":"東京メトロ日比谷線","x":139.780005,"y":35.679752,"postal":"1030025","prev":"人形町","next":"八丁堀"},{"name":"茅場町","prefecture":"東京都","line":"東京メトロ東西線","x":139.780005,"y":35.679752,"postal":"1030025","prev":"日本橋","next":"門前仲町"}]}}
茗荷谷,{"response":{"station":[{"name":"茗荷谷","prefecture":"東京都","line":"東京メトロ丸ノ内線","x":139.737184,"y":35.716989,"postal":"1120006","prev":"新大塚","next":"後楽園"}]}}
荏原町,{"response":{"station":[{"name":"荏原町","prefecture":"東京都","line":"東急大井町線","x":139.707571,"y":35.60382,"postal":"1420053","prev":"中延","next":"旗の台"}]}}
虎ノ門,{"response":{"station":[{"name":"虎ノ門","prefecture":"東京都","line":"東京メトロ銀座線","x":139.749832,"y":35.670236,"postal":"1050001","prev":"溜池山王","next":"新橋"}]}}
表参道,{"response":{"station":[{"name":"表参道","prefecture":"東京都","line":"東京メトロ千代田線","x":139.712314,"y":35.665247,"postal":"1070061","prev":"乃木坂","next":"明治神宮前"},{"name":"表参道","prefecture":"東京都","line":"東京メトロ半蔵門線","x":139.712314,"y":35.665247,"postal":"1070062","prev":"渋谷","next":"青山一丁目"},{"name":"表参道","prefecture":"東京都","line":"東京メトロ銀座線","x":139.712314,"y":35.665247,"postal":"1070062","prev":"渋谷","next":"外苑前"}]}}
西ケ原,{"response":{"station":[{"name":"西ケ原","prefecture":"東京都","line":"東京メトロ南北線","x":139.742322,"y":35.746008,"postal":"1140024","prev":"駒込","next":"王子"}]}}
西国立,{"response":{"station":[{"name":"西国立","prefecture":"東京都","line":"JR南武線","x":139.423887,"y":35.69375,"postal":"1900022","prev":"矢川","next":"立川"}]}}
西大井,{"response":{"station":[{"name":"西大井","prefecture":"東京都","line":"JR横須賀線","x":139.721729,"y":35.601616,"postal":"1420043","prev":"品川","next":"武蔵小杉"},{"name":"西大井","prefecture":"東京都","line":"JR湘南新宿ライン","x":139.721729,"y":35.601616,"postal":"1420043","prev":"大崎","next":"武蔵小杉"},{"name":"西大井","prefecture":"東京都","line":"相鉄・JR直通線","x":139.721729,"y":35.601616,"postal":"1420043","prev":"大崎","next":"武蔵小杉"}]}}
西大島,{"response":{"station":[{"name":"西大島","prefecture":"東京都","line":"都営新宿線","x":139.826206,"y":35.689349,"postal":"1360072","prev":"住吉","next":"大島"}]}}
西小山,{"response":{"station":[{"name":"西小山","prefecture":"東京都","line":"東急目黒線","x":139.698694,"y":35.615455,"postal":"1420062","prev":"武蔵小山","next":"洗足"}]}}
西巣鴨,{"response":{"station":[{"name":"西巣鴨","prefecture":"東京都","line":"都営三田線","x":139.728712,"y":35.743508,"postal":"1700001","prev":"巣鴨","next":"新板橋"}]}}
西新井,{"response":{"station":[{"name":"西新井","prefecture":"東京都","line":"東武伊勢崎線","x":139.790372,"y":35.777323,"postal":"1230843","prev":"梅島","next":"竹ノ塚"},{"name":"西新井","prefecture":"東京都","line":"東武大師線","x":139.790372,"y":35.777323,"postal":"1230843","prev":null,"next":"大師前"}]}}
西新宿,{"response":{"station":[{"name":"西新宿","prefecture":"東京都","line":"東京メトロ丸ノ内線","x":139.692778,"y":35.694298,"postal":"1600023","prev":"新宿","next":"中野坂上"}]}}
西武園,{"response":{"station":[{"name":"西武園","prefecture":"東京都","line":"西武西武園線","x":139.448904,"y":35.767684,"postal":"1890026","prev":"東村山","next":null}]}}
西永福,{"response":{"station":[{"name":"西永福","prefecture":"東京都","line":"京王井の頭線","x":139.634936,"y":35.678918,"postal":"1680064","prev":"永福町","next":"浜田山"}]}}
西立川,{"response":{"station":[{"name":"西立川","prefecture":"東京都","line":"JR青梅線","x":139.393556,"y":35.703526,"postal":"1960032","prev":"立川","next":"東中神"}]}}
西荻窪,{"response":{"station":[{"name":"西荻窪","prefecture":"東京都","line":"JR中央線","x":139.599361,"y":35.703842,"postal":"1670042","prev":"荻窪","next":"吉祥寺"},{"name":"西荻窪","prefecture":"東京都","line":"JR総武線","x":139.599361,"y":35.703842,"postal":"1670042","prev":"吉祥寺","next":"荻窪"}]}}
西葛西,{"response":{"station":[{"name":"西葛西","prefecture":"東京都","line":"東京メトロ東西線","x":139.859259,"y":35.664631,"postal":"1340088","prev":"南砂町","next":"葛西"}]}}
西調布,{"response":{"station":[{"name":"西調布","prefecture":"東京都","line":"京王線","x":139.529822,"y":35.657169,"postal":"1820035","prev":"調布","next":"飛田給"}]}}
西馬込,{"response":{"station":[{"name":"西馬込","prefecture":"東京都","line":"都営浅草線","x":139.705942,"y":35.586859,"postal":"1430025","prev":null,"next":"馬込"}]}}
護国寺,{"response":{"station":[{"name":"護国寺","prefecture":"東京都","line":"東京メトロ有楽町線","x":139.72754,"y":35.719044,"postal":"1120013","prev":"東池袋","next":"江戸川橋"}]}}
谷在家,{"response":{"station":[{"name":"谷在家","prefecture":"東京都","line":"日暮里・舎人ライナー","x":139.770043,"y":35.788774,"postal":"1230863","prev":"西新井大師西","next":"舎人公園"}]}}
豊島園,{"response":{"station":[{"name":"豊島園","prefecture":"東京都","line":"西武豊島線","x":139.647979,"y":35.742054,"postal":"1760001","prev":"練馬","next":null},{"name":"豊島園","prefecture":"東京都","line":"都営大江戸線","x":139.64911,"y":35.742067,"postal":"1760001","prev":"練馬","next":"練馬春日町"}]}}
豪徳寺,{"response":{"station":[{"name":"豪徳寺","prefecture":"東京都","line":"小田急小田原線","x":139.647381,"y":35.653807,"postal":"1540021","prev":"梅ヶ丘","next":"経堂"}]}}
赤羽橋,{"response":{"station":[{"name":"赤羽橋","prefecture":"東京都","line":"都営大江戸線","x":139.743642,"y":35.655007,"postal":"1060044","prev":"大門","next":"麻布十番"}]}}
越中島,{"response":{"station":[{"name":"越中島","prefecture":"東京都","line":"JR京葉線","x":139.792713,"y":35.667946,"postal":"1350044","prev":"八丁堀","next":"潮見"}]}}
都庁前,{"response":{"station":[{"name":"都庁前","prefecture":"東京都","line":"都営大江戸線","x":139.69257,"y":35.690551,"postal":"1600023","prev":"新宿","next":"西新宿五丁目"}]}}
錦糸町,{"response":{"station":[{"name":"錦糸町","prefecture":"東京都","line":"JR総武線","x":139.814136,"y":35.696802,"postal":"1300013","prev":"両国","next":"亀戸"},{"name":"錦糸町","prefecture":"東京都","line":"JR総武線快速","x":139.814136,"y":35.696802,"postal":"1300013","prev":"馬喰町","next":"新小岩"},{"name":"錦糸町","prefecture":"東京都","line":"東京メトロ半蔵門線","x":139.814941,"y":35.697578,"postal":"1300013","prev":"住吉","next":"押上"}]}}
鐘ヶ淵,{"response":{"station":[{"name":"鐘ヶ淵","prefecture":"東京都","line":"東武伊勢崎線","x":139.820344,"y":35.733712,"postal":"1310031","prev":"東向島","next":"堀切"}]}}
霞ケ関,{"response":{"station":[{"name":"霞ケ関","prefecture":"東京都","line":"東京メトロ丸ノ内線","x":139.750899,"y":35.673838,"postal":"1000013","prev":"銀座","next":"国会議事堂前"},{"name":"霞ケ関","prefecture":"東京都","line":"東京メトロ千代田線","x":139.750899,"y":35.673838,"postal":"1000013","prev":"日比谷","next":"国会議事堂前"},{"name":"霞ケ関","prefecture":"東京都","line":"東京メトロ日比谷線","x":139.750899,"y":35.673838,"postal":"1000013","prev":"日比谷","next":"虎ノ門ヒルズ"}]}}
面影橋,{"response":{"station":[{"name":"面影橋","prefecture":"東京都","line":"都電荒川線","x":139.714444,"y":35.712981,"postal":"1690051","prev":"学習院下","next":"早稲田"}]}}
飛田給,{"response":{"station":[{"name":"飛田給","prefecture":"東京都","line":"京王線","x":139.523666,"y":35.660121,"postal":"1820036","prev":"西調布","next":"武蔵野台"}]}}
飛鳥山,{"response":{"station":[{"name":"飛鳥山","prefecture":"東京都","line":"都電荒川線","x":139.737382,"y":35.750248,"postal":"1140023","prev":"王子駅前","next":"滝野川一丁目"}]}}
飯田橋,{"response":{"station":[{"name":"飯田橋","prefecture":"東京都","line":"JR中央線","x":139.745143,"y":35.701835,"postal":"1020072","prev":"水道橋","next":"市ケ谷"},{"name":"飯田橋","prefecture":"東京都","line":"JR総武線","x":139.745143,"y":35.701835,"postal":"1020072","prev":"市ヶ谷","next":"水道橋"},{"name":"飯田橋","prefecture":"東京都","line":"東京メトロ南北線","x":139.743669,"y":35.701934,"postal":"1620824","prev":"市ケ谷","next":"後楽園"},{"name":"飯田橋","prefecture":"東京都","line":"東京メトロ有楽町線","x":139.743669,"y":35.701934,"postal":"1620824","prev":"江戸川橋","next":"市ヶ谷"},{"name":"飯田橋","prefecture":"東京都","line":"東京メトロ東西線","x":139.745986,"y":35.701725,"postal":"1020072","prev":"神楽坂","next":"九段下"},{"name":"飯田橋","prefecture":"東京都","line":"都営大江戸線","x":139.744999,"y":35.702927,"postal":"1120004","prev":"牛込神楽坂","next":"春日"}]}}
馬喰町,{"response":{"station":[{"name":"馬喰町","prefecture":"東京都","line":"JR総武線快速","x":139.78238,"y":35.693365,"postal":"1030002","prev":"新日本橋","next":"錦糸町"}]}}
高井戸,{"response":{"station":[{"name":"高井戸","prefecture":"東京都","line":"京王井の頭線","x":139.615115,"y":35.683253,"postal":"1680071","prev":"浜田山","next":"富士見ヶ丘"}]}}
高円寺,{"response":{"station":[{"name":"高円寺","prefecture":"東京都","line":"JR中央線","x":139.649664,"y":35.705327,"postal":"1660003","prev":"中野","next":"阿佐ケ谷"},{"name":"高円寺","prefecture":"東京都","line":"JR総武線","x":139.649664,"y":35.705327,"postal":"1660003","prev":"阿佐ケ谷","next":"中野"}]}}
高島平,{"response":{"station":[{"name":"高島平","prefecture":"東京都","line":"都営三田線","x":139.661216,"y":35.789056,"postal":"1750082","prev":"西台","next":"新高島平"}]}}
高輪台,{"response":{"station":[{"name":"高輪台","prefecture":"東京都","line":"都営浅草線","x":139.730305,"y":35.631679,"postal":"1080071","prev":"五反田","next":"泉岳寺"}]}}
鳩ノ巣,{"response":{"station":[{"name":"鳩ノ巣","prefecture":"東京都","line":"JR青梅線","x":139.128932,"y":35.815127,"postal":"1980106","prev":"古里","next":"白丸"}]}}
鵜の木,{"response":{"station":[{"name":"鵜の木","prefecture":"東京都","line":"東急多摩川線","x":139.680554,"y":35.575452,"postal":"1460091","prev":"沼部","next":"下丸子"}]}}
鷹の台,{"response":{"station":[{"name":"鷹の台","prefecture":"東京都","line":"西武国分寺線","x":139.461155,"y":35.723097,"postal":"1870025","prev":"恋ヶ窪","next":"小川"}]}}
鷺ノ宮,{"response":{"station":[{"name":"鷺ノ宮","prefecture":"東京都","line":"西武新宿線","x":139.63892,"y":35.722605,"postal":"1650032","prev":"都立家政","next":"下井草"}]}}
お花茶屋,{"response":{"station":[{"name":"お花茶屋","prefecture":"東京都","line":"京成本線","x":139.83988,"y":35.747585,"postal":"1240005","prev":"堀切菖蒲園","next":"青砥"}]}}
つくし野,{"response":{"station":[{"name":"つくし野","prefecture":"東京都","line":"東急田園都市線","x":139.485139,"y":35.527559,"postal":"1940001","prev":"長津田","next":"すずかけ台"}]}}
ときわ台,{"response":{"station":[{"name":"ときわ台","prefecture":"東京都","line":"東武東上本線","x":139.689015,"y":35.758771,"postal":"1740071","prev":"中板橋","next":"上板橋"},{"name":"ときわ台","prefecture":"大阪府","line":"能勢電鉄妙見線","x":135.438195,"y":34.906134,"postal":"5630102","prev":"光風台","next":"妙見口"}]}}
めじろ台,{"response":{"station":[{"name":"めじろ台","prefecture":"東京都","line":"京王高尾線","x":139.308446,"y":35.643601,"postal":"1930833","prev":"山田","next":"狭間"}]}}
一橋学園,{"response":{"station":[{"name":"一橋学園","prefecture":"東京都","line":"西武多摩湖線","x":139.480039,"y":35.72217,"postal":"1870045","prev":"国分寺","next":"青梅街道"}]}}
三ノ輪橋,{"response":{"station":[{"name":"三ノ輪橋","prefecture":"東京都","line":"都電荒川線","x":139.791412,"y":35.732248,"postal":"1160003","prev":null,"next":"荒川一中前"}]}}
三軒茶屋,{"response":{"station":[{"name":"三軒茶屋","prefecture":"東京都","line":"東急世田谷線","x":139.670156,"y":35.643716,"postal":"1540004","prev":null,"next":"西太子堂"},{"name":"三軒茶屋","prefecture":"東京都","line":"東急田園都市線","x":139.670156,"y":35.643716,"postal":"1540024","prev":"池尻大橋","next":"駒沢大学"}]}}
上石神井,{"response":{"station":[{"name":"上石神井","prefecture":"東京都","line":"西武新宿線","x":139.592266,"y":35.726189,"postal":"1770044","prev":"上井草","next":"武蔵関"}]}}
下高井戸,{"response":{"station":[{"name":"下高井戸","prefecture":"東京都","line":"京王線","x":139.641372,"y":35.66615,"postal":"1560043","prev":"明大前","next":"桜上水"},{"name":"下高井戸","prefecture":"東京都","line":"東急世田谷線","x":139.641372,"y":35.66615,"postal":"1560044","prev":"松原","next":null}]}}
中野坂上,{"response":{"station":[{"name":"中野坂上","prefecture":"東京都","line":"東京メトロ丸ノ内分岐線","x":139.68291,"y":35.69792,"postal":"1640011","prev":null,"next":"中野新橋"},{"name":"中野坂上","prefecture":"東京都","line":"東京メトロ丸ノ内線","x":139.68291,"y":35.69792,"postal":"1640011","prev":"西新宿","next":"新中野"},{"name":"中野坂上","prefecture":"東京都","line":"都営大江戸線","x":139.682279,"y":35.69709,"postal":"1640011","prev":"西新宿五丁目","next":"東中野"}]}}
中野新橋,{"response":{"station":[{"name":"中野新橋","prefecture":"東京都","line":"東京メトロ丸ノ内分岐線","x":139.673997,"y":35.692123,"postal":"1640013","prev":"中野坂上","next":"中野富士見町"}]}}
亀戸水神,{"response":{"station":[{"name":"亀戸水神","prefecture":"東京都","line":"東武亀戸線","x":139.833422,"y":35.699976,"postal":"1360071","prev":"亀戸","next":"東あずま"}]}}
二子玉川,{"response":{"station":[{"name":"二子玉川","prefecture":"東京都","line":"東急大井町線","x":139.626685,"y":35.611788,"postal":"1580094","prev":"上野毛","next":null},{"name":"二子玉川","prefecture":"東京都","line":"東急田園都市線","x":139.626685,"y":35.611788,"postal":"1580094","prev":"用賀","next":"二子新地"}]}}
二重橋前,{"response":{"station":[{"name":"二重橋前","prefecture":"東京都","line":"東京メトロ千代田線","x":139.761948,"y":35.681071,"postal":"1000005","prev":"大手町","next":"日比谷"}]}}
京急蒲田,{"response":{"station":[{"name":"京急蒲田","prefecture":"東京都","line":"京浜急行本線","x":139.723681,"y":35.560796,"postal":"1440052","prev":"梅屋敷","next":"雑色"},{"name":"京急蒲田","prefecture":"東京都","line":"京浜急行空港線","x":139.723681,"y":35.560796,"postal":"1440052","prev":null,"next":"糀谷"}]}}
京成上野,{"response":{"station":[{"name":"京成上野","prefecture":"東京都","line":"京成本線","x":139.773571,"y":35.711232,"postal":"1100007","prev":null,"next":"日暮里"}]}}
京成小岩,{"response":{"station":[{"name":"京成小岩","prefecture":"東京都","line":"京成本線","x":139.88371,"y":35.742158,"postal":"1330051","prev":"京成高砂","next":"江戸川"}]}}
京成曳舟,{"response":{"station":[{"name":"京成曳舟","prefecture":"東京都","line":"京成押上線","x":139.820012,"y":35.718441,"postal":"1310046","prev":"押上","next":"八広"}]}}
京成立石,{"response":{"station":[{"name":"京成立石","prefecture":"東京都","line":"京成押上線","x":139.848558,"y":35.738281,"postal":"1240012","prev":"四ツ木","next":"青砥"}]}}
京成金町,{"response":{"station":[{"name":"京成金町","prefecture":"東京都","line":"京成金町線","x":139.870387,"y":35.768471,"postal":"1250042","prev":"柴又","next":null}]}}
京成関屋,{"response":{"station":[{"name":"京成関屋","prefecture":"東京都","line":"京成本線","x":139.81183,"y":35.744008,"postal":"1200023","prev":"千住大橋","next":"堀切菖蒲園"}]}}
京成高砂,{"response":{"station":[{"name":"京成高砂","prefecture":"東京都","line":"京成押上線","x":139.866875,"y":35.750932,"postal":"1250054","prev":"青砥","next":null},{"name":"京成高砂","prefecture":"東京都","line":"京成本線","x":139.866875,"y":35.750932,"postal":"1250054","prev":"青砥","next":"京成小岩"},{"name":"京成高砂","prefecture":"東京都","line":"京成金町線","x":139.866875,"y":35.750932,"postal":"1250054","prev":null,"next":"柴又"},{"name":"京成高砂","prefecture":"東京都","line":"京成成田空港線","x":139.866875,"y":35.750932,"postal":"1250054","prev":null,"next":"東松戸"},{"name":"京成高砂","prefecture":"東京都","line":"北総鉄道","x":139.866875,"y":35.750932,"postal":"1250054","prev":null,"next":"新柴又"}]}}
京王永山,{"response":{"station":[{"name":"京王永山","prefecture":"東京都","line":"京王相模原線","x":139.448204,"y":35.630102,"postal":"2060025","prev":"若葉台","next":"京王多摩センター"}]}}
京王片倉,{"response":{"station":[{"name":"京王片倉","prefecture":"東京都","line":"京王高尾線","x":139.337035,"y":35.644343,"postal":"1920914","prev":"北野","next":"山田"}]}}
仲御徒町,{"response":{"station":[{"name":"仲御徒町","prefecture":"東京都","line":"東京メトロ日比谷線","x":139.776138,"y":35.706649,"postal":"1100016","prev":"上野","next":"秋葉原"}]}}
六郷土手,{"response":{"station":[{"name":"六郷土手","prefecture":"東京都","line":"京浜急行本線","x":139.7076,"y":35.540577,"postal":"1440055","prev":"雑色","next":"京急川崎"}]}}
分倍河原,{"response":{"station":[{"name":"分倍河原","prefecture":"東京都","line":"JR南武線","x":139.468798,"y":35.668493,"postal":"1830021","prev":"府中本町","next":"西府"},{"name":"分倍河原","prefecture":"東京都","line":"京王線","x":139.468798,"y":35.668493,"postal":"1830021","prev":"府中","next":"中河原"}]}}
北八王子,{"response":{"station":[{"name":"北八王子","prefecture":"東京都","line":"JR八高線","x":139.363348,"y":35.669232,"postal":"1920032","prev":"八王子","next":"小宮"}]}}
千住大橋,{"response":{"station":[{"name":"千住大橋","prefecture":"東京都","line":"京成本線","x":139.796934,"y":35.74243,"postal":"1200038","prev":"町屋","next":"京成関屋"}]}}
千歳烏山,{"response":{"station":[{"name":"千歳烏山","prefecture":"東京都","line":"京王線","x":139.60067,"y":35.667921,"postal":"1570062","prev":"芦花公園","next":"仙川"}]}}
千歳船橋,{"response":{"station":[{"name":"千歳船橋","prefecture":"東京都","line":"小田急小田原線","x":139.624544,"y":35.647616,"postal":"1560052","prev":"経堂","next":"祖師ヶ谷大蔵"}]}}
千駄ケ谷,{"response":{"station":[{"name":"千駄ケ谷","prefecture":"東京都","line":"JR中央線","x":139.711644,"y":35.681231,"postal":"1510051","prev":"信濃町","next":"代々木"},{"name":"千駄ケ谷","prefecture":"東京都","line":"JR総武線","x":139.711644,"y":35.681231,"postal":"1510051","prev":"代々木","next":"信濃町"}]}}
多磨霊園,{"response":{"station":[{"name":"多磨霊園","prefecture":"東京都","line":"京王線","x":139.502615,"y":35.666197,"postal":"1830015","prev":"武蔵野台","next":"東府中"}]}}
大塚駅前,{"response":{"station":[{"name":"大塚駅前","prefecture":"東京都","line":"都電荒川線","x":139.729593,"y":35.732082,"postal":"1700004","prev":"巣鴨新田","next":"向原"}]}}
大森海岸,{"response":{"station":[{"name":"大森海岸","prefecture":"東京都","line":"京浜急行本線","x":139.73544,"y":35.587576,"postal":"1400013","prev":"立会川","next":"平和島"}]}}
大泉学園,{"response":{"station":[{"name":"大泉学園","prefecture":"東京都","line":"西武池袋線","x":139.586732,"y":35.749405,"postal":"1780063","prev":"石神井公園","next":"保谷"}]}}
学習院下,{"response":{"station":[{"name":"学習院下","prefecture":"東京都","line":"都電荒川線","x":139.71247,"y":35.716248,"postal":"1710033","prev":"鬼子母神前","next":"面影橋"}]}}
学芸大学,{"response":{"station":[{"name":"学芸大学","prefecture":"東京都","line":"東急東横線","x":139.68522,"y":35.628786,"postal":"1520004","prev":"祐天寺","next":"都立大学"}]}}
富士見台,{"response":{"station":[{"name":"富士見台","prefecture":"東京都","line":"西武池袋線","x":139.62969,"y":35.735867,"postal":"1760021","prev":"中村橋","next":"練馬高野台"}]}}
小伝馬町,{"response":{"station":[{"name":"小伝馬町","prefecture":"東京都","line":"東京メトロ日比谷線","x":139.778433,"y":35.690737,"postal":"1030001","prev":"秋葉原","next":"人形町"}]}}
小竹向原,{"response":{"station":[{"name":"小竹向原","prefecture":"東京都","line":"東京メトロ有楽町線","x":139.678572,"y":35.743803,"postal":"1760004","prev":"氷川台","next":"千川"},{"name":"小竹向原","prefecture":"東京都","line":"東京メトロ副都心線","x":139.678572,"y":35.743803,"postal":"1760004","prev":"氷川台","next":"千川"},{"name":"小竹向原","prefecture":"東京都","line":"西武有楽町線","x":139.678572,"y":35.743803,"postal":"1760004","prev":"新桜台","next":null}]}}
巣鴨新田,{"response":{"station":[{"name":"巣鴨新田","prefecture":"東京都","line":"都電荒川線","x":139.727769,"y":35.735488,"postal":"1700004","prev":"庚申塚","next":"大塚駅前"}]}}
府中本町,{"response":{"station":[{"name":"府中本町","prefecture":"東京都","line":"JR南武線","x":139.477142,"y":35.665766,"postal":"1830027","prev":"南多摩","next":"分倍河原"},{"name":"府中本町","prefecture":"東京都","line":"JR武蔵野線","x":139.477142,"y":35.665766,"postal":"1830027","prev":null,"next":"北府中"}]}}
御茶ノ水,{"response":{"station":[{"name":"御茶ノ水","prefecture":"東京都","line":"JR中央線","x":139.764955,"y":35.699604,"postal":"1010062","prev":"神田","next":"水道橋"},{"name":"御茶ノ水","prefecture":"東京都","line":"JR総武線","x":139.764955,"y":35.699604,"postal":"1010062","prev":"水道橋","next":"秋葉原"},{"name":"御茶ノ水","prefecture":"東京都","line":"東京メトロ丸ノ内線","x":139.763952,"y":35.700614,"postal":"1130034","prev":"本郷三丁目","next":"淡路町"}]}}
志村坂上,{"response":{"station":[{"name":"志村坂上","prefecture":"東京都","line":"都営三田線","x":139.69538,"y":35.775725,"postal":"1740051","prev":"本蓮沼","next":"志村三丁目"}]}}
戸越公園,{"response":{"station":[{"name":"戸越公園","prefecture":"東京都","line":"東急大井町線","x":139.718159,"y":35.608856,"postal":"1420041","prev":"下神明","next":"中延"}]}}
戸越銀座,{"response":{"station":[{"name":"戸越銀座","prefecture":"東京都","line":"東急池上線","x":139.714862,"y":35.615928,"postal":"1420051","prev":"大崎広小路","next":"荏原中延"}]}}
新三河島,{"response":{"station":[{"name":"新三河島","prefecture":"東京都","line":"京成本線","x":139.773834,"y":35.73714,"postal":"1160013","prev":"日暮里","next":"町屋"}]}}
新大久保,{"response":{"station":[{"name":"新大久保","prefecture":"東京都","line":"JR山手線","x":139.700261,"y":35.700875,"postal":"1690073","prev":"新宿","next":"高田馬場"}]}}
新宿西口,{"response":{"station":[{"name":"新宿西口","prefecture":"東京都","line":"都営大江戸線","x":139.699155,"y":35.693315,"postal":"1600023","prev":null,"next":"東新宿"}]}}
新小金井,{"response":{"station":[{"name":"新小金井","prefecture":"東京都","line":"西武多摩川線","x":139.526603,"y":35.695908,"postal":"1840011","prev":"武蔵境","next":"多磨"}]}}
新庚申塚,{"response":{"station":[{"name":"新庚申塚","prefecture":"東京都","line":"都電荒川線","x":139.730451,"y":35.741348,"postal":"1700001","prev":"西ヶ原四丁目","next":"庚申塚"}]}}
新御徒町,{"response":{"station":[{"name":"新御徒町","prefecture":"東京都","line":"つくばエクスプレス線","x":139.781958,"y":35.707045,"postal":"1110041","prev":"秋葉原","next":"浅草"},{"name":"新御徒町","prefecture":"東京都","line":"都営大江戸線","x":139.781958,"y":35.707045,"postal":"1110041","prev":"上野御徒町","next":"蔵前"}]}}
新整備場,{"response":{"station":[{"name":"新整備場","prefecture":"東京都","line":"東京モノレール羽田線","x":139.786777,"y":35.542773,"postal":"1440041","prev":"羽田空港第3ターミナル","next":"羽田空港第1ターミナル"}]}}
新日本橋,{"response":{"station":[{"name":"新日本橋","prefecture":"東京都","line":"JR総武線快速","x":139.77323,"y":35.688687,"postal":"1030023","prev":"東京","next":"馬喰町"}]}}
新江古田,{"response":{"station":[{"name":"新江古田","prefecture":"東京都","line":"都営大江戸線","x":139.670653,"y":35.732538,"postal":"1650023","prev":"落合南長崎","next":"練馬"}]}}
新線新宿,{"response":{"station":[{"name":"新線新宿","prefecture":"東京都","line":"京王新線","x":139.698812,"y":35.68869,"postal":"1600023","prev":null,"next":"初台"}]}}
新高円寺,{"response":{"station":[{"name":"新高円寺","prefecture":"東京都","line":"東京メトロ丸ノ内線","x":139.648068,"y":35.697985,"postal":"1660003","prev":"東高円寺","next":"南阿佐ヶ谷"}]}}
新高島平,{"response":{"station":[{"name":"新高島平","prefecture":"東京都","line":"都営三田線","x":139.654275,"y":35.790189,"postal":"1750082","prev":"高島平","next":"西高島平"}]}}
日向和田,{"response":{"station":[{"name":"日向和田","prefecture":"東京都","line":"JR青梅線","x":139.229515,"y":35.788665,"postal":"1980046","prev":"宮ノ平","next":"石神前"}]}}
東あずま,{"response":{"station":[{"name":"東あずま","prefecture":"東京都","line":"東武亀戸線","x":139.831883,"y":35.707067,"postal":"1310043","prev":"亀戸水神","next":"小村井"}]}}
東久留米,{"response":{"station":[{"name":"東久留米","prefecture":"東京都","line":"西武池袋線","x":139.533739,"y":35.760445,"postal":"2030014","prev":"ひばりヶ丘","next":"清瀬"}]}}
東大和市,{"response":{"station":[{"name":"東大和市","prefecture":"東京都","line":"西武拝島線","x":139.434249,"y":35.732829,"postal":"2070022","prev":"小川","next":"玉川上水"}]}}
東小金井,{"response":{"station":[{"name":"東小金井","prefecture":"東京都","line":"JR中央線","x":139.524837,"y":35.701643,"postal":"1840002","prev":"武蔵境","next":"武蔵小金井"}]}}
東日本橋,{"response":{"station":[{"name":"東日本橋","prefecture":"東京都","line":"都営浅草線","x":139.784821,"y":35.692126,"postal":"1030004","prev":"人形町","next":"浅草橋"}]}}
東武練馬,{"response":{"station":[{"name":"東武練馬","prefecture":"東京都","line":"東武東上本線","x":139.661964,"y":35.768698,"postal":"1750083","prev":"上板橋","next":"下赤塚"}]}}
東高円寺,{"response":{"station":[{"name":"東高円寺","prefecture":"東京都","line":"東京メトロ丸ノ内線","x":139.657822,"y":35.697802,"postal":"1660003","prev":"新中野","next":"新高円寺"}]}}
板橋本町,{"response":{"station":[{"name":"板橋本町","prefecture":"東京都","line":"都営三田線","x":139.705535,"y":35.761339,"postal":"1730001","prev":"板橋区役所前","next":"本蓮沼"}]}}
武蔵増戸,{"response":{"station":[{"name":"武蔵増戸","prefecture":"東京都","line":"JR五日市線","x":139.256355,"y":35.730961,"postal":"1900142","prev":"武蔵引田","next":"武蔵五日市"}]}}
武蔵大和,{"response":{"station":[{"name":"武蔵大和","prefecture":"東京都","line":"西武多摩湖線","x":139.444008,"y":35.756427,"postal":"1890025","prev":"八坂","next":"多摩湖"}]}}
武蔵小山,{"response":{"station":[{"name":"武蔵小山","prefecture":"東京都","line":"東急目黒線","x":139.704524,"y":35.620538,"postal":"1420062","prev":"不動前","next":"西小山"}]}}
武蔵引田,{"response":{"station":[{"name":"武蔵引田","prefecture":"東京都","line":"JR五日市線","x":139.269907,"y":35.729711,"postal":"1970834","prev":"秋川","next":"武蔵増戸"}]}}
武蔵新田,{"response":{"station":[{"name":"武蔵新田","prefecture":"東京都","line":"東急多摩川線","x":139.692506,"y":35.567806,"postal":"1460093","prev":"下丸子","next":"矢口渡"}]}}
武蔵砂川,{"response":{"station":[{"name":"武蔵砂川","prefecture":"東京都","line":"西武拝島線","x":139.392319,"y":35.728876,"postal":"1900032","prev":"玉川上水","next":"西武立川"}]}}
武蔵野台,{"response":{"station":[{"name":"武蔵野台","prefecture":"東京都","line":"京王線","x":139.511289,"y":35.664159,"postal":"1830011","prev":"飛田給","next":"多磨霊園"}]}}
水天宮前,{"response":{"station":[{"name":"水天宮前","prefecture":"東京都","line":"東京メトロ半蔵門線","x":139.785377,"y":35.682683,"postal":"1030014","prev":"三越前","next":"清澄白河"}]}}
江戸川橋,{"response":{"station":[{"name":"江戸川橋","prefecture":"東京都","line":"東京メトロ有楽町線","x":139.733538,"y":35.709495,"postal":"1120014","prev":"護国寺","next":"飯田橋"}]}}
池尻大橋,{"response":{"station":[{"name":"池尻大橋","prefecture":"東京都","line":"東急田園都市線","x":139.684319,"y":35.650603,"postal":"1530044","prev":"渋谷","next":"三軒茶屋"}]}}
泉体育館,{"response":{"station":[{"name":"泉体育館","prefecture":"東京都","line":"多摩モノレール","x":139.419525,"y":35.718775,"postal":"1900002","prev":"砂川七番","next":"立飛"}]}}
浮間舟渡,{"response":{"station":[{"name":"浮間舟渡","prefecture":"東京都","line":"JR埼京線","x":139.691341,"y":35.791209,"postal":"1150051","prev":"北赤羽","next":"戸田公園"}]}}
清澄白河,{"response":{"station":[{"name":"清澄白河","prefecture":"東京都","line":"東京メトロ半蔵門線","x":139.798851,"y":35.682105,"postal":"1350021","prev":"水天宮前","next":"住吉"},{"name":"清澄白河","prefecture":"東京都","line":"都営大江戸線","x":139.798851,"y":35.682105,"postal":"1350021","prev":"森下","next":"門前仲町"}]}}
溜池山王,{"response":{"station":[{"name":"溜池山王","prefecture":"東京都","line":"東京メトロ南北線","x":139.741419,"y":35.673621,"postal":"1000014","prev":"六本木一丁目","next":"永田町"},{"name":"溜池山王","prefecture":"東京都","line":"東京メトロ銀座線","x":139.741419,"y":35.673621,"postal":"1070052","prev":"赤坂見附","next":"虎ノ門"}]}}
牛込柳町,{"response":{"station":[{"name":"牛込柳町","prefecture":"東京都","line":"都営大江戸線","x":139.725027,"y":35.699518,"postal":"1620053","prev":"若松河田","next":"牛込神楽坂"}]}}
玉川上水,{"response":{"station":[{"name":"玉川上水","prefecture":"東京都","line":"多摩モノレール","x":139.417866,"y":35.73223,"postal":"2070022","prev":"桜街道","next":"砂川七番"},{"name":"玉川上水","prefecture":"東京都","line":"西武拝島線","x":139.418435,"y":35.731751,"postal":"1900002","prev":"東大和市","next":"武蔵砂川"}]}}
王子神谷,{"response":{"station":[{"name":"王子神谷","prefecture":"東京都","line":"東京メトロ南北線","x":139.735933,"y":35.765172,"postal":"1140002","prev":"王子","next":"志茂"}]}}
王子駅前,{"response":{"station":[{"name":"王子駅前","prefecture":"東京都","line":"都電荒川線","x":139.737661,"y":35.753199,"postal":"1140002","prev":"栄町","next":"飛鳥山"}]}}
田園調布,{"response":{"station":[{"name":"田園調布","prefecture":"東京都","line":"東急東横線","x":139.667356,"y":35.596815,"postal":"1450071","prev":"自由が丘","next":"多摩川"},{"name":"田園調布","prefecture":"東京都","line":"東急目黒線","x":139.667356,"y":35.596815,"postal":"1450071","prev":"奥沢","next":"多摩川"}]}}
甲州街道,{"response":{"station":[{"name":"甲州街道","prefecture":"東京都","line":"多摩モノレール","x":139.409191,"y":35.678262,"postal":"1910012","prev":"柴崎体育館","next":"万願寺"}]}}
町屋駅前,{"response":{"station":[{"name":"町屋駅前","prefecture":"東京都","line":"都電荒川線","x":139.781145,"y":35.74275,"postal":"1160002","prev":"荒川七丁目","next":"町屋二丁目"}]}}
白金高輪,{"response":{"station":[{"name":"白金高輪","prefecture":"東京都","line":"東京メトロ南北線","x":139.734104,"y":35.642903,"postal":"1080072","prev":"白金台","next":"麻布十番"},{"name":"白金高輪","prefecture":"東京都","line":"都営三田線","x":139.734104,"y":35.642903,"postal":"1080072","prev":"白金台","next":"三田"}]}}
砂川七番,{"response":{"station":[{"name":"砂川七番","prefecture":"東京都","line":"多摩モノレール","x":139.418097,"y":35.723319,"postal":"1900002","prev":"玉川上水","next":"泉体育館"}]}}
稲城長沼,{"response":{"station":[{"name":"稲城長沼","prefecture":"東京都","line":"JR南武線","x":139.502811,"y":35.644184,"postal":"2060802","prev":"矢野口","next":"南多摩"}]}}
穴守稲荷,{"response":{"station":[{"name":"穴守稲荷","prefecture":"東京都","line":"京浜急行空港線","x":139.746669,"y":35.550326,"postal":"1440043","prev":"大鳥居","next":"天空橋"}]}}
競艇場前,{"response":{"station":[{"name":"競艇場前","prefecture":"東京都","line":"西武多摩川線","x":139.499721,"y":35.656232,"postal":"1830013","prev":"白糸台","next":"是政"}]}}
箱根ヶ崎,{"response":{"station":[{"name":"箱根ヶ崎","prefecture":"東京都","line":"JR八高線","x":139.346805,"y":35.771158,"postal":"1901221","prev":"東福生","next":"金子"}]}}
築地市場,{"response":{"station":[{"name":"築地市場","prefecture":"東京都","line":"都営大江戸線","x":139.766915,"y":35.664895,"postal":"1040045","prev":"勝どき","next":"汐留"}]}}
自由が丘,{"response":{"station":[{"name":"自由が丘","prefecture":"東京都","line":"東急大井町線","x":139.668664,"y":35.607224,"postal":"1520035","prev":"緑が丘","next":"九品仏"},{"name":"自由が丘","prefecture":"東京都","line":"東急東横線","x":139.668664,"y":35.607224,"postal":"1520035","prev":"都立大学","next":"田園調布"}]}}
舎人公園,{"response":{"station":[{"name":"舎人公園","prefecture":"東京都","line":"日暮里・舎人ライナー","x":139.770183,"y":35.79623,"postal":"1210837","prev":"谷在家","next":"舎人"}]}}
芝浦ふ頭,{"response":{"station":[{"name":"芝浦ふ頭","prefecture":"東京都","line":"新交通ゆりかもめ","x":139.757852,"y":35.641773,"postal":"1080022","prev":"日の出","next":"お台場海浜公園"}]}}
芦花公園,{"response":{"station":[{"name":"芦花公園","prefecture":"東京都","line":"京王線","x":139.608247,"y":35.670479,"postal":"1570062","prev":"八幡山","next":"千歳烏山"}]}}
花小金井,{"response":{"station":[{"name":"花小金井","prefecture":"東京都","line":"西武新宿線","x":139.513228,"y":35.726129,"postal":"1870003","prev":"田無","next":"小平"}]}}
若松河田,{"response":{"station":[{"name":"若松河田","prefecture":"東京都","line":"都営大江戸線","x":139.718185,"y":35.699218,"postal":"1620056","prev":"東新宿","next":"牛込柳町"}]}}
荏原中延,{"response":{"station":[{"name":"荏原中延","prefecture":"東京都","line":"東急池上線","x":139.712196,"y":35.610056,"postal":"1420052","prev":"戸越銀座","next":"旗の台"}]}}
西八王子,{"response":{"station":[{"name":"西八王子","prefecture":"東京都","line":"JR中央線","x":139.31264,"y":35.656621,"postal":"1930835","prev":"八王子","next":"高尾"}]}}
西国分寺,{"response":{"station":[{"name":"西国分寺","prefecture":"東京都","line":"JR中央線","x":139.465994,"y":35.699744,"postal":"1850013","prev":"国分寺","next":"国立"},{"name":"西国分寺","prefecture":"東京都","line":"JR武蔵野線","x":139.465994,"y":35.699744,"postal":"1850013","prev":"北府中","next":"新小平"}]}}
西太子堂,{"response":{"station":[{"name":"西太子堂","prefecture":"東京都","line":"東急世田谷線","x":139.666382,"y":35.644545,"postal":"1540004","prev":"三軒茶屋","next":"若林"}]}}
西日暮里,{"response":{"station":[{"name":"西日暮里","prefecture":"東京都","line":"JR京浜東北線","x":139.766857,"y":35.731954,"postal":"1160013","prev":"田端","next":"日暮里"},{"name":"西日暮里","prefecture":"東京都","line":"JR山手線","x":139.766857,"y":35.731954,"postal":"1160013","prev":"田端","next":"日暮里"},{"name":"西日暮里","prefecture":"東京都","line":"東京メトロ千代田線","x":139.766511,"y":35.732257,"postal":"1160013","prev":"町屋","next":"千駄木"},{"name":"西日暮里","prefecture":"東京都","line":"日暮里・舎人ライナー","x":139.766857,"y":35.731954,"postal":"1160013","prev":"日暮里","next":"赤土小学校前"}]}}
西早稲田,{"response":{"station":[{"name":"西早稲田","prefecture":"東京都","line":"東京メトロ副都心線","x":139.709101,"y":35.708242,"postal":"1690052","prev":"雑司が谷","next":"東新宿"}]}}
西武新宿,{"response":{"station":[{"name":"西武新宿","prefecture":"東京都","line":"西武新宿線","x":139.7,"y":35.696254,"postal":"1600021","prev":null,"next":"高田馬場"}]}}
西武柳沢,{"response":{"station":[{"name":"西武柳沢","prefecture":"東京都","line":"西武新宿線","x":139.552477,"y":35.728621,"postal":"2020022","prev":"東伏見","next":"田無"}]}}
西武立川,{"response":{"station":[{"name":"西武立川","prefecture":"東京都","line":"西武拝島線","x":139.370124,"y":35.7262,"postal":"1900034","prev":"武蔵砂川","next":"拝島"}]}}
西高島平,{"response":{"station":[{"name":"西高島平","prefecture":"東京都","line":"都営三田線","x":139.64594,"y":35.791833,"postal":"1750082","prev":"新高島平","next":null}]}}
赤坂見附,{"response":{"station":[{"name":"赤坂見附","prefecture":"東京都","line":"東京メトロ丸ノ内線","x":139.737047,"y":35.677021,"postal":"1000014","prev":"国会議事堂前","next":"四ツ谷"},{"name":"赤坂見附","prefecture":"東京都","line":"東京メトロ銀座線","x":139.737047,"y":35.677021,"postal":"1000014","prev":"青山一丁目","next":"溜池山王"}]}}
赤羽岩淵,{"response":{"station":[{"name":"赤羽岩淵","prefecture":"東京都","line":"埼玉高速鉄道","x":139.722103,"y":35.783417,"postal":"1150041","prev":null,"next":"川口元郷"},{"name":"赤羽岩淵","prefecture":"東京都","line":"東京メトロ南北線","x":139.722103,"y":35.783417,"postal":"1150041","prev":"志茂","next":null}]}}
足立小台,{"response":{"station":[{"name":"足立小台","prefecture":"東京都","line":"日暮里・舎人ライナー","x":139.770381,"y":35.754658,"postal":"1200046","prev":"熊野前","next":"扇大橋"}]}}
都立大学,{"response":{"station":[{"name":"都立大学","prefecture":"東京都","line":"東急東横線","x":139.676393,"y":35.617835,"postal":"1520031","prev":"学芸大学","next":"自由が丘"}]}}
都立家政,{"response":{"station":[{"name":"都立家政","prefecture":"東京都","line":"西武新宿線","x":139.644839,"y":35.722313,"postal":"1650032","prev":"野方","next":"鷺ノ宮"}]}}
門前仲町,{"response":{"station":[{"name":"門前仲町","prefecture":"東京都","line":"東京メトロ東西線","x":139.796209,"y":35.671851,"postal":"1350047","prev":"茅場町","next":"木場"},{"name":"門前仲町","prefecture":"東京都","line":"都営大江戸線","x":139.796209,"y":35.671851,"postal":"1350048","prev":"清澄白河","next":"月島"}]}}
阿佐ケ谷,{"response":{"station":[{"name":"阿佐ケ谷","prefecture":"東京都","line":"JR中央線","x":139.635868,"y":35.704818,"postal":"1660004","prev":"高円寺","next":"荻窪"},{"name":"阿佐ケ谷","prefecture":"東京都","line":"JR総武線","x":139.635868,"y":35.704818,"postal":"1660004","prev":"荻窪","next":"高円寺"}]}}
雑司が谷,{"response":{"station":[{"name":"雑司が谷","prefecture":"東京都","line":"東京メトロ副都心線","x":139.714795,"y":35.720233,"postal":"1710032","prev":"池袋","next":"西早稲田"}]}}
青梅街道,{"response":{"station":[{"name":"青梅街道","prefecture":"東京都","line":"西武多摩湖線","x":139.476628,"y":35.73098,"postal":"1870032","prev":"一橋学園","next":"萩山"}]}}
青物横丁,{"response":{"station":[{"name":"青物横丁","prefecture":"東京都","line":"京浜急行本線","x":139.742958,"y":35.609351,"postal":"1400004","prev":"新馬場","next":"鮫洲"}]}}
馬喰横山,{"response":{"station":[{"name":"馬喰横山","prefecture":"東京都","line":"都営新宿線","x":139.782768,"y":35.69212,"postal":"1030003","prev":"岩本町","next":"浜町"}]}}
駒沢大学,{"response":{"station":[{"name":"駒沢大学","prefecture":"東京都","line":"東急田園都市線","x":139.661702,"y":35.633471,"postal":"1540012","prev":"三軒茶屋","next":"桜新町"}]}}
高尾山口,{"response":{"station":[{"name":"高尾山口","prefecture":"東京都","line":"京王高尾線","x":139.269856,"y":35.632377,"postal":"1930844","prev":"高尾","next":null}]}}
高幡不動,{"response":{"station":[{"name":"高幡不動","prefecture":"東京都","line":"京王線","x":139.412953,"y":35.662361,"postal":"1910031","prev":"百草園","next":"南平"},{"name":"高幡不動","prefecture":"東京都","line":"京王動物園線","x":139.412953,"y":35.662361,"postal":"1910031","prev":null,"next":"多摩動物公園"},{"name":"高幡不動","prefecture":"東京都","line":"多摩モノレール","x":139.415184,"y":35.66148,"postal":"1910031","prev":"万願寺","next":"程久保"}]}}
高田馬場,{"response":{"station":[{"name":"高田馬場","prefecture":"東京都","line":"JR山手線","x":139.703715,"y":35.712677,"postal":"1690075","prev":"新大久保","next":"目白"},{"name":"高田馬場","prefecture":"東京都","line":"東京メトロ東西線","x":139.704745,"y":35.713338,"postal":"1690075","prev":"落合","next":"早稲田"},{"name":"高田馬場","prefecture":"東京都","line":"西武新宿線","x":139.703715,"y":35.712677,"postal":"1690075","prev":"西武新宿","next":"下落合"}]}}
麻布十番,{"response":{"station":[{"name":"麻布十番","prefecture":"東京都","line":"東京メトロ南北線","x":139.737051,"y":35.654682,"postal":"1060045","prev":"白金高輪","next":"六本木一丁目"},{"name":"麻布十番","prefecture":"東京都","line":"都営大江戸線","x":139.736116,"y":35.656503,"postal":"1060045","prev":"赤羽橋","next":"六本木"}]}}
すずかけ台,{"response":{"station":[{"name":"すずかけ台","prefecture":"東京都","line":"東急田園都市線","x":139.481684,"y":35.517094,"postal":"1940002","prev":"つくし野","next":"南町田グランベリーパーク"}]}}
つつじヶ丘,{"response":{"station":[{"name":"つつじヶ丘","prefecture":"東京都","line":"京王線","x":139.575103,"y":35.657936,"postal":"1820006","prev":"仙川","next":"柴崎"}]}}
ひばりヶ丘,{"response":{"station":[{"name":"ひばりヶ丘","prefecture":"東京都","line":"西武池袋線","x":139.545852,"y":35.751485,"postal":"2020002","prev":"保谷","next":"東久留米"}]}}
上野広小路,{"response":{"station":[{"name":"上野広小路","prefecture":"東京都","line":"東京メトロ銀座線","x":139.772877,"y":35.70768,"postal":"1100005","prev":"末広町","next":"上野"}]}}
上野御徒町,{"response":{"station":[{"name":"上野御徒町","prefecture":"東京都","line":"都営大江戸線","x":139.774332,"y":35.707893,"postal":"1100005","prev":"本郷三丁目","next":"新御徒町"}]}}
世田谷代田,{"response":{"station":[{"name":"世田谷代田","prefecture":"東京都","line":"小田急小田原線","x":139.661557,"y":35.65834,"postal":"1550033","prev":"下北沢","next":"梅ヶ丘"}]}}
井の頭公園,{"response":{"station":[{"name":"井の頭公園","prefecture":"東京都","line":"京王井の頭線","x":139.583112,"y":35.697304,"postal":"1810001","prev":"三鷹台","next":"吉祥寺"}]}}
京王八王子,{"response":{"station":[{"name":"京王八王子","prefecture":"東京都","line":"京王線","x":139.343851,"y":35.657416,"postal":"1920046","prev":"北野","next":null}]}}
京王堀之内,{"response":{"station":[{"name":"京王堀之内","prefecture":"東京都","line":"京王相模原線","x":139.400314,"y":35.624438,"postal":"1920355","prev":"京王多摩センター","next":"南大沢"}]}}
京王多摩川,{"response":{"station":[{"name":"京王多摩川","prefecture":"東京都","line":"京王相模原線","x":139.536606,"y":35.644499,"postal":"1820025","prev":"調布","next":"京王稲田堤"}]}}
代々木上原,{"response":{"station":[{"name":"代々木上原","prefecture":"東京都","line":"小田急小田原線","x":139.680153,"y":35.669159,"postal":"1510066","prev":"代々木八幡","next":"東北沢"},{"name":"代々木上原","prefecture":"東京都","line":"東京メトロ千代田線","x":139.680153,"y":35.669159,"postal":"1510066","prev":"代々木公園","next":"北綾瀬"}]}}
代々木八幡,{"response":{"station":[{"name":"代々木八幡","prefecture":"東京都","line":"小田急小田原線","x":139.688913,"y":35.669716,"postal":"1510053","prev":"参宮橋","next":"代々木上原"}]}}
代々木公園,{"response":{"station":[{"name":"代々木公園","prefecture":"東京都","line":"東京メトロ千代田線","x":139.689099,"y":35.669187,"postal":"1510063","prev":"明治神宮前","next":"代々木上原"}]}}
南阿佐ヶ谷,{"response":{"station":[{"name":"南阿佐ヶ谷","prefecture":"東京都","line":"東京メトロ丸ノ内線","x":139.63576,"y":35.699624,"postal":"1660004","prev":"新高円寺","next":"荻窪"}]}}
和泉多摩川,{"response":{"station":[{"name":"和泉多摩川","prefecture":"東京都","line":"小田急小田原線","x":139.573695,"y":35.627349,"postal":"2010014","prev":"狛江","next":"登戸"}]}}
四谷三丁目,{"response":{"station":[{"name":"四谷三丁目","prefecture":"東京都","line":"東京メトロ丸ノ内線","x":139.720103,"y":35.687958,"postal":"1600004","prev":"四ツ谷","next":"新宿御苑前"}]}}
国立競技場,{"response":{"station":[{"name":"国立競技場","prefecture":"東京都","line":"都営大江戸線","x":139.714932,"y":35.679831,"postal":"1600013","prev":"青山一丁目","next":"代々木"}]}}
国際展示場,{"response":{"station":[{"name":"国際展示場","prefecture":"東京都","line":"東京りんかい線","x":139.791617,"y":35.634409,"postal":"1350063","prev":"東雲","next":"東京テレポート"}]}}
地下鉄成増,{"response":{"station":[{"name":"地下鉄成増","prefecture":"東京都","line":"東京メトロ有楽町線","x":139.631497,"y":35.776557,"postal":"1750094","prev":"和光市","next":"地下鉄赤塚"},{"name":"地下鉄成増","prefecture":"東京都","line":"東京メトロ副都心線","x":139.631497,"y":35.776557,"postal":"1750094","prev":"和光市","next":"地下鉄赤塚"}]}}
地下鉄赤塚,{"response":{"station":[{"name":"地下鉄赤塚","prefecture":"東京都","line":"東京メトロ有楽町線","x":139.644021,"y":35.769939,"postal":"1750093","prev":"地下鉄成増","next":"平和台"},{"name":"地下鉄赤塚","prefecture":"東京都","line":"東京メトロ副都心線","x":139.644021,"y":35.769939,"postal":"1750093","prev":"地下鉄成増","next":"平和台"}]}}
堀切菖蒲園,{"response":{"station":[{"name":"堀切菖蒲園","prefecture":"東京都","line":"京成本線","x":139.827545,"y":35.747649,"postal":"1240006","prev":"京成関屋","next":"お花茶屋"}]}}
大崎広小路,{"response":{"station":[{"name":"大崎広小路","prefecture":"東京都","line":"東急池上線","x":139.722339,"y":35.622244,"postal":"1410032","prev":"五反田","next":"戸越銀座"}]}}
富士見ヶ丘,{"response":{"station":[{"name":"富士見ヶ丘","prefecture":"東京都","line":"京王井の頭線","x":139.607072,"y":35.684805,"postal":"1680082","prev":"高井戸","next":"久我山"}]}}
小田急永山,{"response":{"station":[{"name":"小田急永山","prefecture":"東京都","line":"小田急多摩線","x":139.447943,"y":35.629972,"postal":"2060025","prev":"はるひ野","next":"小田急多摩センター"}]}}
志村三丁目,{"response":{"station":[{"name":"志村三丁目","prefecture":"東京都","line":"都営三田線","x":139.685937,"y":35.777391,"postal":"1740056","prev":"志村坂上","next":"蓮根"}]}}
成城学園前,{"response":{"station":[{"name":"成城学園前","prefecture":"東京都","line":"小田急小田原線","x":139.598958,"y":35.640114,"postal":"1570066","prev":"祖師ヶ谷大蔵","next":"喜多見"}]}}
新井薬師前,{"response":{"station":[{"name":"新井薬師前","prefecture":"東京都","line":"西武新宿線","x":139.672582,"y":35.715778,"postal":"1640002","prev":"中井","next":"沼袋"}]}}
新宿三丁目,{"response":{"station":[{"name":"新宿三丁目","prefecture":"東京都","line":"東京メトロ丸ノ内線","x":139.704895,"y":35.690847,"postal":"1600022","prev":"新宿御苑前","next":"新宿"},{"name":"新宿三丁目","prefecture":"東京都","line":"東京メトロ副都心線","x":139.704828,"y":35.690853,"postal":"1600022","prev":"東新宿","next":"北参道"},{"name":"新宿三丁目","prefecture":"東京都","line":"都営新宿線","x":139.706271,"y":35.690616,"postal":"1600022","prev":"新宿","next":"曙橋"}]}}
新宿御苑前,{"response":{"station":[{"name":"新宿御苑前","prefecture":"東京都","line":"東京メトロ丸ノ内線","x":139.71069,"y":35.688588,"postal":"1600022","prev":"四谷三丁目","next":"新宿三丁目"}]}}
新御茶ノ水,{"response":{"station":[{"name":"新御茶ノ水","prefecture":"東京都","line":"東京メトロ千代田線","x":139.766014,"y":35.698072,"postal":"1010062","prev":"湯島","next":"大手町"}]}}
本所吾妻橋,{"response":{"station":[{"name":"本所吾妻橋","prefecture":"東京都","line":"都営浅草線","x":139.804624,"y":35.70858,"postal":"1300001","prev":"浅草","next":"押上"}]}}
本郷三丁目,{"response":{"station":[{"name":"本郷三丁目","prefecture":"東京都","line":"東京メトロ丸ノ内線","x":139.759914,"y":35.706671,"postal":"1130033","prev":"後楽園","next":"御茶ノ水"},{"name":"本郷三丁目","prefecture":"東京都","line":"都営大江戸線","x":139.760095,"y":35.707462,"postal":"1130033","prev":"春日","next":"上野御徒町"}]}}
松陰神社前,{"response":{"station":[{"name":"松陰神社前","prefecture":"東京都","line":"東急世田谷線","x":139.655211,"y":35.643947,"postal":"1540023","prev":"若林","next":"世田谷"}]}}
柴崎体育館,{"response":{"station":[{"name":"柴崎体育館","prefecture":"東京都","line":"多摩モノレール","x":139.409191,"y":35.689475,"postal":"1900023","prev":"立川南","next":"甲州街道"}]}}
武蔵五日市,{"response":{"station":[{"name":"武蔵五日市","prefecture":"東京都","line":"JR五日市線","x":139.228039,"y":35.732248,"postal":"1900166","prev":"武蔵増戸","next":null}]}}
武蔵小金井,{"response":{"station":[{"name":"武蔵小金井","prefecture":"東京都","line":"JR中央線","x":139.506483,"y":35.701337,"postal":"1840004","prev":"東小金井","next":"国分寺"}]}}
牛込神楽坂,{"response":{"station":[{"name":"牛込神楽坂","prefecture":"東京都","line":"都営大江戸線","x":139.735802,"y":35.700851,"postal":"1620832","prev":"牛込柳町","next":"飯田橋"}]}}
玉川学園前,{"response":{"station":[{"name":"玉川学園前","prefecture":"東京都","line":"小田急小田原線","x":139.463388,"y":35.563486,"postal":"1940041","prev":"鶴川","next":"町田"}]}}
町屋二丁目,{"response":{"station":[{"name":"町屋二丁目","prefecture":"東京都","line":"都電荒川線","x":139.776625,"y":35.743837,"postal":"1160002","prev":"町屋駅前","next":"東尾久三丁目"}]}}
石神井公園,{"response":{"station":[{"name":"石神井公園","prefecture":"東京都","line":"西武池袋線","x":139.606981,"y":35.743563,"postal":"1770041","prev":"練馬高野台","next":"大泉学園"}]}}
練馬春日町,{"response":{"station":[{"name":"練馬春日町","prefecture":"東京都","line":"都営大江戸線","x":139.640236,"y":35.751452,"postal":"1790074","prev":"豊島園","next":"光が丘"}]}}
練馬高野台,{"response":{"station":[{"name":"練馬高野台","prefecture":"東京都","line":"西武池袋線","x":139.616749,"y":35.740622,"postal":"1770033","prev":"富士見台","next":"石神井公園"}]}}
聖蹟桜ヶ丘,{"response":{"station":[{"name":"聖蹟桜ヶ丘","prefecture":"東京都","line":"京王線","x":139.446979,"y":35.650814,"postal":"2060011","prev":"中河原","next":"百草園"}]}}
荒川一中前,{"response":{"station":[{"name":"荒川一中前","prefecture":"東京都","line":"都電荒川線","x":139.788988,"y":35.733659,"postal":"1160003","prev":"三ノ輪橋","next":"荒川区役所前"}]}}
荒川七丁目,{"response":{"station":[{"name":"荒川七丁目","prefecture":"東京都","line":"都電荒川線","x":139.78417,"y":35.741975,"postal":"1160002","prev":"荒川二丁目","next":"町屋駅前"}]}}
荒川二丁目,{"response":{"station":[{"name":"荒川二丁目","prefecture":"東京都","line":"都電荒川線","x":139.784696,"y":35.738623,"postal":"1160002","prev":"荒川区役所前","next":"荒川七丁目"}]}}
荒川車庫前,{"response":{"station":[{"name":"荒川車庫前","prefecture":"東京都","line":"都電荒川線","x":139.752617,"y":35.750909,"postal":"1160011","prev":"荒川遊園地前","next":"梶原"}]}}
落合南長崎,{"response":{"station":[{"name":"落合南長崎","prefecture":"東京都","line":"都営大江戸線","x":139.683303,"y":35.723608,"postal":"1610031","prev":"中井","next":"新江古田"}]}}
銀座一丁目,{"response":{"station":[{"name":"銀座一丁目","prefecture":"東京都","line":"東京メトロ有楽町線","x":139.767045,"y":35.67435,"postal":"1040061","prev":"有楽町","next":"新富町"}]}}
雪が谷大塚,{"response":{"station":[{"name":"雪が谷大塚","prefecture":"東京都","line":"東急池上線","x":139.681083,"y":35.592038,"postal":"1450066","prev":"石川台","next":"御嶽山"}]}}
青山一丁目,{"response":{"station":[{"name":"青山一丁目","prefecture":"東京都","line":"東京メトロ半蔵門線","x":139.724159,"y":35.672765,"postal":"1070051","prev":"表参道","next":"永田町"},{"name":"青山一丁目","prefecture":"東京都","line":"東京メトロ銀座線","x":139.724159,"y":35.672765,"postal":"1070051","prev":"外苑前","next":"赤坂見附"},{"name":"青山一丁目","prefecture":"東京都","line":"都営大江戸線","x":139.72396,"y":35.672929,"postal":"1070051","prev":"六本木","next":"国立競技場"}]}}
駒場東大前,{"response":{"station":[{"name":"駒場東大前","prefecture":"東京都","line":"京王井の頭線","x":139.684308,"y":35.65868,"postal":"1530041","prev":"神泉","next":"池ノ上"}]}}
鬼子母神前,{"response":{"station":[{"name":"鬼子母神前","prefecture":"東京都","line":"都電荒川線","x":139.714916,"y":35.720403,"postal":"1710032","prev":"都電雑司ヶ谷","next":"学習院下"}]}}
羽田空港第1・第2ターミナル,{"response":{"station":[{"name":"羽田空港第1・第2ターミナル","prefecture":"東京都","line":"京浜急行空港線","x":139.785962,"y":35.549809,"postal":"1440041","prev":"羽田空港第3ターミナル","next":null}]}}
羽田空港第1ターミナル,{"response":{"station":[{"name":"羽田空港第1ターミナル","prefecture":"東京都","line":"東京モノレール羽田線","x":139.784653,"y":35.549163,"postal":"1440041","prev":"新整備場","next":"羽田空港第2ターミナル"}]}}
羽田空港第2ターミナル,{"response":{"station":[{"name":"羽田空港第2ターミナル","prefecture":"東京都","line":"東京モノレール羽田線","x":139.787979,"y":35.550734,"postal":"1440041","prev":"羽田空港第1ターミナル","next":null}]}}
羽田空港第3ターミナル,{"response":{"station":[{"name":"羽田空港第3ターミナル","prefecture":"東京都","line":"京浜急行空港線","x":139.768968,"y":35.544676,"postal":"1440041","prev":"天空橋","next":"羽田空港第1・第2ターミナル"},{"name":"羽田空港第3ターミナル","prefecture":"東京都","line":"東京モノレール羽田線","x":139.768206,"y":35.544169,"postal":"1440041","prev":"天空橋","next":"新整備場"}]}}
中野富士見町,{"response":{"station":[{"name":"中野富士見町","prefecture":"東京都","line":"東京メトロ丸ノ内分岐線","x":139.666933,"y":35.690514,"postal":"1640013","prev":"中野新橋","next":"方南町"}]}}
六本木一丁目,{"response":{"station":[{"name":"六本木一丁目","prefecture":"東京都","line":"東京メトロ南北線","x":139.739,"y":35.665595,"postal":"1060032","prev":"麻布十番","next":"溜池山王"}]}}
国会議事堂前,{"response":{"station":[{"name":"国会議事堂前","prefecture":"東京都","line":"東京メトロ丸ノ内線","x":139.745219,"y":35.67393,"postal":"1000014","prev":"霞ケ関","next":"赤坂見附"},{"name":"国会議事堂前","prefecture":"東京都","line":"東京メトロ千代田線","x":139.745219,"y":35.67393,"postal":"1000014","prev":"霞ケ関","next":"赤坂"}]}}
多摩センター,{"response":{"station":[{"name":"多摩センター","prefecture":"東京都","line":"多摩モノレール","x":139.422783,"y":35.623724,"postal":"2060033","prev":"松が谷","next":null}]}}
多摩動物公園,{"response":{"station":[{"name":"多摩動物公園","prefecture":"東京都","line":"京王動物園線","x":139.404627,"y":35.649215,"postal":"1910042","prev":"高幡不動","next":null},{"name":"多摩動物公園","prefecture":"東京都","line":"多摩モノレール","x":139.403672,"y":35.648666,"postal":"1910042","prev":"程久保","next":"中央大学・明星大学"}]}}
大井競馬場前,{"response":{"station":[{"name":"大井競馬場前","prefecture":"東京都","line":"東京モノレール羽田線","x":139.74708,"y":35.595006,"postal":"1400012","prev":"天王洲アイル","next":"流通センター"}]}}
天王洲アイル,{"response":{"station":[{"name":"天王洲アイル","prefecture":"東京都","line":"東京りんかい線","x":139.750793,"y":35.620562,"postal":"1400002","prev":"東京テレポート","next":"品川シーサイド"},{"name":"天王洲アイル","prefecture":"東京都","line":"東京モノレール羽田線","x":139.750675,"y":35.622908,"postal":"1400002","prev":"モノレール浜松町","next":"大井競馬場前"}]}}
平山城址公園,{"response":{"station":[{"name":"平山城址公園","prefecture":"東京都","line":"京王線","x":139.379926,"y":35.647371,"postal":"1910043","prev":"南平","next":"長沼"}]}}
東尾久三丁目,{"response":{"station":[{"name":"東尾久三丁目","prefecture":"東京都","line":"都電荒川線","x":139.774386,"y":35.745398,"postal":"1160012","prev":"町屋二丁目","next":"熊野前"}]}}
東池袋四丁目,{"response":{"station":[{"name":"東池袋四丁目","prefecture":"東京都","line":"都電荒川線","x":139.720012,"y":35.72528,"postal":"1700013","prev":"向原","next":"都電雑司ヶ谷"}]}}
板橋区役所前,{"response":{"station":[{"name":"板橋区役所前","prefecture":"東京都","line":"都営三田線","x":139.710102,"y":35.751284,"postal":"1730004","prev":"新板橋","next":"板橋本町"}]}}
流通センター,{"response":{"station":[{"name":"流通センター","prefecture":"東京都","line":"東京モノレール羽田線","x":139.748964,"y":35.58186,"postal":"1430006","prev":"大井競馬場前","next":"昭和島"}]}}
滝野川一丁目,{"response":{"station":[{"name":"滝野川一丁目","prefecture":"東京都","line":"都電荒川線","x":139.735376,"y":35.747374,"postal":"1140023","prev":"飛鳥山","next":"西ヶ原四丁目"}]}}
祖師ヶ谷大蔵,{"response":{"station":[{"name":"祖師ヶ谷大蔵","prefecture":"東京都","line":"小田急小田原線","x":139.609659,"y":35.643236,"postal":"1570072","prev":"千歳船橋","next":"成城学園前"}]}}
荒川区役所前,{"response":{"station":[{"name":"荒川区役所前","prefecture":"東京都","line":"都電荒川線","x":139.786456,"y":35.73493,"postal":"1160002","prev":"荒川一中前","next":"荒川二丁目"}]}}
荒川遊園地前,{"response":{"station":[{"name":"荒川遊園地前","prefecture":"東京都","line":"都電荒川線","x":139.757767,"y":35.750744,"postal":"1160011","prev":"小台","next":"荒川車庫前"}]}}
葛西臨海公園,{"response":{"station":[{"name":"葛西臨海公園","prefecture":"東京都","line":"JR京葉線","x":139.861529,"y":35.644392,"postal":"1340086","prev":"新木場","next":"舞浜"}]}}
虎ノ門ヒルズ,{"response":{"station":[{"name":"虎ノ門ヒルズ","prefecture":"東京都","line":"東京メトロ日比谷線","x":139.747793,"y":35.667444,"postal":"1050001","prev":"霞ケ関","next":"神谷町"}]}}
西ヶ原四丁目,{"response":{"station":[{"name":"西ヶ原四丁目","prefecture":"東京都","line":"都電荒川線","x":139.732779,"y":35.744501,"postal":"1140024","prev":"滝野川一丁目","next":"新庚申塚"}]}}
西新井大師西,{"response":{"station":[{"name":"西新井大師西","prefecture":"東京都","line":"日暮里・舎人ライナー","x":139.770094,"y":35.781505,"postal":"1230872","prev":"江北","next":"谷在家"}]}}
西新宿五丁目,{"response":{"station":[{"name":"西新宿五丁目","prefecture":"東京都","line":"都営大江戸線","x":139.684304,"y":35.689798,"postal":"1600023","prev":"都庁前","next":"中野坂上"}]}}
赤土小学校前,{"response":{"station":[{"name":"赤土小学校前","prefecture":"東京都","line":"日暮里・舎人ライナー","x":139.768989,"y":35.742454,"postal":"1160012","prev":"西日暮里","next":"熊野前"}]}}
都電雑司ヶ谷,{"response":{"station":[{"name":"都電雑司ヶ谷","prefecture":"東京都","line":"都電荒川線","x":139.718006,"y":35.724261,"postal":"1710022","prev":"東池袋四丁目","next":"鬼子母神前"}]}}
お台場海浜公園,{"response":{"station":[{"name":"お台場海浜公園","prefecture":"東京都","line":"新交通ゆりかもめ","x":139.778607,"y":35.629813,"postal":"1350091","prev":"芝浦ふ頭","next":"台場"}]}}
八王子みなみ野,{"response":{"station":[{"name":"八王子みなみ野","prefecture":"東京都","line":"JR横浜線","x":139.330678,"y":35.630664,"postal":"1920916","prev":"相原","next":"片倉"}]}}
品川シーサイド,{"response":{"station":[{"name":"品川シーサイド","prefecture":"東京都","line":"東京りんかい線","x":139.749549,"y":35.608524,"postal":"1400002","prev":"天王洲アイル","next":"大井町"}]}}
大塚・帝京大学,{"response":{"station":[{"name":"大塚・帝京大学","prefecture":"東京都","line":"多摩モノレール","x":139.416461,"y":35.636878,"postal":"1920352","prev":"中央大学・明星大学","next":"松が谷"}]}}
府中競馬正門前,{"response":{"station":[{"name":"府中競馬正門前","prefecture":"東京都","line":"京王競馬場線","x":139.485019,"y":35.668288,"postal":"1830016","prev":"東府中","next":null}]}}
有明テニスの森,{"response":{"station":[{"name":"有明テニスの森","prefecture":"東京都","line":"新交通ゆりかもめ","x":139.78888,"y":35.639964,"postal":"1350063","prev":"有明","next":"市場前"}]}}
東京テレポート,{"response":{"station":[{"name":"東京テレポート","prefecture":"東京都","line":"東京りんかい線","x":139.778896,"y":35.62753,"postal":"1350064","prev":"国際展示場","next":"天王洲アイル"}]}}
見沼代親水公園,{"response":{"station":[{"name":"見沼代親水公園","prefecture":"東京都","line":"日暮里・舎人ライナー","x":139.770719,"y":35.814544,"postal":"1210831","prev":"舎人","next":null}]}}
テレコムセンター,{"response":{"station":[{"name":"テレコムセンター","prefecture":"東京都","line":"新交通ゆりかもめ","x":139.779327,"y":35.617593,"postal":"1350064","prev":"東京国際クルーズターミナル","next":"青海"}]}}
京王多摩センター,{"response":{"station":[{"name":"京王多摩センター","prefecture":"東京都","line":"京王相模原線","x":139.42402,"y":35.62518,"postal":"2060033","prev":"京王永山","next":"京王堀之内"}]}}
東京ビッグサイト,{"response":{"station":[{"name":"東京ビッグサイト","prefecture":"東京都","line":"新交通ゆりかもめ","x":139.791228,"y":35.630158,"postal":"1350063","prev":"青海","next":"有明"}]}}
高輪ゲートウェイ,{"response":{"station":[{"name":"高輪ゲートウェイ","prefecture":"東京都","line":"JR京浜東北線","x":139.740651,"y":35.635476,"postal":"1080075","prev":"田町","next":"品川"},{"name":"高輪ゲートウェイ","prefecture":"東京都","line":"JR山手線","x":139.740651,"y":35.635476,"postal":"1080075","prev":"田町","next":null}]}}
中央大学・明星大学,{"response":{"station":[{"name":"中央大学・明星大学","prefecture":"東京都","line":"多摩モノレール","x":139.408672,"y":35.64197,"postal":"1920351","prev":"多摩動物公園","next":"大塚・帝京大学"}]}}
京王よみうりランド,{"response":{"station":[{"name":"京王よみうりランド","prefecture":"東京都","line":"京王相模原線","x":139.517597,"y":35.632934,"postal":"2060812","prev":"京王稲田堤","next":"稲城"}]}}
小田急多摩センター,{"response":{"station":[{"name":"小田急多摩センター","prefecture":"東京都","line":"小田急多摩線","x":139.424298,"y":35.624902,"postal":"2060033","prev":"小田急永山","next":"唐木田"}]}}
明治神宮前〈原宿〉,{"response":{"station":[{"name":"明治神宮前〈原宿〉","prefecture":"東京都","line":"東京メトロ副都心線","x":139.705367,"y":35.668497,"postal":"1500001","prev":"北参道","next":"渋谷"}]}}
とうきょうスカイツリー,{"response":{"station":[{"name":"とうきょうスカイツリー","prefecture":"東京都","line":"東武伊勢崎線","x":139.809332,"y":35.71043,"postal":"1310045","prev":"浅草","next":"押上"}]}}
南町田グランベリーパーク,{"response":{"station":[{"name":"南町田グランベリーパーク","prefecture":"東京都","line":"東急田園都市線","x":139.470318,"y":35.511502,"postal":"1940004","prev":"すずかけ台","next":"つきみ野"}]}}
東京国際クルーズターミナル,{"response":{"station":[{"name":"東京国際クルーズターミナル","prefecture":"東京都","line":"新交通ゆりかもめ","x":139.773157,"y":35.621462,"postal":"1350064","prev":"台場","next":"テレコムセンター"}]}}
